<?xml version="1.0" encoding="UTF-8"?><kml xmlns="http://www.opengis.net/kml/2.2"><Document><Folder><name>Tractor 1 Deutz-Fahr Agroplus</name><Placemark><name>Descartado</name><Style><LineStyle><color>ff00ffff</color><width>3</width></LineStyle></Style><LineString><coordinates>-71.6241066,-33.6790449,0 -71.6241066,-33.6790449,0</coordinates></LineString></Placemark></Folder><Folder><name>Tractor 3 Same Frutetto 100</name><Placemark><name>Descartado</name><Style><LineStyle><color>ff00ffff</color><width>3</width></LineStyle></Style><LineString><coordinates>-70.6462933,-33.8049416,0 -70.6462933,-33.8049416,0</coordinates></LineString></Placemark></Folder><Folder><name>Tractor 4 Same Frutetto 100</name><Placemark><name>Descartado</name><Style><LineStyle><color>ff00ffff</color><width>3</width></LineStyle></Style><LineString><coordinates>-71.624055,-33.6790566,0 -71.624055,-33.6790566,0</coordinates></LineString></Placemark></Folder><Folder><name>Tractor 5 Same Explorer 95</name><Placemark><name>Descartado</name><Style><LineStyle><color>ff00ffff</color><width>3</width></LineStyle></Style><LineString><coordinates>-71.2658283,-34.6545983,0 -71.2658283,-34.6545983,0</coordinates></LineString></Placemark></Folder><Folder><name>Tractor 7 Kubota 95</name><Placemark><name>Descartado</name><Style><LineStyle><color>ff00ffff</color><width>3</width></LineStyle></Style><LineString><coordinates>-71.2998333,-35.6444999,0 -71.2998333,-35.6444999,0</coordinates></LineString></Placemark></Folder><Folder><name>Tractor 8 Kubota 108</name><Placemark><name>Descartado</name><Style><LineStyle><color>ff00ffff</color><width>3</width></LineStyle></Style><LineString><coordinates>-70.5649033,-33.6738099,0 -70.5649033,-33.6738099,0</coordinates></LineString></Placemark></Folder><Folder><name>Tractor 9 Deutz Fahr 115</name><Placemark><name>Descartado</name><Style><LineStyle><color>ff00ffff</color><width>3</width></LineStyle></Style><LineString><coordinates>-71.2659549,-34.6544866,0 -71.2659549,-34.6544866,0</coordinates></LineString></Placemark></Folder><Folder><name>Tractor 10 Deutz Fahr 115</name><Placemark><name>Descartado (grupo chico) - Hilera 1</name><Style><LineStyle><color>ff00ffff</color><width>3</width></LineStyle></Style><LineString><coordinates>-71.6252866,-35.1326683,0 -71.6242016,-35.1328333,0</coordinates></LineString></Placemark><Placemark><name>Descartado (grupo chico) - Hilera 34</name><Style><LineStyle><color>ff00ffff</color><width>3</width></LineStyle></Style><LineString><coordinates>-71.6243416,-35.13294,0 -71.6251783,-35.1326816,0</coordinates></LineString></Placemark><Placemark><name>Descartado (grupo chico) - Hilera 2</name><Style><LineStyle><color>ff00ffff</color><width>3</width></LineStyle></Style><LineString><coordinates>-71.6242016,-35.1328333,0 -71.6219066,-35.1282016,0</coordinates></LineString></Placemark><Placemark><name>Descartado (grupo chico) - Hilera 33</name><Style><LineStyle><color>ff00ffff</color><width>3</width></LineStyle></Style><LineString><coordinates>-71.622005,-35.1281666,0 -71.6242066,-35.13289,0</coordinates></LineString></Placemark><Placemark><name>Descartado (grupo chico) - Hilera 3</name><Style><LineStyle><color>ff00ffff</color><width>3</width></LineStyle></Style><LineString><coordinates>-71.6219066,-35.1282016,0 -71.6218516,-35.128285,0</coordinates></LineString></Placemark><Placemark><name>Descartado (grupo chico) - Hilera 4</name><Style><LineStyle><color>ff00ffff</color><width>3</width></LineStyle></Style><LineString><coordinates>-71.6218516,-35.128285,0 -71.6194266,-35.1294533,0</coordinates></LineString></Placemark><Placemark><name>Descartado (grupo chico) - Hilera 5</name><Style><LineStyle><color>ff00ffff</color><width>3</width></LineStyle></Style><LineString><coordinates>-71.6194266,-35.1294533,0 -71.618475,-35.1294,0</coordinates></LineString></Placemark><Placemark><name>Trabajado - Cuartel 6 - Hilera 6</name><Style><LineStyle><color>ff00ff00</color><width>3</width></LineStyle></Style><LineString><coordinates>-71.618475,-35.1294,0 -71.6172349,-35.1313383,0</coordinates></LineString></Placemark><Placemark><name>Trabajado - Cuartel 6 - Hilera 7</name><Style><LineStyle><color>ff00ff00</color><width>3</width></LineStyle></Style><LineString><coordinates>-71.6172516,-35.13138,0 -71.618535,-35.1293716,0</coordinates></LineString></Placemark><Placemark><name>Trabajado - Cuartel 6 - Hilera 8</name><Style><LineStyle><color>ff00ff00</color><width>3</width></LineStyle></Style><LineString><coordinates>-71.618535,-35.1293716,0 -71.6172916,-35.1314149,0</coordinates></LineString></Placemark><Placemark><name>Trabajado - Cuartel 6 - Hilera 9</name><Style><LineStyle><color>ff00ff00</color><width>3</width></LineStyle></Style><LineString><coordinates>-71.6172916,-35.1314149,0 -71.61867128144344,-35.129396202864484,0</coordinates></LineString></Placemark><Placemark><name>Trabajado - Cuartel 6 - Hilera 10</name><Style><LineStyle><color>ff00ff00</color><width>3</width></LineStyle></Style><LineString><coordinates>-71.61733166626742,-35.13138668966806,0 -71.618645,-35.1293816,0</coordinates></LineString></Placemark><Placemark><name>Trabajado - Cuartel 6 - Hilera 11</name><Style><LineStyle><color>ff00ff00</color><width>3</width></LineStyle></Style><LineString><coordinates>-71.6186866,-35.1294033,0 -71.6174183,-35.13136,0</coordinates></LineString></Placemark><Placemark><name>Descartado (grupo chico) - Hilera 12</name><Style><LineStyle><color>ff00ffff</color><width>3</width></LineStyle></Style><LineString><coordinates>-71.6174183,-35.13136,0 -71.6175233,-35.1314799,0</coordinates></LineString></Placemark><Placemark><name>Descartado (grupo chico) - Hilera 13</name><Style><LineStyle><color>ff00ffff</color><width>3</width></LineStyle></Style><LineString><coordinates>-71.6175233,-35.1314799,0 -71.619695,-35.1310733,0</coordinates></LineString></Placemark><Placemark><name>Descartado (grupo chico) - Hilera 15</name><Style><LineStyle><color>ff00ffff</color><width>3</width></LineStyle></Style><LineString><coordinates>-71.61993,-35.1309799,0 -71.616675,-35.1312799,0</coordinates></LineString></Placemark><Placemark><name>Descartado (grupo chico) - Hilera 30</name><Style><LineStyle><color>ff00ffff</color><width>3</width></LineStyle></Style><LineString><coordinates>-71.6173716,-35.1315516,0 -71.6188516,-35.1316316,0</coordinates></LineString></Placemark><Placemark><name>Descartado (grupo chico) - Hilera 14</name><Style><LineStyle><color>ff00ffff</color><width>3</width></LineStyle></Style><LineString><coordinates>-71.6196833,-35.1311233,0 -71.6199316,-35.1309783,0</coordinates></LineString></Placemark><Placemark><name>Trabajado - Cuartel 16 - Hilera 16</name><Style><LineStyle><color>ff00ff00</color><width>3</width></LineStyle></Style><LineString><coordinates>-71.616675,-35.1312799,0 -71.617505,-35.1329766,0</coordinates></LineString></Placemark><Placemark><name>Trabajado - Cuartel 16 - Hilera 17</name><Style><LineStyle><color>ff00ff00</color><width>3</width></LineStyle></Style><LineString><coordinates>-71.617505,-35.1329766,0 -71.6167766,-35.1312966,0</coordinates></LineString></Placemark><Placemark><name>Trabajado - Cuartel 16 - Hilera 18</name><Style><LineStyle><color>ff00ff00</color><width>3</width></LineStyle></Style><LineString><coordinates>-71.6167766,-35.1312966,0 -71.6175366,-35.1329033,0</coordinates></LineString></Placemark><Placemark><name>Trabajado - Cuartel 16 - Hilera 19</name><Style><LineStyle><color>ff00ff00</color><width>3</width></LineStyle></Style><LineString><coordinates>-71.61682,-35.1313166,0 -71.6175633,-35.1328933,0</coordinates></LineString></Placemark><Placemark><name>Trabajado - Cuartel 16 - Hilera 20</name><Style><LineStyle><color>ff00ff00</color><width>3</width></LineStyle></Style><LineString><coordinates>-71.6168416,-35.13137,0 -71.6176033,-35.1328749,0</coordinates></LineString></Placemark><Placemark><name>Trabajado - Cuartel 16 - Hilera 21</name><Style><LineStyle><color>ff00ff00</color><width>3</width></LineStyle></Style><LineString><coordinates>-71.6176033,-35.1328749,0 -71.6168833,-35.1313283,0</coordinates></LineString></Placemark><Placemark><name>Trabajado - Cuartel 16 - Hilera 22</name><Style><LineStyle><color>ff00ff00</color><width>3</width></LineStyle></Style><LineString><coordinates>-71.6168833,-35.1313283,0 -71.6176433,-35.1328466,0</coordinates></LineString></Placemark><Placemark><name>Trabajado - Cuartel 16 - Hilera 23</name><Style><LineStyle><color>ff00ff00</color><width>3</width></LineStyle></Style><LineString><coordinates>-71.6176433,-35.1328466,0 -71.6169783,-35.1314116,0</coordinates></LineString></Placemark><Placemark><name>Trabajado - Cuartel 16 - Hilera 24</name><Style><LineStyle><color>ff00ff00</color><width>3</width></LineStyle></Style><LineString><coordinates>-71.6176683,-35.1328283,0 -71.6170533,-35.1314149,0</coordinates></LineString></Placemark><Placemark><name>Trabajado - Cuartel 16 - Hilera 25</name><Style><LineStyle><color>ff00ff00</color><width>3</width></LineStyle></Style><LineString><coordinates>-71.6170533,-35.1314149,0 -71.617725,-35.1328383,0</coordinates></LineString></Placemark><Placemark><name>Trabajado - Cuartel 16 - Hilera 26</name><Style><LineStyle><color>ff00ff00</color><width>3</width></LineStyle></Style><LineString><coordinates>-71.6170816,-35.1314099,0 -71.6177616,-35.1328383,0</coordinates></LineString></Placemark><Placemark><name>Trabajado - Cuartel 16 - Hilera 27</name><Style><LineStyle><color>ff00ff00</color><width>3</width></LineStyle></Style><LineString><coordinates>-71.61718455202057,-35.13153741300209,0 -71.6178449,-35.1328449,0</coordinates></LineString></Placemark><Placemark><name>Trabajado - Cuartel 16 - Hilera 28</name><Style><LineStyle><color>ff00ff00</color><width>3</width></LineStyle></Style><LineString><coordinates>-71.6178633,-35.1328283,0 -71.6172466,-35.13152,0</coordinates></LineString></Placemark><Placemark><name>Trabajado - Cuartel 16 - Hilera 29</name><Style><LineStyle><color>ff00ff00</color><width>3</width></LineStyle></Style><LineString><coordinates>-71.61787,-35.1328066,0 -71.6173149,-35.1316066,0</coordinates></LineString></Placemark><Placemark><name>Descartado (grupo chico) - Hilera 31</name><Style><LineStyle><color>ff00ffff</color><width>3</width></LineStyle></Style><LineString><coordinates>-71.6188516,-35.1316316,0 -71.6194599,-35.1312183,0</coordinates></LineString></Placemark><Placemark><name>Descartado (grupo chico) - Hilera 32</name><Style><LineStyle><color>ff00ffff</color><width>3</width></LineStyle></Style><LineString><coordinates>-71.6194599,-35.1312183,0 -71.622005,-35.1281666,0</coordinates></LineString></Placemark><Placemark><name>Descartado</name><Style><LineStyle><color>ff00ffff</color><width>3</width></LineStyle></Style><LineString><coordinates>-71.6252583,-35.1326733,0 -71.6252583,-35.1326733,0</coordinates></LineString></Placemark><Placemark><name>Descartado</name><Style><LineStyle><color>ff00ffff</color><width>3</width></LineStyle></Style><LineString><coordinates>-71.6252583,-35.1326733,0 -71.6252866,-35.1326683,0</coordinates></LineString></Placemark><Placemark><name>Descartado</name><Style><LineStyle><color>ff00ffff</color><width>3</width></LineStyle></Style><LineString><coordinates>-71.6252866,-35.1326683,0 -71.6252866,-35.1326683,0</coordinates></LineString></Placemark><Placemark><name>Descartado</name><Style><LineStyle><color>ff00ffff</color><width>3</width></LineStyle></Style><LineString><coordinates>-71.618475,-35.1294,0 -71.618475,-35.1294,0</coordinates></LineString></Placemark><Placemark><name>Descartado</name><Style><LineStyle><color>ff00ffff</color><width>3</width></LineStyle></Style><LineString><coordinates>-71.6172349,-35.1313383,0 -71.6172366,-35.1313816,0</coordinates></LineString></Placemark><Placemark><name>Descartado</name><Style><LineStyle><color>ff00ffff</color><width>3</width></LineStyle></Style><LineString><coordinates>-71.6172366,-35.1313816,0 -71.6172516,-35.13138,0</coordinates></LineString></Placemark><Placemark><name>Descartado</name><Style><LineStyle><color>ff00ffff</color><width>3</width></LineStyle></Style><LineString><coordinates>-71.617335,-35.1313816,0 -71.617335,-35.1313816,0</coordinates></LineString></Placemark><Placemark><name>Descartado</name><Style><LineStyle><color>ff00ffff</color><width>3</width></LineStyle></Style><LineString><coordinates>-71.619695,-35.1310733,0 -71.6196833,-35.1311233,0</coordinates></LineString></Placemark><Placemark><name>Descartado</name><Style><LineStyle><color>ff00ffff</color><width>3</width></LineStyle></Style><LineString><coordinates>-71.6199316,-35.1309783,0 -71.61993,-35.1309799,0</coordinates></LineString></Placemark><Placemark><name>Descartado</name><Style><LineStyle><color>ff00ffff</color><width>3</width></LineStyle></Style><LineString><coordinates>-71.6168833,-35.1313283,0 -71.6168833,-35.1313283,0</coordinates></LineString></Placemark><Placemark><name>Descartado</name><Style><LineStyle><color>ff00ffff</color><width>3</width></LineStyle></Style><LineString><coordinates>-71.6171366,-35.1315266,0 -71.617185,-35.1315383,0</coordinates></LineString></Placemark><Placemark><name>Descartado</name><Style><LineStyle><color>ff00ffff</color><width>3</width></LineStyle></Style><LineString><coordinates>-71.6173149,-35.1316066,0 -71.6173716,-35.1315516,0</coordinates></LineString></Placemark><Placemark><name>Descartado</name><Style><LineStyle><color>ff00ffff</color><width>3</width></LineStyle></Style><LineString><coordinates>-71.6194599,-35.1312183,0 -71.6194599,-35.1312183,0</coordinates></LineString></Placemark><Placemark><name>Descartado</name><Style><LineStyle><color>ff00ffff</color><width>3</width></LineStyle></Style><LineString><coordinates>-71.6242066,-35.13289,0 -71.6242599,-35.132925,0</coordinates></LineString></Placemark><Placemark><name>Descartado</name><Style><LineStyle><color>ff00ffff</color><width>3</width></LineStyle></Style><LineString><coordinates>-71.6242599,-35.132925,0 -71.6243416,-35.13294,0</coordinates></LineString></Placemark><Placemark><name>Descartado</name><Style><LineStyle><color>ff00ffff</color><width>3</width></LineStyle></Style><LineString><coordinates>-71.6251783,-35.1326816,0 -71.6251783,-35.1326816,0</coordinates></LineString></Placemark></Folder><Folder><name>Tractor 11 Deutz Fahr 115</name><Placemark><name>Descartado</name><Style><LineStyle><color>ff00ffff</color><width>3</width></LineStyle></Style><LineString><coordinates>-71.265995,-34.6548333,0 -71.265995,-34.6548333,0</coordinates></LineString></Placemark></Folder><Folder><name>Tractor 13 Deutz Fahr 115</name><Placemark><name>Descartado (grupo chico) - Hilera 1</name><Style><LineStyle><color>ff00ffff</color><width>3</width></LineStyle></Style><LineString><coordinates>-71.6248533,-35.1327483,0 -71.6249566,-35.1327733,0</coordinates></LineString></Placemark><Placemark><name>Descartado (grupo chico) - Hilera 2</name><Style><LineStyle><color>ff00ffff</color><width>3</width></LineStyle></Style><LineString><coordinates>-71.6249566,-35.1327733,0 -71.6250183,-35.1327066,0</coordinates></LineString></Placemark><Placemark><name>Descartado (grupo chico) - Hilera 3</name><Style><LineStyle><color>ff00ffff</color><width>3</width></LineStyle></Style><LineString><coordinates>-71.6250183,-35.1327066,0 -71.6242683,-35.1329566,0</coordinates></LineString></Placemark><Placemark><name>Descartado (grupo chico) - Hilera 52</name><Style><LineStyle><color>ff00ffff</color><width>3</width></LineStyle></Style><LineString><coordinates>-71.6243233,-35.1329483,0 -71.6246283,-35.132795,0</coordinates></LineString></Placemark><Placemark><name>Descartado (grupo chico) - Hilera 4</name><Style><LineStyle><color>ff00ffff</color><width>3</width></LineStyle></Style><LineString><coordinates>-71.6242683,-35.1329566,0 -71.622005,-35.1281433,0</coordinates></LineString></Placemark><Placemark><name>Descartado (grupo chico) - Hilera 51</name><Style><LineStyle><color>ff00ffff</color><width>3</width></LineStyle></Style><LineString><coordinates>-71.6221666,-35.12843,0 -71.6242466,-35.1329383,0</coordinates></LineString></Placemark><Placemark><name>Descartado (grupo chico) - Hilera 5</name><Style><LineStyle><color>ff00ffff</color><width>3</width></LineStyle></Style><LineString><coordinates>-71.621945,-35.128115,0 -71.6192016,-35.1294583,0</coordinates></LineString></Placemark><Placemark><name>Descartado (grupo chico) - Hilera 13</name><Style><LineStyle><color>ff00ffff</color><width>3</width></LineStyle></Style><LineString><coordinates>-71.6186716,-35.1294616,0 -71.6216583,-35.1283066,0</coordinates></LineString></Placemark><Placemark><name>Descartado (grupo chico) - Hilera 6</name><Style><LineStyle><color>ff00ffff</color><width>3</width></LineStyle></Style><LineString><coordinates>-71.6192016,-35.1294583,0 -71.6188483,-35.1294066,0</coordinates></LineString></Placemark><Placemark><name>Trabajado - Cuartel 7 - Hilera 7</name><Style><LineStyle><color>ff00ff00</color><width>3</width></LineStyle></Style><LineString><coordinates>-71.6188483,-35.1294066,0 -71.617455,-35.13142,0</coordinates></LineString></Placemark><Placemark><name>Trabajado - Cuartel 7 - Hilera 8</name><Style><LineStyle><color>ff00ff00</color><width>3</width></LineStyle></Style><LineString><coordinates>-71.617455,-35.13142,0 -71.618765,-35.1294533,0</coordinates></LineString></Placemark><Placemark><name>Trabajado - Cuartel 7 - Hilera 9</name><Style><LineStyle><color>ff00ff00</color><width>3</width></LineStyle></Style><LineString><coordinates>-71.618765,-35.1294533,0 -71.617355,-35.1314399,0</coordinates></LineString></Placemark><Placemark><name>Trabajado - Cuartel 7 - Hilera 11</name><Style><LineStyle><color>ff00ff00</color><width>3</width></LineStyle></Style><LineString><coordinates>-71.6174499,-35.1313916,0 -71.6187466,-35.1293899,0</coordinates></LineString></Placemark><Placemark><name>Trabajado - Cuartel 7 - Hilera 12</name><Style><LineStyle><color>ff00ff00</color><width>3</width></LineStyle></Style><LineString><coordinates>-71.6187466,-35.1293899,0 -71.6173166,-35.1314316,0</coordinates></LineString></Placemark><Placemark><name>Descartado (grupo chico) - Hilera 10</name><Style><LineStyle><color>ff00ffff</color><width>3</width></LineStyle></Style><LineString><coordinates>-71.617355,-35.1314399,0 -71.6174499,-35.1313916,0</coordinates></LineString></Placemark><Placemark><name>Descartado (grupo chico) - Hilera 14</name><Style><LineStyle><color>ff00ffff</color><width>3</width></LineStyle></Style><LineString><coordinates>-71.6216583,-35.1283066,0 -71.6216883,-35.1285399,0</coordinates></LineString></Placemark><Placemark><name>Descartado (grupo chico) - Hilera 15</name><Style><LineStyle><color>ff00ffff</color><width>3</width></LineStyle></Style><LineString><coordinates>-71.6216883,-35.1285399,0 -71.6202866,-35.1306733,0</coordinates></LineString></Placemark><Placemark><name>Descartado (grupo chico) - Hilera 49</name><Style><LineStyle><color>ff00ffff</color><width>3</width></LineStyle></Style><LineString><coordinates>-71.6192783,-35.1313966,0 -71.6217116,-35.1285066,0</coordinates></LineString></Placemark><Placemark><name>Descartado (grupo chico) - Hilera 16</name><Style><LineStyle><color>ff00ffff</color><width>3</width></LineStyle></Style><LineString><coordinates>-71.6202866,-35.1306733,0 -71.6200166,-35.1309083,0</coordinates></LineString></Placemark><Placemark><name>Descartado (grupo chico) - Hilera 21</name><Style><LineStyle><color>ff00ffff</color><width>3</width></LineStyle></Style><LineString><coordinates>-71.61998,-35.131045,0 -71.6200716,-35.1309933,0</coordinates></LineString></Placemark><Placemark><name>Trabajado - Cuartel 17 - Hilera 17</name><Style><LineStyle><color>ff00ff00</color><width>3</width></LineStyle></Style><LineString><coordinates>-71.6200166,-35.1309083,0 -71.6199733,-35.1309916,0</coordinates></LineString></Placemark><Placemark><name>Trabajado - Cuartel 17 - Hilera 18</name><Style><LineStyle><color>ff00ff00</color><width>3</width></LineStyle></Style><LineString><coordinates>-71.6199733,-35.1309916,0 -71.6198683,-35.1309633,0</coordinates></LineString></Placemark><Placemark><name>Trabajado - Cuartel 17 - Hilera 19</name><Style><LineStyle><color>ff00ff00</color><width>3</width></LineStyle></Style><LineString><coordinates>-71.6198683,-35.1309633,0 -71.6199116,-35.1311399,0</coordinates></LineString></Placemark><Placemark><name>Trabajado - Cuartel 17 - Hilera 20</name><Style><LineStyle><color>ff00ff00</color><width>3</width></LineStyle></Style><LineString><coordinates>-71.6199783,-35.1311366,0 -71.61998,-35.131045,0</coordinates></LineString></Placemark><Placemark><name>Trabajado - Cuartel 17 - Hilera 22</name><Style><LineStyle><color>ff00ff00</color><width>3</width></LineStyle></Style><LineString><coordinates>-71.6200716,-35.1309933,0 -71.6200883,-35.1309033,0</coordinates></LineString></Placemark><Placemark><name>Trabajado - Cuartel 17 - Hilera 23</name><Style><LineStyle><color>ff00ff00</color><width>3</width></LineStyle></Style><LineString><coordinates>-71.6200883,-35.1309033,0 -71.6199616,-35.1311583,0</coordinates></LineString></Placemark><Placemark><name>Trabajado - Cuartel 17 - Hilera 24</name><Style><LineStyle><color>ff00ff00</color><width>3</width></LineStyle></Style><LineString><coordinates>-71.6199616,-35.1311583,0 -71.6198149,-35.1310216,0</coordinates></LineString></Placemark><Placemark><name>Trabajado - Cuartel 17 - Hilera 25</name><Style><LineStyle><color>ff00ff00</color><width>3</width></LineStyle></Style><LineString><coordinates>-71.61981417610207,-35.13101990663115,0 -71.6198883,-35.1311933,0</coordinates></LineString></Placemark><Placemark><name>Trabajado - Cuartel 17 - Hilera 26</name><Style><LineStyle><color>ff00ff00</color><width>3</width></LineStyle></Style><LineString><coordinates>-71.6197966,-35.131025,0 -71.6198333,-35.1312033,0</coordinates></LineString></Placemark><Placemark><name>Trabajado - Cuartel 17 - Hilera 27</name><Style><LineStyle><color>ff00ff00</color><width>3</width></LineStyle></Style><LineString><coordinates>-71.6197983,-35.1311166,0 -71.6197183,-35.1310533,0</coordinates></LineString></Placemark><Placemark><name>Trabajado - Cuartel 17 - Hilera 28</name><Style><LineStyle><color>ff00ff00</color><width>3</width></LineStyle></Style><LineString><coordinates>-71.6197183,-35.1310533,0 -71.6198516,-35.131305,0</coordinates></LineString></Placemark><Placemark><name>Trabajado - Cuartel 17 - Hilera 29</name><Style><LineStyle><color>ff00ff00</color><width>3</width></LineStyle></Style><LineString><coordinates>-71.61969,-35.1310649,0 -71.6198083,-35.1313216,0</coordinates></LineString></Placemark><Placemark><name>Trabajado - Cuartel 17 - Hilera 30</name><Style><LineStyle><color>ff00ff00</color><width>3</width></LineStyle></Style><LineString><coordinates>-71.6196666,-35.1310733,0 -71.619765,-35.131335,0</coordinates></LineString></Placemark><Placemark><name>Trabajado - Cuartel 17 - Hilera 31</name><Style><LineStyle><color>ff00ff00</color><width>3</width></LineStyle></Style><LineString><coordinates>-71.61966913764275,-35.13116583719804,0 -71.6197616,-35.1314299,0</coordinates></LineString></Placemark><Placemark><name>Trabajado - Cuartel 17 - Hilera 32</name><Style><LineStyle><color>ff00ff00</color><width>3</width></LineStyle></Style><LineString><coordinates>-71.6196516,-35.13117,0 -71.6196383,-35.13126,0</coordinates></LineString></Placemark><Placemark><name>Trabajado - Cuartel 17 - Hilera 33</name><Style><LineStyle><color>ff00ff00</color><width>3</width></LineStyle></Style><LineString><coordinates>-71.61959628903872,-35.13117681829666,0 -71.6197233,-35.1314283,0</coordinates></LineString></Placemark><Placemark><name>Trabajado - Cuartel 17 - Hilera 34</name><Style><LineStyle><color>ff00ff00</color><width>3</width></LineStyle></Style><LineString><coordinates>-71.6196016,-35.131175,0 -71.6196516,-35.1314399,0</coordinates></LineString></Placemark><Placemark><name>Trabajado - Cuartel 17 - Hilera 35</name><Style><LineStyle><color>ff00ff00</color><width>3</width></LineStyle></Style><LineString><coordinates>-71.6196516,-35.1314399,0 -71.6197583,-35.1314616,0</coordinates></LineString></Placemark><Placemark><name>Trabajado - Cuartel 17 - Hilera 36</name><Style><LineStyle><color>ff00ff00</color><width>3</width></LineStyle></Style><LineString><coordinates>-71.6197583,-35.1314616,0 -71.6194833,-35.1311899,0</coordinates></LineString></Placemark><Placemark><name>Trabajado - Cuartel 17 - Hilera 37</name><Style><LineStyle><color>ff00ff00</color><width>3</width></LineStyle></Style><LineString><coordinates>-71.6194833,-35.1311899,0 -71.619665,-35.13152,0</coordinates></LineString></Placemark><Placemark><name>Trabajado - Cuartel 17 - Hilera 38</name><Style><LineStyle><color>ff00ff00</color><width>3</width></LineStyle></Style><LineString><coordinates>-71.619665,-35.13152,0 -71.6194616,-35.13122,0</coordinates></LineString></Placemark><Placemark><name>Trabajado - Cuartel 17 - Hilera 39</name><Style><LineStyle><color>ff00ff00</color><width>3</width></LineStyle></Style><LineString><coordinates>-71.6194616,-35.13122,0 -71.61963205181885,-35.13155908170615,0</coordinates></LineString></Placemark><Placemark><name>Trabajado - Cuartel 17 - Hilera 40</name><Style><LineStyle><color>ff00ff00</color><width>3</width></LineStyle></Style><LineString><coordinates>-71.619605,-35.1315683,0 -71.6194966,-35.1313116,0</coordinates></LineString></Placemark><Placemark><name>Trabajado - Cuartel 17 - Hilera 41</name><Style><LineStyle><color>ff00ff00</color><width>3</width></LineStyle></Style><LineString><coordinates>-71.6194966,-35.1313116,0 -71.6194,-35.1312666,0</coordinates></LineString></Placemark><Placemark><name>Trabajado - Cuartel 17 - Hilera 42</name><Style><LineStyle><color>ff00ff00</color><width>3</width></LineStyle></Style><LineString><coordinates>-71.6194,-35.1312666,0 -71.6196083,-35.1316883,0</coordinates></LineString></Placemark><Placemark><name>Trabajado - Cuartel 17 - Hilera 43</name><Style><LineStyle><color>ff00ff00</color><width>3</width></LineStyle></Style><LineString><coordinates>-71.6194283,-35.1313533,0 -71.6195649,-35.1316983,0</coordinates></LineString></Placemark><Placemark><name>Trabajado - Cuartel 17 - Hilera 44</name><Style><LineStyle><color>ff00ff00</color><width>3</width></LineStyle></Style><LineString><coordinates>-71.6195649,-35.1316983,0 -71.6193883,-35.13136,0</coordinates></LineString></Placemark><Placemark><name>Trabajado - Cuartel 17 - Hilera 45</name><Style><LineStyle><color>ff00ff00</color><width>3</width></LineStyle></Style><LineString><coordinates>-71.6193883,-35.13136,0 -71.6195183,-35.1317049,0</coordinates></LineString></Placemark><Placemark><name>Trabajado - Cuartel 17 - Hilera 46</name><Style><LineStyle><color>ff00ff00</color><width>3</width></LineStyle></Style><LineString><coordinates>-71.61955883165076,-35.131785152668535,0 -71.6193483,-35.1313683,0</coordinates></LineString></Placemark><Placemark><name>Trabajado - Cuartel 17 - Hilera 47</name><Style><LineStyle><color>ff00ff00</color><width>3</width></LineStyle></Style><LineString><coordinates>-71.61954,-35.1317916,0 -71.6193166,-35.1313733,0</coordinates></LineString></Placemark><Placemark><name>Trabajado - Cuartel 17 - Hilera 48</name><Style><LineStyle><color>ff00ff00</color><width>3</width></LineStyle></Style><LineString><coordinates>-71.6195216,-35.1317933,0 -71.6192783,-35.1313966,0</coordinates></LineString></Placemark><Placemark><name>Descartado (grupo chico) - Hilera 50</name><Style><LineStyle><color>ff00ffff</color><width>3</width></LineStyle></Style><LineString><coordinates>-71.6217116,-35.1285066,0 -71.6221666,-35.12843,0</coordinates></LineString></Placemark><Placemark><name>Descartado</name><Style><LineStyle><color>ff00ffff</color><width>3</width></LineStyle></Style><LineString><coordinates>-71.6248533,-35.1327483,0 -71.6248533,-35.1327483,0</coordinates></LineString></Placemark><Placemark><name>Descartado</name><Style><LineStyle><color>ff00ffff</color><width>3</width></LineStyle></Style><LineString><coordinates>-71.6249566,-35.1327733,0 -71.6249566,-35.1327733,0</coordinates></LineString></Placemark><Placemark><name>Descartado</name><Style><LineStyle><color>ff00ffff</color><width>3</width></LineStyle></Style><LineString><coordinates>-71.622005,-35.1281433,0 -71.621945,-35.128115,0</coordinates></LineString></Placemark><Placemark><name>Descartado</name><Style><LineStyle><color>ff00ffff</color><width>3</width></LineStyle></Style><LineString><coordinates>-71.618765,-35.1294533,0 -71.618765,-35.1294533,0</coordinates></LineString></Placemark><Placemark><name>Descartado</name><Style><LineStyle><color>ff00ffff</color><width>3</width></LineStyle></Style><LineString><coordinates>-71.6173166,-35.1314316,0 -71.6173166,-35.1314316,0</coordinates></LineString></Placemark><Placemark><name>Descartado</name><Style><LineStyle><color>ff00ffff</color><width>3</width></LineStyle></Style><LineString><coordinates>-71.6186716,-35.1294616,0 -71.6186716,-35.1294616,0</coordinates></LineString></Placemark><Placemark><name>Descartado</name><Style><LineStyle><color>ff00ffff</color><width>3</width></LineStyle></Style><LineString><coordinates>-71.6202866,-35.1306733,0 -71.6202866,-35.1306733,0</coordinates></LineString></Placemark><Placemark><name>Descartado</name><Style><LineStyle><color>ff00ffff</color><width>3</width></LineStyle></Style><LineString><coordinates>-71.6200166,-35.1309083,0 -71.6200166,-35.1309083,0</coordinates></LineString></Placemark><Placemark><name>Descartado</name><Style><LineStyle><color>ff00ffff</color><width>3</width></LineStyle></Style><LineString><coordinates>-71.6199733,-35.1309916,0 -71.6199733,-35.1309916,0</coordinates></LineString></Placemark><Placemark><name>Descartado</name><Style><LineStyle><color>ff00ffff</color><width>3</width></LineStyle></Style><LineString><coordinates>-71.6199116,-35.1311399,0 -71.6199116,-35.1311399,0</coordinates></LineString></Placemark><Placemark><name>Descartado</name><Style><LineStyle><color>ff00ffff</color><width>3</width></LineStyle></Style><LineString><coordinates>-71.6199116,-35.1311399,0 -71.619935,-35.1311366,0</coordinates></LineString></Placemark><Placemark><name>Descartado</name><Style><LineStyle><color>ff00ffff</color><width>3</width></LineStyle></Style><LineString><coordinates>-71.619935,-35.1311366,0 -71.619935,-35.1311366,0</coordinates></LineString></Placemark><Placemark><name>Descartado</name><Style><LineStyle><color>ff00ffff</color><width>3</width></LineStyle></Style><LineString><coordinates>-71.619935,-35.1311366,0 -71.6199783,-35.1311366,0</coordinates></LineString></Placemark><Placemark><name>Descartado</name><Style><LineStyle><color>ff00ffff</color><width>3</width></LineStyle></Style><LineString><coordinates>-71.61967,-35.1311683,0 -71.61967,-35.1311683,0</coordinates></LineString></Placemark><Placemark><name>Descartado</name><Style><LineStyle><color>ff00ffff</color><width>3</width></LineStyle></Style><LineString><coordinates>-71.6195183,-35.1317049,0 -71.6195183,-35.1317049,0</coordinates></LineString></Placemark><Placemark><name>Descartado</name><Style><LineStyle><color>ff00ffff</color><width>3</width></LineStyle></Style><LineString><coordinates>-71.61954,-35.1317916,0 -71.61954,-35.1317916,0</coordinates></LineString></Placemark><Placemark><name>Descartado</name><Style><LineStyle><color>ff00ffff</color><width>3</width></LineStyle></Style><LineString><coordinates>-71.6195216,-35.1317933,0 -71.6195216,-35.1317933,0</coordinates></LineString></Placemark><Placemark><name>Descartado</name><Style><LineStyle><color>ff00ffff</color><width>3</width></LineStyle></Style><LineString><coordinates>-71.6242466,-35.1329383,0 -71.6243233,-35.1329483,0</coordinates></LineString></Placemark><Placemark><name>Descartado</name><Style><LineStyle><color>ff00ffff</color><width>3</width></LineStyle></Style><LineString><coordinates>-71.6246283,-35.132795,0 -71.6247066,-35.132805,0</coordinates></LineString></Placemark><Placemark><name>Descartado</name><Style><LineStyle><color>ff00ffff</color><width>3</width></LineStyle></Style><LineString><coordinates>-71.6247066,-35.132805,0 -71.6247466,-35.1328649,0</coordinates></LineString></Placemark><Placemark><name>Descartado</name><Style><LineStyle><color>ff00ffff</color><width>3</width></LineStyle></Style><LineString><coordinates>-71.6247466,-35.1328649,0 -71.6247466,-35.1328649,0</coordinates></LineString></Placemark></Folder><Folder><name>Tractor 14 Deutz Fahr 115</name><Placemark><name>Descartado</name><Style><LineStyle><color>ff00ffff</color><width>3</width></LineStyle></Style><LineString><coordinates>-71.62419,-33.6790883,0 -71.62419,-33.6790883,0</coordinates></LineString></Placemark></Folder><Folder><name>Tractor 16 Kubota 108</name><Placemark><name>Descartado</name><Style><LineStyle><color>ff00ffff</color><width>3</width></LineStyle></Style><LineString><coordinates>-70.6935783,-34.0424333,0 -70.6935783,-34.0424333,0</coordinates></LineString></Placemark></Folder><Folder><name>Tractor 17 Kubota 108</name><Placemark><name>Descartado</name><Style><LineStyle><color>ff00ffff</color><width>3</width></LineStyle></Style><LineString><coordinates>-70.5648316,-33.6737883,0 -70.5648316,-33.6737883,0</coordinates></LineString></Placemark></Folder></Document></kml>