<?xml version="1.0" encoding="UTF-8"?><kml xmlns="http://www.opengis.net/kml/2.2"><Document><Folder><name>Barredora 11</name><Placemark><name>Descartado (grupo chico) - Hilera 1</name><Style><LineStyle><color>ff00ffff</color><width>3</width></LineStyle></Style><LineString><coordinates>-71.266165,-34.6547683,0 -71.26607,-34.654755,0</coordinates></LineString></Placemark><Placemark><name>Descartado (grupo chico) - Hilera 3</name><Style><LineStyle><color>ff00ffff</color><width>3</width></LineStyle></Style><LineString><coordinates>-71.2658066,-34.6549166,0 -71.26530746722841,-34.654970631122524,0</coordinates></LineString></Placemark><Placemark><name>Descartado (grupo chico) - Hilera 9</name><Style><LineStyle><color>ff00ffff</color><width>3</width></LineStyle></Style><LineString><coordinates>-71.2653533,-34.654955,0 -71.2657433,-34.6549583,0</coordinates></LineString></Placemark><Placemark><name>Descartado (grupo chico) - Hilera 2</name><Style><LineStyle><color>ff00ffff</color><width>3</width></LineStyle></Style><LineString><coordinates>-71.26607,-34.654755,0 -71.2658066,-34.6549166,0</coordinates></LineString></Placemark><Placemark><name>Descartado (grupo chico) - Hilera 4</name><Style><LineStyle><color>ff00ffff</color><width>3</width></LineStyle></Style><LineString><coordinates>-71.2654066,-34.6549599,0 -71.2653233,-34.6550249,0</coordinates></LineString></Placemark><Placemark><name>Descartado (grupo chico) - Hilera 5</name><Style><LineStyle><color>ff00ffff</color><width>3</width></LineStyle></Style><LineString><coordinates>-71.2653233,-34.6550249,0 -71.2653966,-34.65492,0</coordinates></LineString></Placemark><Placemark><name>Descartado (grupo chico) - Hilera 6</name><Style><LineStyle><color>ff00ffff</color><width>3</width></LineStyle></Style><LineString><coordinates>-71.265165,-34.65458,0 -71.2651966,-34.6547383,0</coordinates></LineString></Placemark><Placemark><name>Descartado (grupo chico) - Hilera 7</name><Style><LineStyle><color>ff00ffff</color><width>3</width></LineStyle></Style><LineString><coordinates>-71.2651966,-34.6547383,0 -71.2652983,-34.6547833,0</coordinates></LineString></Placemark><Placemark><name>Descartado (grupo chico) - Hilera 8</name><Style><LineStyle><color>ff00ffff</color><width>3</width></LineStyle></Style><LineString><coordinates>-71.2652983,-34.6547833,0 -71.2654133,-34.65495,0</coordinates></LineString></Placemark><Placemark><name>Descartado</name><Style><LineStyle><color>ff00ffff</color><width>3</width></LineStyle></Style><LineString><coordinates>-71.26628,-34.6549466,0 -71.2662216,-34.6549733,0</coordinates></LineString></Placemark><Placemark><name>Descartado</name><Style><LineStyle><color>ff00ffff</color><width>3</width></LineStyle></Style><LineString><coordinates>-71.2662216,-34.6549733,0 -71.26621,-34.6550333,0</coordinates></LineString></Placemark><Placemark><name>Descartado</name><Style><LineStyle><color>ff00ffff</color><width>3</width></LineStyle></Style><LineString><coordinates>-71.256935,-34.115615,0 -71.266625,-34.6549766,0</coordinates></LineString></Placemark><Placemark><name>Descartado</name><Style><LineStyle><color>ff00ffff</color><width>3</width></LineStyle></Style><LineString><coordinates>-71.266625,-34.6549766,0 -71.266165,-34.6547683,0</coordinates></LineString></Placemark><Placemark><name>Descartado</name><Style><LineStyle><color>ff00ffff</color><width>3</width></LineStyle></Style><LineString><coordinates>-71.265305,-34.654955,0 -71.2653533,-34.654955,0</coordinates></LineString></Placemark></Folder></Document></kml>