<?xml version="1.0" encoding="UTF-8"?><kml xmlns="http://www.opengis.net/kml/2.2"><Document><Folder><name>Barredora 2</name><Placemark><name>Descartado (grupo chico) - Hilera 1</name><Style><LineStyle><color>ff00ffff</color><width>3</width></LineStyle></Style><LineString><coordinates>-71.2655449921489,-34.654614935578934,0 -71.26568,-34.6553683,0</coordinates></LineString></Placemark><Placemark><name>Descartado (grupo chico) - Hilera 2</name><Style><LineStyle><color>ff00ffff</color><width>3</width></LineStyle></Style><LineString><coordinates>-71.26568,-34.6553683,0 -71.26551,-34.6546499,0</coordinates></LineString></Placemark><Placemark><name>Descartado (grupo chico) - Hilera 4</name><Style><LineStyle><color>ff00ffff</color><width>3</width></LineStyle></Style><LineString><coordinates>-71.2654833,-34.6547966,0 -71.2654649,-34.654705,0</coordinates></LineString></Placemark><Placemark><name>Descartado (grupo chico) - Hilera 10</name><Style><LineStyle><color>ff00ffff</color><width>3</width></LineStyle></Style><LineString><coordinates>-71.26561,-34.654755,0 -71.2656533,-34.65492,0</coordinates></LineString></Placemark><Placemark><name>Descartado (grupo chico) - Hilera 3</name><Style><LineStyle><color>ff00ffff</color><width>3</width></LineStyle></Style><LineString><coordinates>-71.26557937112266,-34.654711288843075,0 -71.2654833,-34.6547966,0</coordinates></LineString></Placemark><Placemark><name>Descartado (grupo chico) - Hilera 5</name><Style><LineStyle><color>ff00ffff</color><width>3</width></LineStyle></Style><LineString><coordinates>-71.2654649,-34.654705,0 -71.26564,-34.65492,0</coordinates></LineString></Placemark><Placemark><name>Descartado (grupo chico) - Hilera 6</name><Style><LineStyle><color>ff00ffff</color><width>3</width></LineStyle></Style><LineString><coordinates>-71.26564,-34.65492,0 -71.2655516,-34.654865,0</coordinates></LineString></Placemark><Placemark><name>Descartado (grupo chico) - Hilera 8</name><Style><LineStyle><color>ff00ffff</color><width>3</width></LineStyle></Style><LineString><coordinates>-71.2655583,-34.6546133,0 -71.2656466,-34.6546683,0</coordinates></LineString></Placemark><Placemark><name>Descartado (grupo chico) - Hilera 7</name><Style><LineStyle><color>ff00ffff</color><width>3</width></LineStyle></Style><LineString><coordinates>-71.2655516,-34.654865,0 -71.26544,-34.6548816,0</coordinates></LineString></Placemark><Placemark><name>Descartado (grupo chico) - Hilera 9</name><Style><LineStyle><color>ff00ffff</color><width>3</width></LineStyle></Style><LineString><coordinates>-71.2656466,-34.6546683,0 -71.26561,-34.654755,0</coordinates></LineString></Placemark><Placemark><name>Descartado (grupo chico) - Hilera 11</name><Style><LineStyle><color>ff00ffff</color><width>3</width></LineStyle></Style><LineString><coordinates>-71.2656533,-34.65492,0 -71.265625,-34.6550083,0</coordinates></LineString></Placemark></Folder></Document></kml>