<?xml version="1.0" encoding="UTF-8"?><kml xmlns="http://www.opengis.net/kml/2.2"><Document><Folder><name>Barredora 4</name><Placemark><name>Descartado (grupo chico) - Hilera 1</name><Style><LineStyle><color>ff00ffff</color><width>3</width></LineStyle></Style><LineString><coordinates>-71.3100116,-33.9889699,0 -71.3101533,-33.9888216,0</coordinates></LineString></Placemark><Placemark><name>Descartado (grupo chico) - Hilera 3</name><Style><LineStyle><color>ff00ffff</color><width>3</width></LineStyle></Style><LineString><coordinates>-71.310115,-33.9888316,0 -71.310045,-33.9889083,0</coordinates></LineString></Placemark><Placemark><name>Descartado (grupo chico) - Hilera 2</name><Style><LineStyle><color>ff00ffff</color><width>3</width></LineStyle></Style><LineString><coordinates>-71.3101533,-33.9888216,0 -71.3100366,-33.9888066,0</coordinates></LineString></Placemark><Placemark><name>Trabajado - Cuartel 4 - Hilera 4</name><Style><LineStyle><color>ff00ff00</color><width>3</width></LineStyle></Style><LineString><coordinates>-71.2658816,-34.65431,0 -71.2658266,-34.6542316,0</coordinates></LineString></Placemark><Placemark><name>Trabajado - Cuartel 4 - Hilera 9</name><Style><LineStyle><color>ff00ff00</color><width>3</width></LineStyle></Style><LineString><coordinates>-71.2658249,-34.6543666,0 -71.26589,-34.6541249,0</coordinates></LineString></Placemark><Placemark><name>Trabajado - Cuartel 4 - Hilera 11</name><Style><LineStyle><color>ff00ff00</color><width>3</width></LineStyle></Style><LineString><coordinates>-71.2660416,-34.654105,0 -71.2662133,-34.654555,0</coordinates></LineString></Placemark><Placemark><name>Trabajado - Cuartel 4 - Hilera 12</name><Style><LineStyle><color>ff00ff00</color><width>3</width></LineStyle></Style><LineString><coordinates>-71.2662133,-34.654555,0 -71.2660383,-34.6547999,0</coordinates></LineString></Placemark><Placemark><name>Trabajado - Cuartel 4 - Hilera 13</name><Style><LineStyle><color>ff00ff00</color><width>3</width></LineStyle></Style><LineString><coordinates>-71.2660583,-34.6548266,0 -71.26598434878915,-34.65471715220794,0</coordinates></LineString></Placemark><Placemark><name>Trabajado - Cuartel 4 - Hilera 16</name><Style><LineStyle><color>ff00ff00</color><width>3</width></LineStyle></Style><LineString><coordinates>-71.2656899,-34.6547233,0 -71.2656716,-34.6545533,0</coordinates></LineString></Placemark><Placemark><name>Trabajado - Cuartel 4 - Hilera 18</name><Style><LineStyle><color>ff00ff00</color><width>3</width></LineStyle></Style><LineString><coordinates>-71.2658233,-34.654695,0 -71.2658316,-34.6545966,0</coordinates></LineString></Placemark><Placemark><name>Trabajado - Cuartel 4 - Hilera 20</name><Style><LineStyle><color>ff00ff00</color><width>3</width></LineStyle></Style><LineString><coordinates>-71.2657133,-34.6545683,0 -71.2657516,-34.6546649,0</coordinates></LineString></Placemark><Placemark><name>Trabajado - Cuartel 5 - Hilera 5</name><Style><LineStyle><color>ff00ff00</color><width>3</width></LineStyle></Style><LineString><coordinates>-71.2657966,-34.654255,0 -71.2659149,-34.6543233,0</coordinates></LineString></Placemark><Placemark><name>Trabajado - Cuartel 5 - Hilera 6</name><Style><LineStyle><color>ff00ff00</color><width>3</width></LineStyle></Style><LineString><coordinates>-71.26582319920848,-34.65436392494363,0 -71.2660316,-34.6542716,0</coordinates></LineString></Placemark><Placemark><name>Trabajado - Cuartel 5 - Hilera 7</name><Style><LineStyle><color>ff00ff00</color><width>3</width></LineStyle></Style><LineString><coordinates>-71.2660316,-34.6542716,0 -71.2659149,-34.6542633,0</coordinates></LineString></Placemark><Placemark><name>Trabajado - Cuartel 5 - Hilera 8</name><Style><LineStyle><color>ff00ff00</color><width>3</width></LineStyle></Style><LineString><coordinates>-71.26574,-34.6543216,0 -71.2658999,-34.654325,0</coordinates></LineString></Placemark><Placemark><name>Trabajado - Cuartel 5 - Hilera 10</name><Style><LineStyle><color>ff00ff00</color><width>3</width></LineStyle></Style><LineString><coordinates>-71.26589,-34.6541249,0 -71.2660416,-34.654105,0</coordinates></LineString></Placemark><Placemark><name>Trabajado - Cuartel 5 - Hilera 14</name><Style><LineStyle><color>ff00ff00</color><width>3</width></LineStyle></Style><LineString><coordinates>-71.2660133,-34.65476,0 -71.2659383,-34.6548083,0</coordinates></LineString></Placemark><Placemark><name>Trabajado - Cuartel 5 - Hilera 15</name><Style><LineStyle><color>ff00ff00</color><width>3</width></LineStyle></Style><LineString><coordinates>-71.2659383,-34.6548083,0 -71.2656899,-34.6547233,0</coordinates></LineString></Placemark><Placemark><name>Trabajado - Cuartel 5 - Hilera 17</name><Style><LineStyle><color>ff00ff00</color><width>3</width></LineStyle></Style><LineString><coordinates>-71.2656716,-34.6545533,0 -71.2657916,-34.65458,0</coordinates></LineString></Placemark><Placemark><name>Trabajado - Cuartel 5 - Hilera 19</name><Style><LineStyle><color>ff00ff00</color><width>3</width></LineStyle></Style><LineString><coordinates>-71.2657333,-34.654605,0 -71.2658533,-34.6546016,0</coordinates></LineString></Placemark><Placemark><name>Trabajado - Cuartel 5 - Hilera 21</name><Style><LineStyle><color>ff00ff00</color><width>3</width></LineStyle></Style><LineString><coordinates>-71.2657516,-34.6546649,0 -71.2659783,-34.65472,0</coordinates></LineString></Placemark><Placemark><name>Trabajado - Cuartel 5 - Hilera 22</name><Style><LineStyle><color>ff00ff00</color><width>3</width></LineStyle></Style><LineString><coordinates>-71.2660466,-34.6547883,0 -71.2658299,-34.654745,0</coordinates></LineString></Placemark><Placemark><name>Trabajado - Cuartel 5 - Hilera 23</name><Style><LineStyle><color>ff00ff00</color><width>3</width></LineStyle></Style><LineString><coordinates>-71.2658299,-34.654745,0 -71.2655249,-34.6545783,0</coordinates></LineString></Placemark><Placemark><name>Descartado</name><Style><LineStyle><color>ff00ffff</color><width>3</width></LineStyle></Style><LineString><coordinates>-71.3100366,-33.9888066,0 -71.310115,-33.9888316,0</coordinates></LineString></Placemark><Placemark><name>Descartado</name><Style><LineStyle><color>ff00ffff</color><width>3</width></LineStyle></Style><LineString><coordinates>-71.310045,-33.9889083,0 -71.3100183,-33.98888,0</coordinates></LineString></Placemark><Placemark><name>Descartado</name><Style><LineStyle><color>ff00ffff</color><width>3</width></LineStyle></Style><LineString><coordinates>-71.3100183,-33.98888,0 -71.3099349,-33.9888933,0</coordinates></LineString></Placemark><Placemark><name>Descartado</name><Style><LineStyle><color>ff00ffff</color><width>3</width></LineStyle></Style><LineString><coordinates>-71.2659583,-34.6542866,0 -71.2658816,-34.65431,0</coordinates></LineString></Placemark><Placemark><name>Descartado</name><Style><LineStyle><color>ff00ffff</color><width>3</width></LineStyle></Style><LineString><coordinates>-71.2658266,-34.6542316,0 -71.2657966,-34.654255,0</coordinates></LineString></Placemark><Placemark><name>Descartado</name><Style><LineStyle><color>ff00ffff</color><width>3</width></LineStyle></Style><LineString><coordinates>-71.26594,-34.6541666,0 -71.2658916,-34.65422,0</coordinates></LineString></Placemark><Placemark><name>Descartado</name><Style><LineStyle><color>ff00ffff</color><width>3</width></LineStyle></Style><LineString><coordinates>-71.2658916,-34.65422,0 -71.2658699,-34.6543116,0</coordinates></LineString></Placemark><Placemark><name>Descartado</name><Style><LineStyle><color>ff00ffff</color><width>3</width></LineStyle></Style><LineString><coordinates>-71.2660383,-34.6547999,0 -71.2660583,-34.6548266,0</coordinates></LineString></Placemark><Placemark><name>Descartado</name><Style><LineStyle><color>ff00ffff</color><width>3</width></LineStyle></Style><LineString><coordinates>-71.2657916,-34.65458,0 -71.2657883,-34.6546233,0</coordinates></LineString></Placemark><Placemark><name>Descartado</name><Style><LineStyle><color>ff00ffff</color><width>3</width></LineStyle></Style><LineString><coordinates>-71.2657883,-34.6546233,0 -71.2657766,-34.6546649,0</coordinates></LineString></Placemark><Placemark><name>Descartado</name><Style><LineStyle><color>ff00ffff</color><width>3</width></LineStyle></Style><LineString><coordinates>-71.2657766,-34.6546649,0 -71.2658233,-34.654695,0</coordinates></LineString></Placemark><Placemark><name>Descartado</name><Style><LineStyle><color>ff00ffff</color><width>3</width></LineStyle></Style><LineString><coordinates>-71.2658316,-34.6545966,0 -71.265835,-34.6545966,0</coordinates></LineString></Placemark><Placemark><name>Descartado</name><Style><LineStyle><color>ff00ffff</color><width>3</width></LineStyle></Style><LineString><coordinates>-71.265835,-34.6545966,0 -71.2658183,-34.6545833,0</coordinates></LineString></Placemark><Placemark><name>Descartado</name><Style><LineStyle><color>ff00ffff</color><width>3</width></LineStyle></Style><LineString><coordinates>-71.2658183,-34.6545833,0 -71.2657666,-34.6546116,0</coordinates></LineString></Placemark><Placemark><name>Descartado</name><Style><LineStyle><color>ff00ffff</color><width>3</width></LineStyle></Style><LineString><coordinates>-71.2657666,-34.6546116,0 -71.2657333,-34.654605,0</coordinates></LineString></Placemark><Placemark><name>Descartado</name><Style><LineStyle><color>ff00ffff</color><width>3</width></LineStyle></Style><LineString><coordinates>-71.2658533,-34.6546016,0 -71.2658483,-34.6545916,0</coordinates></LineString></Placemark><Placemark><name>Descartado</name><Style><LineStyle><color>ff00ffff</color><width>3</width></LineStyle></Style><LineString><coordinates>-71.2658483,-34.6545916,0 -71.2658283,-34.6545783,0</coordinates></LineString></Placemark><Placemark><name>Descartado</name><Style><LineStyle><color>ff00ffff</color><width>3</width></LineStyle></Style><LineString><coordinates>-71.2658283,-34.6545783,0 -71.2657566,-34.6546133,0</coordinates></LineString></Placemark><Placemark><name>Descartado</name><Style><LineStyle><color>ff00ffff</color><width>3</width></LineStyle></Style><LineString><coordinates>-71.2657566,-34.6546133,0 -71.265685,-34.6546216,0</coordinates></LineString></Placemark><Placemark><name>Descartado</name><Style><LineStyle><color>ff00ffff</color><width>3</width></LineStyle></Style><LineString><coordinates>-71.265685,-34.6546216,0 -71.2656749,-34.6546116,0</coordinates></LineString></Placemark><Placemark><name>Descartado</name><Style><LineStyle><color>ff00ffff</color><width>3</width></LineStyle></Style><LineString><coordinates>-71.2656749,-34.6546116,0 -71.2657133,-34.6545683,0</coordinates></LineString></Placemark><Placemark><name>Descartado</name><Style><LineStyle><color>ff00ffff</color><width>3</width></LineStyle></Style><LineString><coordinates>-71.2655249,-34.6545783,0 -71.26551,-34.6546066,0</coordinates></LineString></Placemark><Placemark><name>Descartado</name><Style><LineStyle><color>ff00ffff</color><width>3</width></LineStyle></Style><LineString><coordinates>-71.26551,-34.6546066,0 -71.2655216,-34.6546033,0</coordinates></LineString></Placemark></Folder></Document></kml>