<?xml version="1.0" encoding="UTF-8"?><kml xmlns="http://www.opengis.net/kml/2.2"><Document><Folder><name>Barredora 10</name><Placemark><name>Trabajado - Cuartel 1 - Hilera 1</name><Style><LineStyle><color>ff00ff00</color><width>3</width></LineStyle></Style><LineString><coordinates>-71.2660365520009,-34.65498954900206,0 -71.2663177093946,-34.655234049629996,0</coordinates></LineString></Placemark><Placemark><name>Trabajado - Cuartel 1 - Hilera 2</name><Style><LineStyle><color>ff00ff00</color><width>3</width></LineStyle></Style><LineString><coordinates>-71.26614595908758,-34.65524043701611,0 -71.26623271385434,-34.65497986616188,0</coordinates></LineString></Placemark><Placemark><name>Trabajado - Cuartel 1 - Hilera 3</name><Style><LineStyle><color>ff00ff00</color><width>3</width></LineStyle></Style><LineString><coordinates>-71.26622213671304,-34.65525433878092,0 -71.26609522269624,-34.65489956529085,0</coordinates></LineString></Placemark><Placemark><name>Trabajado - Cuartel 1 - Hilera 4</name><Style><LineStyle><color>ff00ff00</color><width>3</width></LineStyle></Style><LineString><coordinates>-71.2659699661341,-34.654940079018395,0 -71.26631976299396,-34.65518531475206,0</coordinates></LineString></Placemark><Placemark><name>Trabajado - Cuartel 1 - Hilera 5</name><Style><LineStyle><color>ff00ff00</color><width>3</width></LineStyle></Style><LineString><coordinates>-71.26621708887782,-34.65498514080511,0 -71.26623647989298,-34.6552600880349,0</coordinates></LineString></Placemark><Placemark><name>Trabajado - Cuartel 1 - Hilera 6</name><Style><LineStyle><color>ff00ff00</color><width>3</width></LineStyle></Style><LineString><coordinates>-71.26609383963033,-34.65515155607415,0 -71.26638219791714,-34.65503131066856,0</coordinates></LineString></Placemark><Placemark><name>Trabajado - Cuartel 1 - Hilera 7</name><Style><LineStyle><color>ff00ff00</color><width>3</width></LineStyle></Style><LineString><coordinates>-71.2660216019275,-34.655085090881066,0 -71.2663716,-34.65508,0</coordinates></LineString></Placemark><Placemark><name>Trabajado - Cuartel 1 - Hilera 8</name><Style><LineStyle><color>ff00ff00</color><width>3</width></LineStyle></Style><LineString><coordinates>-71.2663716,-34.65508,0 -71.26626006318972,-34.65522779612671,0</coordinates></LineString></Placemark><Placemark><name>Trabajado - Cuartel 1 - Hilera 9</name><Style><LineStyle><color>ff00ff00</color><width>3</width></LineStyle></Style><LineString><coordinates>-71.266339490127,-34.655171050781156,0 -71.26609238837732,-34.65500910077949,0</coordinates></LineString></Placemark><Placemark><name>Trabajado - Cuartel 1 - Hilera 10</name><Style><LineStyle><color>ff00ff00</color><width>3</width></LineStyle></Style><LineString><coordinates>-71.26609268796952,-34.65523799935657,0 -71.26621479719445,-34.65500308715248,0</coordinates></LineString></Placemark><Placemark><name>Trabajado - Cuartel 1 - Hilera 11</name><Style><LineStyle><color>ff00ff00</color><width>3</width></LineStyle></Style><LineString><coordinates>-71.26634989097357,-34.65504131532992,0 -71.26611504886591,-34.65525275780381,0</coordinates></LineString></Placemark><Placemark><name>Trabajado - Cuartel 1 - Hilera 12</name><Style><LineStyle><color>ff00ff00</color><width>3</width></LineStyle></Style><LineString><coordinates>-71.2663781774644,-34.655021844119716,0 -71.2659616,-34.6550333,0</coordinates></LineString></Placemark><Placemark><name>Trabajado - Cuartel 1 - Hilera 13</name><Style><LineStyle><color>ff00ff00</color><width>3</width></LineStyle></Style><LineString><coordinates>-71.2659616,-34.6550333,0 -71.26606,-34.6549933,0</coordinates></LineString></Placemark><Placemark><name>Trabajado - Cuartel 1 - Hilera 14</name><Style><LineStyle><color>ff00ff00</color><width>3</width></LineStyle></Style><LineString><coordinates>-71.26627432832704,-34.6552326784423,0 -71.26601384136565,-34.65506059203342,0</coordinates></LineString></Placemark><Placemark><name>Trabajado - Cuartel 1 - Hilera 15</name><Style><LineStyle><color>ff00ff00</color><width>3</width></LineStyle></Style><LineString><coordinates>-71.26621415293971,-34.65526502933069,0 -71.26607163042002,-34.65500658849495,0</coordinates></LineString></Placemark><Placemark><name>Trabajado - Cuartel 1 - Hilera 16</name><Style><LineStyle><color>ff00ff00</color><width>3</width></LineStyle></Style><LineString><coordinates>-71.26611252863547,-34.65497442176267,0 -71.26608988598727,-34.6552170215649,0</coordinates></LineString></Placemark><Placemark><name>Trabajado - Cuartel 1 - Hilera 17</name><Style><LineStyle><color>ff00ff00</color><width>3</width></LineStyle></Style><LineString><coordinates>-71.26608339938214,-34.65516203892006,0 -71.2663404908813,-34.65519022983422,0</coordinates></LineString></Placemark><Placemark><name>Trabajado - Cuartel 1 - Hilera 18</name><Style><LineStyle><color>ff00ff00</color><width>3</width></LineStyle></Style><LineString><coordinates>-71.26618339165887,-34.65529960484192,0 -71.26622899361713,-34.65498753770965,0</coordinates></LineString></Placemark><Placemark><name>Trabajado - Cuartel 1 - Hilera 19</name><Style><LineStyle><color>ff00ff00</color><width>3</width></LineStyle></Style><LineString><coordinates>-71.26637154528046,-34.655076953898345,0 -71.26608008774767,-34.65518576866389,0</coordinates></LineString></Placemark><Placemark><name>Trabajado - Cuartel 1 - Hilera 20</name><Style><LineStyle><color>ff00ff00</color><width>3</width></LineStyle></Style><LineString><coordinates>-71.26610796509188,-34.65523335102264,0 -71.26632287164972,-34.65499133913321,0</coordinates></LineString></Placemark><Placemark><name>Trabajado - Cuartel 1 - Hilera 21</name><Style><LineStyle><color>ff00ff00</color><width>3</width></LineStyle></Style><LineString><coordinates>-71.26630132329073,-34.65508246822396,0 -71.26606117188211,-34.65502997734384,0</coordinates></LineString></Placemark><Placemark><name>Trabajado - Cuartel 1 - Hilera 22</name><Style><LineStyle><color>ff00ff00</color><width>3</width></LineStyle></Style><LineString><coordinates>-71.26617769202416,-34.65498558545728,0 -71.26637203847498,-34.655139170105706,0</coordinates></LineString></Placemark><Placemark><name>Trabajado - Cuartel 1 - Hilera 23</name><Style><LineStyle><color>ff00ff00</color><width>3</width></LineStyle></Style><LineString><coordinates>-71.26638578929978,-34.65511613152848,0 -71.2660462746404,-34.655074475209574,0</coordinates></LineString></Placemark><Placemark><name>Trabajado - Cuartel 1 - Hilera 24</name><Style><LineStyle><color>ff00ff00</color><width>3</width></LineStyle></Style><LineString><coordinates>-71.26608166158836,-34.65514507743038,0 -71.26636072920732,-34.655166388048556,0</coordinates></LineString></Placemark><Placemark><name>Trabajado - Cuartel 1 - Hilera 25</name><Style><LineStyle><color>ff00ff00</color><width>3</width></LineStyle></Style><LineString><coordinates>-71.2663499025621,-34.65506328691523,0 -71.26601959329717,-34.65501893025477,0</coordinates></LineString></Placemark><Placemark><name>Trabajado - Cuartel 1 - Hilera 26</name><Style><LineStyle><color>ff00ff00</color><width>3</width></LineStyle></Style><LineString><coordinates>-71.26621971734895,-34.65530041481486,0 -71.2661816,-34.6549383,0</coordinates></LineString></Placemark><Placemark><name>Trabajado - Cuartel 1 - Hilera 27</name><Style><LineStyle><color>ff00ff00</color><width>3</width></LineStyle></Style><LineString><coordinates>-71.26619166274178,-34.65522775222696,0 -71.2663138190967,-34.655089809512354,0</coordinates></LineString></Placemark><Placemark><name>Trabajado - Cuartel 1 - Hilera 28</name><Style><LineStyle><color>ff00ff00</color><width>3</width></LineStyle></Style><LineString><coordinates>-71.26634030199675,-34.655117184333804,0 -71.26598926688631,-34.65510071927234,0</coordinates></LineString></Placemark><Placemark><name>Trabajado - Cuartel 1 - Hilera 29</name><Style><LineStyle><color>ff00ff00</color><width>3</width></LineStyle></Style><LineString><coordinates>-71.266355,-34.6551099,0 -71.26611718019495,-34.655267011726394,0</coordinates></LineString></Placemark><Placemark><name>Trabajado - Cuartel 1 - Hilera 30</name><Style><LineStyle><color>ff00ff00</color><width>3</width></LineStyle></Style><LineString><coordinates>-71.2660216,-34.655085,0 -71.2661283,-34.6550283,0</coordinates></LineString></Placemark><Placemark><name>Trabajado - Cuartel 1 - Hilera 31</name><Style><LineStyle><color>ff00ff00</color><width>3</width></LineStyle></Style><LineString><coordinates>-71.26628369441572,-34.655221915375854,0 -71.26619417692888,-34.65496776478225,0</coordinates></LineString></Placemark><Placemark><name>Trabajado - Cuartel 1 - Hilera 32</name><Style><LineStyle><color>ff00ff00</color><width>3</width></LineStyle></Style><LineString><coordinates>-71.26632270877714,-34.65522571170088,0 -71.26623879659812,-34.65497871931538,0</coordinates></LineString></Placemark><Placemark><name>Trabajado - Cuartel 1 - Hilera 33</name><Style><LineStyle><color>ff00ff00</color><width>3</width></LineStyle></Style><LineString><coordinates>-71.26634682910212,-34.655189513723464,0 -71.26621105150312,-34.655021561337996,0</coordinates></LineString></Placemark><Placemark><name>Trabajado - Cuartel 1 - Hilera 34</name><Style><LineStyle><color>ff00ff00</color><width>3</width></LineStyle></Style><LineString><coordinates>-71.26626686537365,-34.65500906011689,0 -71.26604940331845,-34.65522106287366,0</coordinates></LineString></Placemark><Placemark><name>Trabajado - Cuartel 1 - Hilera 35</name><Style><LineStyle><color>ff00ff00</color><width>3</width></LineStyle></Style><LineString><coordinates>-71.26614569431099,-34.65500796898285,0 -71.26619394897021,-34.655417301609575,0</coordinates></LineString></Placemark><Placemark><name>Trabajado - Cuartel 1 - Hilera 36</name><Style><LineStyle><color>ff00ff00</color><width>3</width></LineStyle></Style><LineString><coordinates>-71.26616029910906,-34.655259676102055,0 -71.26633663639478,-34.65494935168622,0</coordinates></LineString></Placemark><Placemark><name>Trabajado - Cuartel 1 - Hilera 37</name><Style><LineStyle><color>ff00ff00</color><width>3</width></LineStyle></Style><LineString><coordinates>-71.2663398545248,-34.654969235915786,0 -71.26624469666176,-34.65526543151759,0</coordinates></LineString></Placemark><Placemark><name>Trabajado - Cuartel 1 - Hilera 38</name><Style><LineStyle><color>ff00ff00</color><width>3</width></LineStyle></Style><LineString><coordinates>-71.26617676258745,-34.65543664888825,0 -71.2660116,-34.6549916,0</coordinates></LineString></Placemark><Placemark><name>Trabajado - Cuartel 1 - Hilera 39</name><Style><LineStyle><color>ff00ff00</color><width>3</width></LineStyle></Style><LineString><coordinates>-71.2660116,-34.6549916,0 -71.26599,-34.65509,0</coordinates></LineString></Placemark><Placemark><name>Trabajado - Cuartel 1 - Hilera 40</name><Style><LineStyle><color>ff00ff00</color><width>3</width></LineStyle></Style><LineString><coordinates>-71.2660016,-34.6550733,0 -71.2659716,-34.6548899,0</coordinates></LineString></Placemark><Placemark><name>Trabajado - Cuartel 1 - Hilera 41</name><Style><LineStyle><color>ff00ff00</color><width>3</width></LineStyle></Style><LineString><coordinates>-71.2659716,-34.6548899,0 -71.26608,-34.6549033,0</coordinates></LineString></Placemark><Placemark><name>Trabajado - Cuartel 1 - Hilera 42</name><Style><LineStyle><color>ff00ff00</color><width>3</width></LineStyle></Style><LineString><coordinates>-71.2663407516355,-34.65522361903674,0 -71.26613325375439,-34.65497098362952,0</coordinates></LineString></Placemark><Placemark><name>Trabajado - Cuartel 1 - Hilera 43</name><Style><LineStyle><color>ff00ff00</color><width>3</width></LineStyle></Style><LineString><coordinates>-71.26611538622336,-34.65496811418022,0 -71.26629805193286,-34.655228495846124,0</coordinates></LineString></Placemark><Placemark><name>Trabajado - Cuartel 1 - Hilera 44</name><Style><LineStyle><color>ff00ff00</color><width>3</width></LineStyle></Style><LineString><coordinates>-71.26635058830662,-34.655020235482546,0 -71.2660698807197,-34.65514141049678,0</coordinates></LineString></Placemark><Placemark><name>Trabajado - Cuartel 1 - Hilera 45</name><Style><LineStyle><color>ff00ff00</color><width>3</width></LineStyle></Style><LineString><coordinates>-71.266135,-34.654995,0 -71.266135,-34.6552233,0</coordinates></LineString></Placemark><Placemark><name>Trabajado - Cuartel 1 - Hilera 46</name><Style><LineStyle><color>ff00ff00</color><width>3</width></LineStyle></Style><LineString><coordinates>-71.26607946681531,-34.65523165137447,0 -71.26633606117483,-34.654948608057936,0</coordinates></LineString></Placemark><Placemark><name>Trabajado - Cuartel 1 - Hilera 47</name><Style><LineStyle><color>ff00ff00</color><width>3</width></LineStyle></Style><LineString><coordinates>-71.26626545169303,-34.654993796580996,0 -71.26619653409946,-34.6552552693393,0</coordinates></LineString></Placemark><Placemark><name>Trabajado - Cuartel 1 - Hilera 48</name><Style><LineStyle><color>ff00ff00</color><width>3</width></LineStyle></Style><LineString><coordinates>-71.26620296407135,-34.65500663553274,0 -71.26608758079206,-34.65510441797283,0</coordinates></LineString></Placemark><Placemark><name>Trabajado - Cuartel 1 - Hilera 49</name><Style><LineStyle><color>ff00ff00</color><width>3</width></LineStyle></Style><LineString><coordinates>-71.26609803012448,-34.65520814888841,0 -71.26636083089744,-34.65508366431173,0</coordinates></LineString></Placemark><Placemark><name>Trabajado - Cuartel 1 - Hilera 50</name><Style><LineStyle><color>ff00ff00</color><width>3</width></LineStyle></Style><LineString><coordinates>-71.26611079568761,-34.65498570212322,0 -71.26636901203739,-34.655136596388786,0</coordinates></LineString></Placemark><Placemark><name>Trabajado - Cuartel 1 - Hilera 51</name><Style><LineStyle><color>ff00ff00</color><width>3</width></LineStyle></Style><LineString><coordinates>-71.26617168818377,-34.654946298482685,0 -71.26607558169256,-34.65517396058072,0</coordinates></LineString></Placemark><Placemark><name>Trabajado - Cuartel 1 - Hilera 52</name><Style><LineStyle><color>ff00ff00</color><width>3</width></LineStyle></Style><LineString><coordinates>-71.26603131708987,-34.65508188227199,0 -71.26631936674535,-34.65518759649554,0</coordinates></LineString></Placemark><Placemark><name>Trabajado - Cuartel 1 - Hilera 53</name><Style><LineStyle><color>ff00ff00</color><width>3</width></LineStyle></Style><LineString><coordinates>-71.266366319733,-34.65508536964494,0 -71.26619753466188,-34.65525825378203,0</coordinates></LineString></Placemark><Placemark><name>Trabajado - Cuartel 1 - Hilera 54</name><Style><LineStyle><color>ff00ff00</color><width>3</width></LineStyle></Style><LineString><coordinates>-71.26630231356513,-34.655005842526506,0 -71.26611115126725,-34.65547080499051,0</coordinates></LineString></Placemark><Placemark><name>Trabajado - Cuartel 1 - Hilera 55</name><Style><LineStyle><color>ff00ff00</color><width>3</width></LineStyle></Style><LineString><coordinates>-71.26628017689134,-34.6552399953529,0 -71.26605471753822,-34.65502960763459,0</coordinates></LineString></Placemark><Placemark><name>Trabajado - Cuartel 1 - Hilera 56</name><Style><LineStyle><color>ff00ff00</color><width>3</width></LineStyle></Style><LineString><coordinates>-71.26608929495984,-34.65508122953387,0 -71.26634667304957,-34.65516980606425,0</coordinates></LineString></Placemark><Placemark><name>Trabajado - Cuartel 1 - Hilera 57</name><Style><LineStyle><color>ff00ff00</color><width>3</width></LineStyle></Style><LineString><coordinates>-71.26633522649877,-34.655063633208776,0 -71.2660639342789,-34.65507153492392,0</coordinates></LineString></Placemark><Placemark><name>Trabajado - Cuartel 1 - Hilera 58</name><Style><LineStyle><color>ff00ff00</color><width>3</width></LineStyle></Style><LineString><coordinates>-71.26625270281609,-34.65527168553164,0 -71.26607555142914,-34.65511331264419,0</coordinates></LineString></Placemark><Placemark><name>Trabajado - Cuartel 1 - Hilera 59</name><Style><LineStyle><color>ff00ff00</color><width>3</width></LineStyle></Style><LineString><coordinates>-71.26627671123923,-34.65521171895147,0 -71.26625023005185,-34.65496915127481,0</coordinates></LineString></Placemark><Placemark><name>Trabajado - Cuartel 1 - Hilera 60</name><Style><LineStyle><color>ff00ff00</color><width>3</width></LineStyle></Style><LineString><coordinates>-71.26605863873777,-34.65514203033988,0 -71.26628959039655,-34.65497221294372,0</coordinates></LineString></Placemark><Placemark><name>Trabajado - Cuartel 1 - Hilera 61</name><Style><LineStyle><color>ff00ff00</color><width>3</width></LineStyle></Style><LineString><coordinates>-71.26605334527866,-34.65521747319141,0 -71.26628,-34.6551833,0</coordinates></LineString></Placemark><Placemark><name>Trabajado - Cuartel 1 - Hilera 62</name><Style><LineStyle><color>ff00ff00</color><width>3</width></LineStyle></Style><LineString><coordinates>-71.26603397444669,-34.65511836351135,0 -71.26637022102769,-34.654995713568006,0</coordinates></LineString></Placemark><Placemark><name>Trabajado - Cuartel 1 - Hilera 63</name><Style><LineStyle><color>ff00ff00</color><width>3</width></LineStyle></Style><LineString><coordinates>-71.2661244005518,-34.65500549775222,0 -71.2662666005017,-34.65525396704361,0</coordinates></LineString></Placemark><Placemark><name>Trabajado - Cuartel 1 - Hilera 64</name><Style><LineStyle><color>ff00ff00</color><width>3</width></LineStyle></Style><LineString><coordinates>-71.26616482847194,-34.655255082094364,0 -71.26617402832244,-34.655006956715596,0</coordinates></LineString></Placemark><Placemark><name>Trabajado - Cuartel 1 - Hilera 65</name><Style><LineStyle><color>ff00ff00</color><width>3</width></LineStyle></Style><LineString><coordinates>-71.26608369711317,-34.655178654813554,0 -71.26633,-34.6552166,0</coordinates></LineString></Placemark><Placemark><name>Trabajado - Cuartel 1 - Hilera 66</name><Style><LineStyle><color>ff00ff00</color><width>3</width></LineStyle></Style><LineString><coordinates>-71.26638972908499,-34.65511413762359,0 -71.26608259157614,-34.6551373125447,0</coordinates></LineString></Placemark><Placemark><name>Trabajado - Cuartel 1 - Hilera 67</name><Style><LineStyle><color>ff00ff00</color><width>3</width></LineStyle></Style><LineString><coordinates>-71.26625136230072,-34.65527173324058,0 -71.26617053700316,-34.65499548894504,0</coordinates></LineString></Placemark><Placemark><name>Trabajado - Cuartel 1 - Hilera 68</name><Style><LineStyle><color>ff00ff00</color><width>3</width></LineStyle></Style><LineString><coordinates>-71.26642643385924,-34.65515220296936,0 -71.2661133,-34.6552366,0</coordinates></LineString></Placemark><Placemark><name>Trabajado - Cuartel 1 - Hilera 69</name><Style><LineStyle><color>ff00ff00</color><width>3</width></LineStyle></Style><LineString><coordinates>-71.2663750030444,-34.6551366706089,0 -71.26608433800051,-34.655145265543,0</coordinates></LineString></Placemark><Placemark><name>Trabajado - Cuartel 1 - Hilera 70</name><Style><LineStyle><color>ff00ff00</color><width>3</width></LineStyle></Style><LineString><coordinates>-71.2661528808027,-34.65518891413971,0 -71.2663668326055,-34.655006252788056,0</coordinates></LineString></Placemark><Placemark><name>Trabajado - Cuartel 1 - Hilera 71</name><Style><LineStyle><color>ff00ff00</color><width>3</width></LineStyle></Style><LineString><coordinates>-71.26612149460635,-34.65520358516324,0 -71.26636252150453,-34.655140379586996,0</coordinates></LineString></Placemark><Placemark><name>Trabajado - Cuartel 1 - Hilera 72</name><Style><LineStyle><color>ff00ff00</color><width>3</width></LineStyle></Style><LineString><coordinates>-71.266105,-34.655005,0 -71.266035,-34.655075,0</coordinates></LineString></Placemark><Placemark><name>Trabajado - Cuartel 1 - Hilera 73</name><Style><LineStyle><color>ff00ff00</color><width>3</width></LineStyle></Style><LineString><coordinates>-71.2662616,-34.6549683,0 -71.26638238539577,-34.65508908539578,0</coordinates></LineString></Placemark><Placemark><name>Trabajado - Cuartel 1 - Hilera 74</name><Style><LineStyle><color>ff00ff00</color><width>3</width></LineStyle></Style><LineString><coordinates>-71.26609359650513,-34.65506907001141,0 -71.26619,-34.6552833,0</coordinates></LineString></Placemark><Placemark><name>Trabajado - Cuartel 1 - Hilera 75</name><Style><LineStyle><color>ff00ff00</color><width>3</width></LineStyle></Style><LineString><coordinates>-71.2663166,-34.6551466,0 -71.26627366760313,-34.65503275823893,0</coordinates></LineString></Placemark><Placemark><name>Trabajado - Cuartel 1 - Hilera 76</name><Style><LineStyle><color>ff00ff00</color><width>3</width></LineStyle></Style><LineString><coordinates>-71.26626721213127,-34.65522295797582,0 -71.2660833,-34.655135,0</coordinates></LineString></Placemark><Placemark><name>Trabajado - Cuartel 1 - Hilera 77</name><Style><LineStyle><color>ff00ff00</color><width>3</width></LineStyle></Style><LineString><coordinates>-71.26626517277279,-34.655033171160845,0 -71.2662283,-34.6553133,0</coordinates></LineString></Placemark><Placemark><name>Trabajado - Cuartel 1 - Hilera 78</name><Style><LineStyle><color>ff00ff00</color><width>3</width></LineStyle></Style><LineString><coordinates>-71.26638992952412,-34.65508656720357,0 -71.2661966,-34.6549966,0</coordinates></LineString></Placemark><Placemark><name>Trabajado - Cuartel 1 - Hilera 79</name><Style><LineStyle><color>ff00ff00</color><width>3</width></LineStyle></Style><LineString><coordinates>-71.26625167656441,-34.655304976564395,0 -71.26606837656439,-34.655121676564406,0</coordinates></LineString></Placemark><Placemark><name>Trabajado - Cuartel 1 - Hilera 80</name><Style><LineStyle><color>ff00ff00</color><width>3</width></LineStyle></Style><LineString><coordinates>-71.26614158759088,-34.65521317518179,0 -71.2660633,-34.6550566,0</coordinates></LineString></Placemark><Placemark><name>Trabajado - Cuartel 1 - Hilera 81</name><Style><LineStyle><color>ff00ff00</color><width>3</width></LineStyle></Style><LineString><coordinates>-71.26608142961754,-34.65518250074116,0 -71.26620426520299,-34.65501057306066,0</coordinates></LineString></Placemark><Placemark><name>Trabajado - Cuartel 1 - Hilera 82</name><Style><LineStyle><color>ff00ff00</color><width>3</width></LineStyle></Style><LineString><coordinates>-71.2662163101392,-34.655231167843375,0 -71.2661083,-34.6550066,0</coordinates></LineString></Placemark><Placemark><name>Trabajado - Cuartel 1 - Hilera 83</name><Style><LineStyle><color>ff00ff00</color><width>3</width></LineStyle></Style><LineString><coordinates>-71.26608938311706,-34.65517466025283,0 -71.26632372530344,-34.655071796366805,0</coordinates></LineString></Placemark><Placemark><name>Trabajado - Cuartel 1 - Hilera 84</name><Style><LineStyle><color>ff00ff00</color><width>3</width></LineStyle></Style><LineString><coordinates>-71.26636532604469,-34.65514570764297,0 -71.26605465100994,-34.65504398218909,0</coordinates></LineString></Placemark><Placemark><name>Trabajado - Cuartel 1 - Hilera 85</name><Style><LineStyle><color>ff00ff00</color><width>3</width></LineStyle></Style><LineString><coordinates>-71.2660883,-34.655055,0 -71.26630707104951,-34.65504206296529,0</coordinates></LineString></Placemark><Placemark><name>Trabajado - Cuartel 1 - Hilera 86</name><Style><LineStyle><color>ff00ff00</color><width>3</width></LineStyle></Style><LineString><coordinates>-71.2663383,-34.655225,0 -71.2662566,-34.6553016,0</coordinates></LineString></Placemark><Placemark><name>Trabajado - Cuartel 1 - Hilera 87</name><Style><LineStyle><color>ff00ff00</color><width>3</width></LineStyle></Style><LineString><coordinates>-71.26606156964824,-34.65506214470635,0 -71.26625532333988,-34.6552426819115,0</coordinates></LineString></Placemark><Placemark><name>Trabajado - Cuartel 1 - Hilera 88</name><Style><LineStyle><color>ff00ff00</color><width>3</width></LineStyle></Style><LineString><coordinates>-71.26633679513894,-34.655146229733916,0 -71.2660617929164,-34.65497139189778,0</coordinates></LineString></Placemark><Placemark><name>Trabajado - Cuartel 1 - Hilera 89</name><Style><LineStyle><color>ff00ff00</color><width>3</width></LineStyle></Style><LineString><coordinates>-71.2661116,-34.654995,0 -71.26631582856272,-34.654976159726694,0</coordinates></LineString></Placemark><Placemark><name>Trabajado - Cuartel 1 - Hilera 90</name><Style><LineStyle><color>ff00ff00</color><width>3</width></LineStyle></Style><LineString><coordinates>-71.26634132086127,-34.65513680989118,0 -71.26625640710958,-34.654990364435356,0</coordinates></LineString></Placemark><Placemark><name>Trabajado - Cuartel 1 - Hilera 91</name><Style><LineStyle><color>ff00ff00</color><width>3</width></LineStyle></Style><LineString><coordinates>-71.2661783,-34.6549716,0 -71.26634156365992,-34.65502960364297,0</coordinates></LineString></Placemark><Placemark><name>Trabajado - Cuartel 1 - Hilera 92</name><Style><LineStyle><color>ff00ff00</color><width>3</width></LineStyle></Style><LineString><coordinates>-71.26613634461962,-34.655242443897706,0 -71.2662823561578,-34.65524861513769,0</coordinates></LineString></Placemark><Placemark><name>Trabajado - Cuartel 1 - Hilera 93</name><Style><LineStyle><color>ff00ff00</color><width>3</width></LineStyle></Style><LineString><coordinates>-71.2661,-34.6551916,0 -71.26623527089488,-34.655228492062236,0</coordinates></LineString></Placemark><Placemark><name>Trabajado - Cuartel 1 - Hilera 94</name><Style><LineStyle><color>ff00ff00</color><width>3</width></LineStyle></Style><LineString><coordinates>-71.2663194923933,-34.65506855546332,0 -71.2660366,-34.6551233,0</coordinates></LineString></Placemark><Placemark><name>Trabajado - Cuartel 1 - Hilera 95</name><Style><LineStyle><color>ff00ff00</color><width>3</width></LineStyle></Style><LineString><coordinates>-71.26630972736662,-34.655160803239376,0 -71.2659983,-34.6551149,0</coordinates></LineString></Placemark><Placemark><name>Trabajado - Cuartel 1 - Hilera 96</name><Style><LineStyle><color>ff00ff00</color><width>3</width></LineStyle></Style><LineString><coordinates>-71.2659983,-34.6551149,0 -71.2662679688885,-34.65525723341551,0</coordinates></LineString></Placemark><Placemark><name>Trabajado - Cuartel 1 - Hilera 97</name><Style><LineStyle><color>ff00ff00</color><width>3</width></LineStyle></Style><LineString><coordinates>-71.26606345189883,-34.65496863652806,0 -71.2663342934204,-34.65508471146589,0</coordinates></LineString></Placemark><Placemark><name>Trabajado - Cuartel 1 - Hilera 98</name><Style><LineStyle><color>ff00ff00</color><width>3</width></LineStyle></Style><LineString><coordinates>-71.2663033,-34.654985,0 -71.2663216,-34.6550766,0</coordinates></LineString></Placemark><Placemark><name>Trabajado - Cuartel 1 - Hilera 99</name><Style><LineStyle><color>ff00ff00</color><width>3</width></LineStyle></Style><LineString><coordinates>-71.2663171298257,-34.654975355980405,0 -71.2660166,-34.6550983,0</coordinates></LineString></Placemark><Placemark><name>Trabajado - Cuartel 1 - Hilera 100</name><Style><LineStyle><color>ff00ff00</color><width>3</width></LineStyle></Style><LineString><coordinates>-71.26642835378337,-34.655139707086356,0 -71.26612813510384,-34.65505695115472,0</coordinates></LineString></Placemark><Placemark><name>Trabajado - Cuartel 1 - Hilera 101</name><Style><LineStyle><color>ff00ff00</color><width>3</width></LineStyle></Style><LineString><coordinates>-71.26629374341978,-34.65520205391634,0 -71.26634291875136,-34.65498941613989,0</coordinates></LineString></Placemark><Placemark><name>Trabajado - Cuartel 1 - Hilera 102</name><Style><LineStyle><color>ff00ff00</color><width>3</width></LineStyle></Style><LineString><coordinates>-71.26620064954167,-34.65496875834711,0 -71.2661283,-34.6550499,0</coordinates></LineString></Placemark><Placemark><name>Trabajado - Cuartel 1 - Hilera 103</name><Style><LineStyle><color>ff00ff00</color><width>3</width></LineStyle></Style><LineString><coordinates>-71.26605887946275,-34.6551104651478,0 -71.2663045230377,-34.65519765198727,0</coordinates></LineString></Placemark><Placemark><name>Trabajado - Cuartel 1 - Hilera 104</name><Style><LineStyle><color>ff00ff00</color><width>3</width></LineStyle></Style><LineString><coordinates>-71.2661766,-34.6552033,0 -71.26620715611693,-34.65496724416106,0</coordinates></LineString></Placemark><Placemark><name>Trabajado - Cuartel 1 - Hilera 105</name><Style><LineStyle><color>ff00ff00</color><width>3</width></LineStyle></Style><LineString><coordinates>-71.266295,-34.6551983,0 -71.2662883,-34.65503,0</coordinates></LineString></Placemark><Placemark><name>Trabajado - Cuartel 1 - Hilera 106</name><Style><LineStyle><color>ff00ff00</color><width>3</width></LineStyle></Style><LineString><coordinates>-71.2662216,-34.6551216,0 -71.266115,-34.6552766,0</coordinates></LineString></Placemark><Placemark><name>Trabajado - Cuartel 1 - Hilera 107</name><Style><LineStyle><color>ff00ff00</color><width>3</width></LineStyle></Style><LineString><coordinates>-71.26627217615564,-34.655478115116566,0 -71.26611,-34.6553783,0</coordinates></LineString></Placemark><Placemark><name>Trabajado - Cuartel 1 - Hilera 108</name><Style><LineStyle><color>ff00ff00</color><width>3</width></LineStyle></Style><LineString><coordinates>-71.26611,-34.6553783,0 -71.2661916,-34.6553233,0</coordinates></LineString></Placemark><Placemark><name>Trabajado - Cuartel 1 - Hilera 109</name><Style><LineStyle><color>ff00ff00</color><width>3</width></LineStyle></Style><LineString><coordinates>-71.2662616,-34.6554899,0 -71.26612,-34.6554733,0</coordinates></LineString></Placemark><Placemark><name>Trabajado - Cuartel 1 - Hilera 110</name><Style><LineStyle><color>ff00ff00</color><width>3</width></LineStyle></Style><LineString><coordinates>-71.26626,-34.65527,0 -71.2661483,-34.655255,0</coordinates></LineString></Placemark></Folder></Document></kml>