<?xml version="1.0" encoding="UTF-8"?><kml xmlns="http://www.opengis.net/kml/2.2"><Document><Folder><name>Barredora 5497</name><Placemark><name>Descartado (grupo chico) - Hilera 1</name><Style><LineStyle><color>ff00ffff</color><width>3</width></LineStyle></Style><LineString><coordinates>-70.6254183,-33.866315,0 -70.6253783,-33.86623,0</coordinates></LineString></Placemark><Placemark><name>Descartado (grupo chico) - Hilera 2</name><Style><LineStyle><color>ff00ffff</color><width>3</width></LineStyle></Style><LineString><coordinates>-70.6253716,-33.8662366,0 -70.6255016,-33.8661033,0</coordinates></LineString></Placemark><Placemark><name>Descartado (grupo chico) - Hilera 4</name><Style><LineStyle><color>ff00ffff</color><width>3</width></LineStyle></Style><LineString><coordinates>-70.6255066,-33.8659983,0 -70.62543,-33.8661116,0</coordinates></LineString></Placemark><Placemark><name>Descartado (grupo chico) - Hilera 9</name><Style><LineStyle><color>ff00ffff</color><width>3</width></LineStyle></Style><LineString><coordinates>-70.6253433,-33.8661366,0 -70.6252866,-33.8662016,0</coordinates></LineString></Placemark><Placemark><name>Descartado (grupo chico) - Hilera 3</name><Style><LineStyle><color>ff00ffff</color><width>3</width></LineStyle></Style><LineString><coordinates>-70.6255083,-33.8661566,0 -70.6255083,-33.8660066,0</coordinates></LineString></Placemark><Placemark><name>Descartado (grupo chico) - Hilera 10</name><Style><LineStyle><color>ff00ffff</color><width>3</width></LineStyle></Style><LineString><coordinates>-70.6252866,-33.8662016,0 -70.6253466,-33.8657166,0</coordinates></LineString></Placemark><Placemark><name>Descartado (grupo chico) - Hilera 5</name><Style><LineStyle><color>ff00ffff</color><width>3</width></LineStyle></Style><LineString><coordinates>-70.6254216,-33.8660933,0 -70.6255016,-33.8661383,0</coordinates></LineString></Placemark><Placemark><name>Descartado (grupo chico) - Hilera 6</name><Style><LineStyle><color>ff00ffff</color><width>3</width></LineStyle></Style><LineString><coordinates>-70.625525,-33.866135,0 -70.6254633,-33.8660816,0</coordinates></LineString></Placemark><Placemark><name>Descartado (grupo chico) - Hilera 7</name><Style><LineStyle><color>ff00ffff</color><width>3</width></LineStyle></Style><LineString><coordinates>-70.6254633,-33.8660816,0 -70.62562,-33.8660966,0</coordinates></LineString></Placemark><Placemark><name>Descartado (grupo chico) - Hilera 8</name><Style><LineStyle><color>ff00ffff</color><width>3</width></LineStyle></Style><LineString><coordinates>-70.62562,-33.8660966,0 -70.6253433,-33.8661366,0</coordinates></LineString></Placemark><Placemark><name>Descartado (grupo chico) - Hilera 11</name><Style><LineStyle><color>ff00ffff</color><width>3</width></LineStyle></Style><LineString><coordinates>-70.6253466,-33.8657166,0 -70.6305566,-33.865305,0</coordinates></LineString></Placemark><Placemark><name>Trabajado - Cuartel 12 - Hilera 12</name><Style><LineStyle><color>ff00ff00</color><width>3</width></LineStyle></Style><LineString><coordinates>-70.6305566,-33.865305,0 -70.6303383,-33.8631416,0</coordinates></LineString></Placemark><Placemark><name>Trabajado - Cuartel 12 - Hilera 13</name><Style><LineStyle><color>ff00ff00</color><width>3</width></LineStyle></Style><LineString><coordinates>-70.63028528659042,-33.86318027454451,0 -70.63053595824388,-33.86299740360493,0</coordinates></LineString></Placemark><Placemark><name>Trabajado - Cuartel 12 - Hilera 14</name><Style><LineStyle><color>ff00ff00</color><width>3</width></LineStyle></Style><LineString><coordinates>-70.63050069196774,-33.86382085221556,0 -70.6304104317833,-33.86263212558607,0</coordinates></LineString></Placemark><Placemark><name>Trabajado - Cuartel 12 - Hilera 15</name><Style><LineStyle><color>ff00ff00</color><width>3</width></LineStyle></Style><LineString><coordinates>-70.63044934386387,-33.8628951276879,0 -70.6302966,-33.8623466,0</coordinates></LineString></Placemark><Placemark><name>Trabajado - Cuartel 12 - Hilera 16</name><Style><LineStyle><color>ff00ff00</color><width>3</width></LineStyle></Style><LineString><coordinates>-70.6303166,-33.86252,0 -70.63065630861352,-33.86296309819158,0</coordinates></LineString></Placemark><Placemark><name>Trabajado - Cuartel 12 - Hilera 17</name><Style><LineStyle><color>ff00ff00</color><width>3</width></LineStyle></Style><LineString><coordinates>-70.6304316,-33.86267,0 -70.6305466,-33.862635,0</coordinates></LineString></Placemark><Placemark><name>Trabajado - Cuartel 12 - Hilera 18</name><Style><LineStyle><color>ff00ff00</color><width>3</width></LineStyle></Style><LineString><coordinates>-70.6305466,-33.862635,0 -70.63014261035971,-33.86261816709832,0</coordinates></LineString></Placemark><Placemark><name>Trabajado - Cuartel 12 - Hilera 19</name><Style><LineStyle><color>ff00ff00</color><width>3</width></LineStyle></Style><LineString><coordinates>-70.63033680913216,-33.86264839874933,0 -70.6304761742668,-33.862686765151096,0</coordinates></LineString></Placemark><Placemark><name>Trabajado - Cuartel 12 - Hilera 20</name><Style><LineStyle><color>ff00ff00</color><width>3</width></LineStyle></Style><LineString><coordinates>-70.6303766,-33.8626733,0 -70.6304249,-33.8626083,0</coordinates></LineString></Placemark><Placemark><name>Trabajado - Cuartel 12 - Hilera 21</name><Style><LineStyle><color>ff00ff00</color><width>3</width></LineStyle></Style><LineString><coordinates>-70.6303266,-33.8626583,0 -70.63036263680695,-33.86247216989208,0</coordinates></LineString></Placemark><Placemark><name>Trabajado - Cuartel 12 - Hilera 22</name><Style><LineStyle><color>ff00ff00</color><width>3</width></LineStyle></Style><LineString><coordinates>-70.63029567075107,-33.862552181845565,0 -70.63060628130978,-33.86267148209476,0</coordinates></LineString></Placemark><Placemark><name>Trabajado - Cuartel 12 - Hilera 23</name><Style><LineStyle><color>ff00ff00</color><width>3</width></LineStyle></Style><LineString><coordinates>-70.6303016,-33.8626283,0 -70.630415,-33.86259,0</coordinates></LineString></Placemark><Placemark><name>Trabajado - Cuartel 12 - Hilera 24</name><Style><LineStyle><color>ff00ff00</color><width>3</width></LineStyle></Style><LineString><coordinates>-70.63025480224647,-33.86263023392052,0 -70.63046187577267,-33.86255321266992,0</coordinates></LineString></Placemark><Placemark><name>Trabajado - Cuartel 12 - Hilera 25</name><Style><LineStyle><color>ff00ff00</color><width>3</width></LineStyle></Style><LineString><coordinates>-70.6303466,-33.86247,0 -70.63051,-33.8624816,0</coordinates></LineString></Placemark><Placemark><name>Trabajado - Cuartel 12 - Hilera 26</name><Style><LineStyle><color>ff00ff00</color><width>3</width></LineStyle></Style><LineString><coordinates>-70.63051,-33.8624816,0 -70.6302983,-33.862695,0</coordinates></LineString></Placemark><Placemark><name>Trabajado - Cuartel 12 - Hilera 27</name><Style><LineStyle><color>ff00ff00</color><width>3</width></LineStyle></Style><LineString><coordinates>-70.6302633,-33.8626466,0 -70.63071394411185,-33.863800960469675,0</coordinates></LineString></Placemark><Placemark><name>Trabajado - Cuartel 12 - Hilera 28</name><Style><LineStyle><color>ff00ff00</color><width>3</width></LineStyle></Style><LineString><coordinates>-70.63106770184984,-33.8628311297273,0 -70.6303233,-33.8631266,0</coordinates></LineString></Placemark><Placemark><name>Trabajado - Cuartel 12 - Hilera 29</name><Style><LineStyle><color>ff00ff00</color><width>3</width></LineStyle></Style><LineString><coordinates>-70.630315,-33.8631483,0 -70.63065997905011,-33.86303655480021,0</coordinates></LineString></Placemark><Placemark><name>Trabajado - Cuartel 12 - Hilera 30</name><Style><LineStyle><color>ff00ff00</color><width>3</width></LineStyle></Style><LineString><coordinates>-70.63033,-33.8631416,0 -70.6304483,-33.8630233,0</coordinates></LineString></Placemark><Placemark><name>Trabajado - Cuartel 12 - Hilera 31</name><Style><LineStyle><color>ff00ff00</color><width>3</width></LineStyle></Style><LineString><coordinates>-70.6304483,-33.8630233,0 -70.630335,-33.8625316,0</coordinates></LineString></Placemark><Placemark><name>Trabajado - Cuartel 12 - Hilera 32</name><Style><LineStyle><color>ff00ff00</color><width>3</width></LineStyle></Style><LineString><coordinates>-70.630335,-33.8625316,0 -70.63042,-33.8630983,0</coordinates></LineString></Placemark><Placemark><name>Trabajado - Cuartel 12 - Hilera 33</name><Style><LineStyle><color>ff00ff00</color><width>3</width></LineStyle></Style><LineString><coordinates>-70.630285,-33.86318,0 -70.63053322951184,-33.86416191279808,0</coordinates></LineString></Placemark><Placemark><name>Trabajado - Cuartel 12 - Hilera 34</name><Style><LineStyle><color>ff00ff00</color><width>3</width></LineStyle></Style><LineString><coordinates>-70.6305083,-33.8640633,0 -70.6304516,-33.8642433,0</coordinates></LineString></Placemark><Placemark><name>Trabajado - Cuartel 12 - Hilera 35</name><Style><LineStyle><color>ff00ff00</color><width>3</width></LineStyle></Style><LineString><coordinates>-70.63045108648001,-33.86430658744798,0 -70.6304549,-33.8638366,0</coordinates></LineString></Placemark><Placemark><name>Trabajado - Cuartel 12 - Hilera 37</name><Style><LineStyle><color>ff00ff00</color><width>3</width></LineStyle></Style><LineString><coordinates>-70.6302716,-33.863075,0 -70.6306566,-33.8629533,0</coordinates></LineString></Placemark><Placemark><name>Trabajado - Cuartel 12 - Hilera 38</name><Style><LineStyle><color>ff00ff00</color><width>3</width></LineStyle></Style><LineString><coordinates>-70.6306566,-33.8629533,0 -70.6306783,-33.862645,0</coordinates></LineString></Placemark><Placemark><name>Trabajado - Cuartel 12 - Hilera 39</name><Style><LineStyle><color>ff00ff00</color><width>3</width></LineStyle></Style><LineString><coordinates>-70.6306783,-33.862645,0 -70.6303633,-33.8627766,0</coordinates></LineString></Placemark><Placemark><name>Trabajado - Cuartel 12 - Hilera 40</name><Style><LineStyle><color>ff00ff00</color><width>3</width></LineStyle></Style><LineString><coordinates>-70.6303633,-33.8627766,0 -70.6305233,-33.8628333,0</coordinates></LineString></Placemark><Placemark><name>Trabajado - Cuartel 12 - Hilera 41</name><Style><LineStyle><color>ff00ff00</color><width>3</width></LineStyle></Style><LineString><coordinates>-70.6305233,-33.8628333,0 -70.6306799,-33.86276,0</coordinates></LineString></Placemark><Placemark><name>Trabajado - Cuartel 12 - Hilera 42</name><Style><LineStyle><color>ff00ff00</color><width>3</width></LineStyle></Style><LineString><coordinates>-70.6306799,-33.86276,0 -70.6306,-33.862635,0</coordinates></LineString></Placemark><Placemark><name>Trabajado - Cuartel 12 - Hilera 43</name><Style><LineStyle><color>ff00ff00</color><width>3</width></LineStyle></Style><LineString><coordinates>-70.6303033,-33.8625383,0 -70.630645,-33.8624983,0</coordinates></LineString></Placemark><Placemark><name>Trabajado - Cuartel 12 - Hilera 44</name><Style><LineStyle><color>ff00ff00</color><width>3</width></LineStyle></Style><LineString><coordinates>-70.630645,-33.8624983,0 -70.6307383,-33.8627816,0</coordinates></LineString></Placemark><Placemark><name>Trabajado - Cuartel 12 - Hilera 45</name><Style><LineStyle><color>ff00ff00</color><width>3</width></LineStyle></Style><LineString><coordinates>-70.6307283,-33.8628099,0 -70.63044153398702,-33.86314531381871,0</coordinates></LineString></Placemark><Placemark><name>Trabajado - Cuartel 12 - Hilera 46</name><Style><LineStyle><color>ff00ff00</color><width>3</width></LineStyle></Style><LineString><coordinates>-70.63082644220731,-33.862978003148,0 -70.6304766,-33.8628266,0</coordinates></LineString></Placemark><Placemark><name>Trabajado - Cuartel 12 - Hilera 47</name><Style><LineStyle><color>ff00ff00</color><width>3</width></LineStyle></Style><LineString><coordinates>-70.6308366,-33.8629616,0 -70.6309883,-33.8627349,0</coordinates></LineString></Placemark><Placemark><name>Trabajado - Cuartel 12 - Hilera 48</name><Style><LineStyle><color>ff00ff00</color><width>3</width></LineStyle></Style><LineString><coordinates>-70.6309883,-33.8627349,0 -70.6309383,-33.86266,0</coordinates></LineString></Placemark><Placemark><name>Trabajado - Cuartel 12 - Hilera 49</name><Style><LineStyle><color>ff00ff00</color><width>3</width></LineStyle></Style><LineString><coordinates>-70.6309166,-33.8626783,0 -70.6309733,-33.8628683,0</coordinates></LineString></Placemark><Placemark><name>Trabajado - Cuartel 12 - Hilera 50</name><Style><LineStyle><color>ff00ff00</color><width>3</width></LineStyle></Style><LineString><coordinates>-70.6309733,-33.8628683,0 -70.630945,-33.8629583,0</coordinates></LineString></Placemark><Placemark><name>Trabajado - Cuartel 12 - Hilera 51</name><Style><LineStyle><color>ff00ff00</color><width>3</width></LineStyle></Style><LineString><coordinates>-70.630945,-33.8629583,0 -70.6311616,-33.8629216,0</coordinates></LineString></Placemark><Placemark><name>Trabajado - Cuartel 12 - Hilera 52</name><Style><LineStyle><color>ff00ff00</color><width>3</width></LineStyle></Style><LineString><coordinates>-70.6311616,-33.8629216,0 -70.630955,-33.8624316,0</coordinates></LineString></Placemark><Placemark><name>Trabajado - Cuartel 12 - Hilera 53</name><Style><LineStyle><color>ff00ff00</color><width>3</width></LineStyle></Style><LineString><coordinates>-70.630955,-33.8624316,0 -70.6310316,-33.86252,0</coordinates></LineString></Placemark><Placemark><name>Trabajado - Cuartel 12 - Hilera 54</name><Style><LineStyle><color>ff00ff00</color><width>3</width></LineStyle></Style><LineString><coordinates>-70.6310316,-33.86252,0 -70.6309683,-33.8628716,0</coordinates></LineString></Placemark><Placemark><name>Trabajado - Cuartel 12 - Hilera 55</name><Style><LineStyle><color>ff00ff00</color><width>3</width></LineStyle></Style><LineString><coordinates>-70.631035,-33.8629016,0 -70.6310783,-33.8630583,0</coordinates></LineString></Placemark><Placemark><name>Trabajado - Cuartel 12 - Hilera 56</name><Style><LineStyle><color>ff00ff00</color><width>3</width></LineStyle></Style><LineString><coordinates>-70.6310283,-33.8630433,0 -70.6309983,-33.8633466,0</coordinates></LineString></Placemark><Placemark><name>Trabajado - Cuartel 12 - Hilera 57</name><Style><LineStyle><color>ff00ff00</color><width>3</width></LineStyle></Style><LineString><coordinates>-70.6309983,-33.8633466,0 -70.630715,-33.8629083,0</coordinates></LineString></Placemark><Placemark><name>Trabajado - Cuartel 12 - Hilera 58</name><Style><LineStyle><color>ff00ff00</color><width>3</width></LineStyle></Style><LineString><coordinates>-70.63028,-33.862575,0 -70.6303683,-33.862575,0</coordinates></LineString></Placemark><Placemark><name>Trabajado - Cuartel 12 - Hilera 59</name><Style><LineStyle><color>ff00ff00</color><width>3</width></LineStyle></Style><LineString><coordinates>-70.630405,-33.8625416,0 -70.6304749,-33.86269,0</coordinates></LineString></Placemark><Placemark><name>Trabajado - Cuartel 12 - Hilera 60</name><Style><LineStyle><color>ff00ff00</color><width>3</width></LineStyle></Style><LineString><coordinates>-70.6303516,-33.8627366,0 -70.6304749,-33.8627433,0</coordinates></LineString></Placemark><Placemark><name>Trabajado - Cuartel 12 - Hilera 61</name><Style><LineStyle><color>ff00ff00</color><width>3</width></LineStyle></Style><LineString><coordinates>-70.6304749,-33.8627433,0 -70.6301433,-33.8626066,0</coordinates></LineString></Placemark><Placemark><name>Trabajado - Cuartel 12 - Hilera 62</name><Style><LineStyle><color>ff00ff00</color><width>3</width></LineStyle></Style><LineString><coordinates>-70.6302499,-33.86261,0 -70.6304666,-33.8626533,0</coordinates></LineString></Placemark><Placemark><name>Trabajado - Cuartel 12 - Hilera 63</name><Style><LineStyle><color>ff00ff00</color><width>3</width></LineStyle></Style><LineString><coordinates>-70.6304316,-33.86262,0 -70.6302666,-33.8626616,0</coordinates></LineString></Placemark><Placemark><name>Trabajado - Cuartel 12 - Hilera 64</name><Style><LineStyle><color>ff00ff00</color><width>3</width></LineStyle></Style><LineString><coordinates>-70.6302666,-33.8626616,0 -70.6300216,-33.8626083,0</coordinates></LineString></Placemark><Placemark><name>Trabajado - Cuartel 12 - Hilera 65</name><Style><LineStyle><color>ff00ff00</color><width>3</width></LineStyle></Style><LineString><coordinates>-70.63041,-33.863025,0 -70.63022,-33.8631366,0</coordinates></LineString></Placemark><Placemark><name>Trabajado - Cuartel 12 - Hilera 66</name><Style><LineStyle><color>ff00ff00</color><width>3</width></LineStyle></Style><LineString><coordinates>-70.63022,-33.8631366,0 -70.63051,-33.8638116,0</coordinates></LineString></Placemark><Placemark><name>Trabajado - Cuartel 12 - Hilera 72</name><Style><LineStyle><color>ff00ff00</color><width>3</width></LineStyle></Style><LineString><coordinates>-70.630535,-33.8641616,0 -70.6304533,-33.8643066,0</coordinates></LineString></Placemark><Placemark><name>Trabajado - Cuartel 12 - Hilera 75</name><Style><LineStyle><color>ff00ff00</color><width>3</width></LineStyle></Style><LineString><coordinates>-70.630465,-33.8637866,0 -70.63039,-33.863485,0</coordinates></LineString></Placemark><Placemark><name>Trabajado - Cuartel 12 - Hilera 76</name><Style><LineStyle><color>ff00ff00</color><width>3</width></LineStyle></Style><LineString><coordinates>-70.63039,-33.863485,0 -70.6309883,-33.8628416,0</coordinates></LineString></Placemark><Placemark><name>Trabajado - Cuartel 12 - Hilera 77</name><Style><LineStyle><color>ff00ff00</color><width>3</width></LineStyle></Style><LineString><coordinates>-70.6310333,-33.8628016,0 -70.6312216,-33.862855,0</coordinates></LineString></Placemark><Placemark><name>Trabajado - Cuartel 12 - Hilera 78</name><Style><LineStyle><color>ff00ff00</color><width>3</width></LineStyle></Style><LineString><coordinates>-70.6312216,-33.862855,0 -70.6308583,-33.8629083,0</coordinates></LineString></Placemark><Placemark><name>Trabajado - Cuartel 12 - Hilera 79</name><Style><LineStyle><color>ff00ff00</color><width>3</width></LineStyle></Style><LineString><coordinates>-70.6308716,-33.862895,0 -70.6302783,-33.8631633,0</coordinates></LineString></Placemark><Placemark><name>Trabajado - Cuartel 12 - Hilera 80</name><Style><LineStyle><color>ff00ff00</color><width>3</width></LineStyle></Style><LineString><coordinates>-70.63056227971116,-33.86314986967041,0 -70.6303516,-33.8631566,0</coordinates></LineString></Placemark><Placemark><name>Trabajado - Cuartel 12 - Hilera 81</name><Style><LineStyle><color>ff00ff00</color><width>3</width></LineStyle></Style><LineString><coordinates>-70.6305616,-33.863135,0 -70.6303183,-33.8631316,0</coordinates></LineString></Placemark><Placemark><name>Trabajado - Cuartel 12 - Hilera 82</name><Style><LineStyle><color>ff00ff00</color><width>3</width></LineStyle></Style><LineString><coordinates>-70.6303183,-33.8631316,0 -70.6305949,-33.8630766,0</coordinates></LineString></Placemark><Placemark><name>Trabajado - Cuartel 12 - Hilera 83</name><Style><LineStyle><color>ff00ff00</color><width>3</width></LineStyle></Style><LineString><coordinates>-70.6305949,-33.8630766,0 -70.6305299,-33.8629916,0</coordinates></LineString></Placemark><Placemark><name>Trabajado - Cuartel 12 - Hilera 84</name><Style><LineStyle><color>ff00ff00</color><width>3</width></LineStyle></Style><LineString><coordinates>-70.6304983,-33.8630333,0 -70.6305266,-33.8629599,0</coordinates></LineString></Placemark><Placemark><name>Trabajado - Cuartel 12 - Hilera 85</name><Style><LineStyle><color>ff00ff00</color><width>3</width></LineStyle></Style><LineString><coordinates>-70.6305266,-33.8629599,0 -70.6310433,-33.8628066,0</coordinates></LineString></Placemark><Placemark><name>Trabajado - Cuartel 12 - Hilera 86</name><Style><LineStyle><color>ff00ff00</color><width>3</width></LineStyle></Style><LineString><coordinates>-70.6310433,-33.8628066,0 -70.6310249,-33.8624949,0</coordinates></LineString></Placemark><Placemark><name>Trabajado - Cuartel 12 - Hilera 87</name><Style><LineStyle><color>ff00ff00</color><width>3</width></LineStyle></Style><LineString><coordinates>-70.6310249,-33.8624949,0 -70.6309933,-33.8625816,0</coordinates></LineString></Placemark><Placemark><name>Trabajado - Cuartel 12 - Hilera 88</name><Style><LineStyle><color>ff00ff00</color><width>3</width></LineStyle></Style><LineString><coordinates>-70.6309933,-33.8625816,0 -70.6310699,-33.862835,0</coordinates></LineString></Placemark><Placemark><name>Trabajado - Cuartel 12 - Hilera 89</name><Style><LineStyle><color>ff00ff00</color><width>3</width></LineStyle></Style><LineString><coordinates>-70.6310166,-33.8628683,0 -70.6309266,-33.8626616,0</coordinates></LineString></Placemark><Placemark><name>Trabajado - Cuartel 12 - Hilera 90</name><Style><LineStyle><color>ff00ff00</color><width>3</width></LineStyle></Style><LineString><coordinates>-70.6309816,-33.8626216,0 -70.6309699,-33.8629116,0</coordinates></LineString></Placemark><Placemark><name>Trabajado - Cuartel 12 - Hilera 91</name><Style><LineStyle><color>ff00ff00</color><width>3</width></LineStyle></Style><LineString><coordinates>-70.6309699,-33.8629116,0 -70.6306466,-33.8629683,0</coordinates></LineString></Placemark><Placemark><name>Trabajado - Cuartel 12 - Hilera 92</name><Style><LineStyle><color>ff00ff00</color><width>3</width></LineStyle></Style><LineString><coordinates>-70.63047,-33.86271,0 -70.630375,-33.862915,0</coordinates></LineString></Placemark><Placemark><name>Trabajado - Cuartel 12 - Hilera 93</name><Style><LineStyle><color>ff00ff00</color><width>3</width></LineStyle></Style><LineString><coordinates>-70.630375,-33.862915,0 -70.6304249,-33.8624416,0</coordinates></LineString></Placemark><Placemark><name>Trabajado - Cuartel 12 - Hilera 94</name><Style><LineStyle><color>ff00ff00</color><width>3</width></LineStyle></Style><LineString><coordinates>-70.6304249,-33.8624416,0 -70.6304133,-33.8630933,0</coordinates></LineString></Placemark><Placemark><name>Trabajado - Cuartel 12 - Hilera 95</name><Style><LineStyle><color>ff00ff00</color><width>3</width></LineStyle></Style><LineString><coordinates>-70.63066,-33.8630366,0 -70.6305533,-33.8630383,0</coordinates></LineString></Placemark><Placemark><name>Trabajado - Cuartel 12 - Hilera 96</name><Style><LineStyle><color>ff00ff00</color><width>3</width></LineStyle></Style><LineString><coordinates>-70.630515,-33.863,0 -70.6303999,-33.8626816,0</coordinates></LineString></Placemark><Placemark><name>Trabajado - Cuartel 12 - Hilera 97</name><Style><LineStyle><color>ff00ff00</color><width>3</width></LineStyle></Style><LineString><coordinates>-70.6304549,-33.8627783,0 -70.630435,-33.8630766,0</coordinates></LineString></Placemark><Placemark><name>Trabajado - Cuartel 12 - Hilera 98</name><Style><LineStyle><color>ff00ff00</color><width>3</width></LineStyle></Style><LineString><coordinates>-70.63044,-33.8626466,0 -70.6301866,-33.8626616,0</coordinates></LineString></Placemark><Placemark><name>Trabajado - Cuartel 12 - Hilera 99</name><Style><LineStyle><color>ff00ff00</color><width>3</width></LineStyle></Style><LineString><coordinates>-70.6302949,-33.8626833,0 -70.6305283,-33.86266,0</coordinates></LineString></Placemark><Placemark><name>Trabajado - Cuartel 12 - Hilera 100</name><Style><LineStyle><color>ff00ff00</color><width>3</width></LineStyle></Style><LineString><coordinates>-70.6305283,-33.86266,0 -70.63042763162227,-33.862713948755484,0</coordinates></LineString></Placemark><Placemark><name>Trabajado - Cuartel 12 - Hilera 101</name><Style><LineStyle><color>ff00ff00</color><width>3</width></LineStyle></Style><LineString><coordinates>-70.6305033,-33.8626583,0 -70.6306033,-33.8627783,0</coordinates></LineString></Placemark><Placemark><name>Descartado (grupo chico) - Hilera 36</name><Style><LineStyle><color>ff00ffff</color><width>3</width></LineStyle></Style><LineString><coordinates>-70.63044714931782,-33.86373680316086,0 -70.63070265078932,-33.86382065668579,0</coordinates></LineString></Placemark><Placemark><name>Descartado (grupo chico) - Hilera 69</name><Style><LineStyle><color>ff00ffff</color><width>3</width></LineStyle></Style><LineString><coordinates>-70.6307899,-33.8636749,0 -70.63067,-33.8636666,0</coordinates></LineString></Placemark><Placemark><name>Descartado (grupo chico) - Hilera 70</name><Style><LineStyle><color>ff00ffff</color><width>3</width></LineStyle></Style><LineString><coordinates>-70.6306199,-33.8637733,0 -70.63075,-33.8638849,0</coordinates></LineString></Placemark><Placemark><name>Descartado (grupo chico) - Hilera 71</name><Style><LineStyle><color>ff00ffff</color><width>3</width></LineStyle></Style><LineString><coordinates>-70.63075,-33.8638849,0 -70.630485,-33.86374,0</coordinates></LineString></Placemark><Placemark><name>Descartado (grupo chico) - Hilera 74</name><Style><LineStyle><color>ff00ffff</color><width>3</width></LineStyle></Style><LineString><coordinates>-70.630695,-33.8638516,0 -70.630465,-33.8637866,0</coordinates></LineString></Placemark><Placemark><name>Descartado (grupo chico) - Hilera 67</name><Style><LineStyle><color>ff00ffff</color><width>3</width></LineStyle></Style><LineString><coordinates>-70.63051,-33.8638116,0 -70.6306199,-33.8637716,0</coordinates></LineString></Placemark><Placemark><name>Descartado (grupo chico) - Hilera 68</name><Style><LineStyle><color>ff00ffff</color><width>3</width></LineStyle></Style><LineString><coordinates>-70.6306199,-33.8637716,0 -70.6307899,-33.8636749,0</coordinates></LineString></Placemark><Placemark><name>Descartado (grupo chico) - Hilera 73</name><Style><LineStyle><color>ff00ffff</color><width>3</width></LineStyle></Style><LineString><coordinates>-70.63049,-33.8639033,0 -70.630695,-33.8638516,0</coordinates></LineString></Placemark><Placemark><name>Descartado</name><Style><LineStyle><color>ff00ffff</color><width>3</width></LineStyle></Style><LineString><coordinates>-70.6254266,-33.8662833,0 -70.6254333,-33.866285,0</coordinates></LineString></Placemark><Placemark><name>Descartado</name><Style><LineStyle><color>ff00ffff</color><width>3</width></LineStyle></Style><LineString><coordinates>-70.6254333,-33.866285,0 -70.6254183,-33.866315,0</coordinates></LineString></Placemark><Placemark><name>Descartado</name><Style><LineStyle><color>ff00ffff</color><width>3</width></LineStyle></Style><LineString><coordinates>-70.6253783,-33.86623,0 -70.6254166,-33.8662583,0</coordinates></LineString></Placemark><Placemark><name>Descartado</name><Style><LineStyle><color>ff00ffff</color><width>3</width></LineStyle></Style><LineString><coordinates>-70.6254166,-33.8662583,0 -70.6253716,-33.8662366,0</coordinates></LineString></Placemark><Placemark><name>Descartado</name><Style><LineStyle><color>ff00ffff</color><width>3</width></LineStyle></Style><LineString><coordinates>-70.6255016,-33.8661033,0 -70.6254416,-33.8661249,0</coordinates></LineString></Placemark><Placemark><name>Descartado</name><Style><LineStyle><color>ff00ffff</color><width>3</width></LineStyle></Style><LineString><coordinates>-70.6254416,-33.8661249,0 -70.625505,-33.866135,0</coordinates></LineString></Placemark><Placemark><name>Descartado</name><Style><LineStyle><color>ff00ffff</color><width>3</width></LineStyle></Style><LineString><coordinates>-70.625505,-33.866135,0 -70.62552,-33.8661083,0</coordinates></LineString></Placemark><Placemark><name>Descartado</name><Style><LineStyle><color>ff00ffff</color><width>3</width></LineStyle></Style><LineString><coordinates>-70.62552,-33.8661083,0 -70.6255083,-33.8661566,0</coordinates></LineString></Placemark><Placemark><name>Descartado</name><Style><LineStyle><color>ff00ffff</color><width>3</width></LineStyle></Style><LineString><coordinates>-70.6255083,-33.8660066,0 -70.6255066,-33.8659983,0</coordinates></LineString></Placemark><Placemark><name>Descartado</name><Style><LineStyle><color>ff00ffff</color><width>3</width></LineStyle></Style><LineString><coordinates>-70.62543,-33.8661116,0 -70.6254216,-33.8660933,0</coordinates></LineString></Placemark><Placemark><name>Descartado</name><Style><LineStyle><color>ff00ffff</color><width>3</width></LineStyle></Style><LineString><coordinates>-70.6255016,-33.8661383,0 -70.6254633,-33.8661566,0</coordinates></LineString></Placemark><Placemark><name>Descartado</name><Style><LineStyle><color>ff00ffff</color><width>3</width></LineStyle></Style><LineString><coordinates>-70.6254633,-33.8661566,0 -70.625525,-33.866135,0</coordinates></LineString></Placemark><Placemark><name>Descartado</name><Style><LineStyle><color>ff00ffff</color><width>3</width></LineStyle></Style><LineString><coordinates>-70.630345,-33.8626266,0 -70.63036,-33.8626283,0</coordinates></LineString></Placemark><Placemark><name>Descartado</name><Style><LineStyle><color>ff00ffff</color><width>3</width></LineStyle></Style><LineString><coordinates>-70.63036,-33.8626283,0 -70.6303699,-33.86263,0</coordinates></LineString></Placemark><Placemark><name>Descartado</name><Style><LineStyle><color>ff00ffff</color><width>3</width></LineStyle></Style><LineString><coordinates>-70.6303699,-33.86263,0 -70.6303666,-33.8626566,0</coordinates></LineString></Placemark><Placemark><name>Descartado</name><Style><LineStyle><color>ff00ffff</color><width>3</width></LineStyle></Style><LineString><coordinates>-70.6304516,-33.86268,0 -70.6303833,-33.8626566,0</coordinates></LineString></Placemark><Placemark><name>Descartado</name><Style><LineStyle><color>ff00ffff</color><width>3</width></LineStyle></Style><LineString><coordinates>-70.6303833,-33.8626566,0 -70.6304066,-33.86267,0</coordinates></LineString></Placemark><Placemark><name>Descartado</name><Style><LineStyle><color>ff00ffff</color><width>3</width></LineStyle></Style><LineString><coordinates>-70.6304066,-33.86267,0 -70.6304416,-33.8626649,0</coordinates></LineString></Placemark><Placemark><name>Descartado</name><Style><LineStyle><color>ff00ffff</color><width>3</width></LineStyle></Style><LineString><coordinates>-70.6304416,-33.8626649,0 -70.6303766,-33.8626733,0</coordinates></LineString></Placemark><Placemark><name>Descartado</name><Style><LineStyle><color>ff00ffff</color><width>3</width></LineStyle></Style><LineString><coordinates>-70.6304249,-33.8626083,0 -70.6304216,-33.8626366,0</coordinates></LineString></Placemark><Placemark><name>Descartado</name><Style><LineStyle><color>ff00ffff</color><width>3</width></LineStyle></Style><LineString><coordinates>-70.6304216,-33.8626366,0 -70.6303699,-33.862645,0</coordinates></LineString></Placemark><Placemark><name>Descartado</name><Style><LineStyle><color>ff00ffff</color><width>3</width></LineStyle></Style><LineString><coordinates>-70.6303699,-33.862645,0 -70.6303733,-33.8626716,0</coordinates></LineString></Placemark><Placemark><name>Descartado</name><Style><LineStyle><color>ff00ffff</color><width>3</width></LineStyle></Style><LineString><coordinates>-70.6303733,-33.8626716,0 -70.6303266,-33.8626583,0</coordinates></LineString></Placemark><Placemark><name>Descartado</name><Style><LineStyle><color>ff00ffff</color><width>3</width></LineStyle></Style><LineString><coordinates>-70.6303466,-33.862555,0 -70.6303116,-33.8625583,0</coordinates></LineString></Placemark><Placemark><name>Descartado</name><Style><LineStyle><color>ff00ffff</color><width>3</width></LineStyle></Style><LineString><coordinates>-70.6303983,-33.8625916,0 -70.630345,-33.86261,0</coordinates></LineString></Placemark><Placemark><name>Descartado</name><Style><LineStyle><color>ff00ffff</color><width>3</width></LineStyle></Style><LineString><coordinates>-70.630345,-33.86261,0 -70.6304016,-33.862635,0</coordinates></LineString></Placemark><Placemark><name>Descartado</name><Style><LineStyle><color>ff00ffff</color><width>3</width></LineStyle></Style><LineString><coordinates>-70.6302933,-33.862645,0 -70.6303233,-33.8626366,0</coordinates></LineString></Placemark><Placemark><name>Descartado</name><Style><LineStyle><color>ff00ffff</color><width>3</width></LineStyle></Style><LineString><coordinates>-70.6303233,-33.8626366,0 -70.6303016,-33.8626283,0</coordinates></LineString></Placemark><Placemark><name>Descartado</name><Style><LineStyle><color>ff00ffff</color><width>3</width></LineStyle></Style><LineString><coordinates>-70.630415,-33.86259,0 -70.6303383,-33.8625733,0</coordinates></LineString></Placemark><Placemark><name>Descartado</name><Style><LineStyle><color>ff00ffff</color><width>3</width></LineStyle></Style><LineString><coordinates>-70.6303383,-33.8625733,0 -70.6303049,-33.8626116,0</coordinates></LineString></Placemark><Placemark><name>Descartado</name><Style><LineStyle><color>ff00ffff</color><width>3</width></LineStyle></Style><LineString><coordinates>-70.6304033,-33.862575,0 -70.6303416,-33.8625433,0</coordinates></LineString></Placemark><Placemark><name>Descartado</name><Style><LineStyle><color>ff00ffff</color><width>3</width></LineStyle></Style><LineString><coordinates>-70.6302983,-33.862695,0 -70.6302633,-33.8626466,0</coordinates></LineString></Placemark><Placemark><name>Descartado</name><Style><LineStyle><color>ff00ffff</color><width>3</width></LineStyle></Style><LineString><coordinates>-70.6304533,-33.8631333,0 -70.6304533,-33.863075,0</coordinates></LineString></Placemark><Placemark><name>Descartado</name><Style><LineStyle><color>ff00ffff</color><width>3</width></LineStyle></Style><LineString><coordinates>-70.6303233,-33.8631266,0 -70.630365,-33.8631716,0</coordinates></LineString></Placemark><Placemark><name>Descartado</name><Style><LineStyle><color>ff00ffff</color><width>3</width></LineStyle></Style><LineString><coordinates>-70.630365,-33.8631716,0 -70.630315,-33.8631483,0</coordinates></LineString></Placemark><Placemark><name>Descartado</name><Style><LineStyle><color>ff00ffff</color><width>3</width></LineStyle></Style><LineString><coordinates>-70.6304283,-33.8631116,0 -70.6303966,-33.8631033,0</coordinates></LineString></Placemark><Placemark><name>Descartado</name><Style><LineStyle><color>ff00ffff</color><width>3</width></LineStyle></Style><LineString><coordinates>-70.6303966,-33.8631033,0 -70.63033,-33.8631416,0</coordinates></LineString></Placemark><Placemark><name>Descartado</name><Style><LineStyle><color>ff00ffff</color><width>3</width></LineStyle></Style><LineString><coordinates>-70.6304549,-33.8638366,0 -70.6304816,-33.8637899,0</coordinates></LineString></Placemark><Placemark><name>Descartado</name><Style><LineStyle><color>ff00ffff</color><width>3</width></LineStyle></Style><LineString><coordinates>-70.6304816,-33.8637899,0 -70.6305483,-33.86377,0</coordinates></LineString></Placemark><Placemark><name>Descartado</name><Style><LineStyle><color>ff00ffff</color><width>3</width></LineStyle></Style><LineString><coordinates>-70.6304433,-33.863745,0 -70.6302716,-33.863075,0</coordinates></LineString></Placemark><Placemark><name>Descartado</name><Style><LineStyle><color>ff00ffff</color><width>3</width></LineStyle></Style><LineString><coordinates>-70.6306,-33.862635,0 -70.6306016,-33.86268,0</coordinates></LineString></Placemark><Placemark><name>Descartado</name><Style><LineStyle><color>ff00ffff</color><width>3</width></LineStyle></Style><LineString><coordinates>-70.6307383,-33.8627816,0 -70.6307016,-33.8628366,0</coordinates></LineString></Placemark><Placemark><name>Descartado</name><Style><LineStyle><color>ff00ffff</color><width>3</width></LineStyle></Style><LineString><coordinates>-70.6307016,-33.8628366,0 -70.6307283,-33.8628099,0</coordinates></LineString></Placemark><Placemark><name>Descartado</name><Style><LineStyle><color>ff00ffff</color><width>3</width></LineStyle></Style><LineString><coordinates>-70.6309383,-33.86266,0 -70.630855,-33.8626566,0</coordinates></LineString></Placemark><Placemark><name>Descartado</name><Style><LineStyle><color>ff00ffff</color><width>3</width></LineStyle></Style><LineString><coordinates>-70.630855,-33.8626566,0 -70.6309166,-33.8626783,0</coordinates></LineString></Placemark><Placemark><name>Descartado</name><Style><LineStyle><color>ff00ffff</color><width>3</width></LineStyle></Style><LineString><coordinates>-70.6309683,-33.8628716,0 -70.631035,-33.8629016,0</coordinates></LineString></Placemark><Placemark><name>Descartado</name><Style><LineStyle><color>ff00ffff</color><width>3</width></LineStyle></Style><LineString><coordinates>-70.6310783,-33.8630583,0 -70.6310283,-33.8630433,0</coordinates></LineString></Placemark><Placemark><name>Descartado</name><Style><LineStyle><color>ff00ffff</color><width>3</width></LineStyle></Style><LineString><coordinates>-70.630715,-33.8629083,0 -70.6305,-33.8629316,0</coordinates></LineString></Placemark><Placemark><name>Descartado</name><Style><LineStyle><color>ff00ffff</color><width>3</width></LineStyle></Style><LineString><coordinates>-70.6305,-33.8629316,0 -70.63045,-33.862895,0</coordinates></LineString></Placemark><Placemark><name>Descartado</name><Style><LineStyle><color>ff00ffff</color><width>3</width></LineStyle></Style><LineString><coordinates>-70.6303699,-33.8625916,0 -70.6304266,-33.86258,0</coordinates></LineString></Placemark><Placemark><name>Descartado</name><Style><LineStyle><color>ff00ffff</color><width>3</width></LineStyle></Style><LineString><coordinates>-70.630335,-33.862605,0 -70.63028,-33.862575,0</coordinates></LineString></Placemark><Placemark><name>Descartado</name><Style><LineStyle><color>ff00ffff</color><width>3</width></LineStyle></Style><LineString><coordinates>-70.6303683,-33.862575,0 -70.630405,-33.8625416,0</coordinates></LineString></Placemark><Placemark><name>Descartado</name><Style><LineStyle><color>ff00ffff</color><width>3</width></LineStyle></Style><LineString><coordinates>-70.6303283,-33.86267,0 -70.6303516,-33.8627366,0</coordinates></LineString></Placemark><Placemark><name>Descartado</name><Style><LineStyle><color>ff00ffff</color><width>3</width></LineStyle></Style><LineString><coordinates>-70.6304666,-33.8626533,0 -70.6304316,-33.86262,0</coordinates></LineString></Placemark><Placemark><name>Descartado</name><Style><LineStyle><color>ff00ffff</color><width>3</width></LineStyle></Style><LineString><coordinates>-70.6300216,-33.8626083,0 -70.6303833,-33.86263,0</coordinates></LineString></Placemark><Placemark><name>Descartado</name><Style><LineStyle><color>ff00ffff</color><width>3</width></LineStyle></Style><LineString><coordinates>-70.6303833,-33.86263,0 -70.6303266,-33.86266,0</coordinates></LineString></Placemark><Placemark><name>Descartado</name><Style><LineStyle><color>ff00ffff</color><width>3</width></LineStyle></Style><LineString><coordinates>-70.6303266,-33.86266,0 -70.6303633,-33.8626366,0</coordinates></LineString></Placemark><Placemark><name>Descartado</name><Style><LineStyle><color>ff00ffff</color><width>3</width></LineStyle></Style><LineString><coordinates>-70.6303633,-33.8626366,0 -70.6303083,-33.8626683,0</coordinates></LineString></Placemark><Placemark><name>Descartado</name><Style><LineStyle><color>ff00ffff</color><width>3</width></LineStyle></Style><LineString><coordinates>-70.6305583,-33.86377,0 -70.6306199,-33.8637733,0</coordinates></LineString></Placemark><Placemark><name>Descartado</name><Style><LineStyle><color>ff00ffff</color><width>3</width></LineStyle></Style><LineString><coordinates>-70.6304866,-33.8638216,0 -70.6304466,-33.8638616,0</coordinates></LineString></Placemark><Placemark><name>Descartado</name><Style><LineStyle><color>ff00ffff</color><width>3</width></LineStyle></Style><LineString><coordinates>-70.6304933,-33.8640683,0 -70.6304749,-33.864055,0</coordinates></LineString></Placemark><Placemark><name>Descartado</name><Style><LineStyle><color>ff00ffff</color><width>3</width></LineStyle></Style><LineString><coordinates>-70.6304633,-33.8638916,0 -70.630485,-33.8639133,0</coordinates></LineString></Placemark><Placemark><name>Descartado</name><Style><LineStyle><color>ff00ffff</color><width>3</width></LineStyle></Style><LineString><coordinates>-70.630485,-33.8639133,0 -70.63049,-33.8639033,0</coordinates></LineString></Placemark><Placemark><name>Descartado</name><Style><LineStyle><color>ff00ffff</color><width>3</width></LineStyle></Style><LineString><coordinates>-70.6309883,-33.8628416,0 -70.6310333,-33.8628016,0</coordinates></LineString></Placemark><Placemark><name>Descartado</name><Style><LineStyle><color>ff00ffff</color><width>3</width></LineStyle></Style><LineString><coordinates>-70.6308583,-33.8629083,0 -70.6308716,-33.862895,0</coordinates></LineString></Placemark><Placemark><name>Descartado</name><Style><LineStyle><color>ff00ffff</color><width>3</width></LineStyle></Style><LineString><coordinates>-70.6304516,-33.863065,0 -70.6304983,-33.8630333,0</coordinates></LineString></Placemark><Placemark><name>Descartado</name><Style><LineStyle><color>ff00ffff</color><width>3</width></LineStyle></Style><LineString><coordinates>-70.630995,-33.8628816,0 -70.6310166,-33.8628683,0</coordinates></LineString></Placemark><Placemark><name>Descartado</name><Style><LineStyle><color>ff00ffff</color><width>3</width></LineStyle></Style><LineString><coordinates>-70.6309266,-33.8626616,0 -70.6309516,-33.8626233,0</coordinates></LineString></Placemark><Placemark><name>Descartado</name><Style><LineStyle><color>ff00ffff</color><width>3</width></LineStyle></Style><LineString><coordinates>-70.6309516,-33.8626233,0 -70.6309816,-33.8626216,0</coordinates></LineString></Placemark><Placemark><name>Descartado</name><Style><LineStyle><color>ff00ffff</color><width>3</width></LineStyle></Style><LineString><coordinates>-70.6305533,-33.8630383,0 -70.6305333,-33.8630833,0</coordinates></LineString></Placemark><Placemark><name>Descartado</name><Style><LineStyle><color>ff00ffff</color><width>3</width></LineStyle></Style><LineString><coordinates>-70.6305333,-33.8630833,0 -70.6305749,-33.8630833,0</coordinates></LineString></Placemark><Placemark><name>Descartado</name><Style><LineStyle><color>ff00ffff</color><width>3</width></LineStyle></Style><LineString><coordinates>-70.6303883,-33.8626333,0 -70.6303183,-33.86261,0</coordinates></LineString></Placemark><Placemark><name>Descartado</name><Style><LineStyle><color>ff00ffff</color><width>3</width></LineStyle></Style><LineString><coordinates>-70.6303183,-33.86261,0 -70.6303333,-33.8626133,0</coordinates></LineString></Placemark><Placemark><name>Descartado</name><Style><LineStyle><color>ff00ffff</color><width>3</width></LineStyle></Style><LineString><coordinates>-70.6301866,-33.8626616,0 -70.6302466,-33.8626733,0</coordinates></LineString></Placemark><Placemark><name>Descartado</name><Style><LineStyle><color>ff00ffff</color><width>3</width></LineStyle></Style><LineString><coordinates>-70.6302466,-33.8626733,0 -70.630235,-33.862715,0</coordinates></LineString></Placemark><Placemark><name>Descartado</name><Style><LineStyle><color>ff00ffff</color><width>3</width></LineStyle></Style><LineString><coordinates>-70.630235,-33.862715,0 -70.6302949,-33.8626833,0</coordinates></LineString></Placemark><Placemark><name>Descartado</name><Style><LineStyle><color>ff00ffff</color><width>3</width></LineStyle></Style><LineString><coordinates>-70.630435,-33.86271,0 -70.6304233,-33.8627083,0</coordinates></LineString></Placemark></Folder></Document></kml>