<?xml version="1.0" encoding="UTF-8"?><kml xmlns="http://www.opengis.net/kml/2.2"><Document><Folder><name>Barredora 12</name><Placemark><name>Trabajado - Cuartel 1 - Hilera 1</name><Style><LineStyle><color>ff00ff00</color><width>3</width></LineStyle></Style><LineString><coordinates>-71.2652666,-34.6550983,0 -71.2651949,-34.6550416,0</coordinates></LineString></Placemark><Placemark><name>Trabajado - Cuartel 1 - Hilera 2</name><Style><LineStyle><color>ff00ff00</color><width>3</width></LineStyle></Style><LineString><coordinates>-71.2654933,-34.65484,0 -71.2655533,-34.6550883,0</coordinates></LineString></Placemark><Placemark><name>Trabajado - Cuartel 1 - Hilera 3</name><Style><LineStyle><color>ff00ff00</color><width>3</width></LineStyle></Style><LineString><coordinates>-71.2655533,-34.6550883,0 -71.2654733,-34.6550133,0</coordinates></LineString></Placemark><Placemark><name>Trabajado - Cuartel 1 - Hilera 4</name><Style><LineStyle><color>ff00ff00</color><width>3</width></LineStyle></Style><LineString><coordinates>-71.2654466,-34.6550233,0 -71.265405,-34.65481,0</coordinates></LineString></Placemark><Placemark><name>Trabajado - Cuartel 1 - Hilera 5</name><Style><LineStyle><color>ff00ff00</color><width>3</width></LineStyle></Style><LineString><coordinates>-71.2654183,-34.6549033,0 -71.265565,-34.6549033,0</coordinates></LineString></Placemark><Placemark><name>Trabajado - Cuartel 1 - Hilera 6</name><Style><LineStyle><color>ff00ff00</color><width>3</width></LineStyle></Style><LineString><coordinates>-71.265565,-34.6549033,0 -71.2656616,-34.6549716,0</coordinates></LineString></Placemark><Placemark><name>Trabajado - Cuartel 1 - Hilera 7</name><Style><LineStyle><color>ff00ff00</color><width>3</width></LineStyle></Style><LineString><coordinates>-71.2655316,-34.6549633,0 -71.2656233,-34.6550233,0</coordinates></LineString></Placemark><Placemark><name>Trabajado - Cuartel 1 - Hilera 8</name><Style><LineStyle><color>ff00ff00</color><width>3</width></LineStyle></Style><LineString><coordinates>-71.2656233,-34.6550233,0 -71.2655466,-34.6548149,0</coordinates></LineString></Placemark><Placemark><name>Trabajado - Cuartel 1 - Hilera 9</name><Style><LineStyle><color>ff00ff00</color><width>3</width></LineStyle></Style><LineString><coordinates>-71.2655466,-34.6548149,0 -71.2653983,-34.6547583,0</coordinates></LineString></Placemark><Placemark><name>Trabajado - Cuartel 1 - Hilera 10</name><Style><LineStyle><color>ff00ff00</color><width>3</width></LineStyle></Style><LineString><coordinates>-71.2653983,-34.6547583,0 -71.2655183,-34.6548366,0</coordinates></LineString></Placemark><Placemark><name>Trabajado - Cuartel 1 - Hilera 11</name><Style><LineStyle><color>ff00ff00</color><width>3</width></LineStyle></Style><LineString><coordinates>-71.2655183,-34.6548366,0 -71.2658233,-34.6553866,0</coordinates></LineString></Placemark><Placemark><name>Trabajado - Cuartel 1 - Hilera 12</name><Style><LineStyle><color>ff00ff00</color><width>3</width></LineStyle></Style><LineString><coordinates>-71.2658233,-34.6553866,0 -71.2656916,-34.65526,0</coordinates></LineString></Placemark><Placemark><name>Trabajado - Cuartel 1 - Hilera 13</name><Style><LineStyle><color>ff00ff00</color><width>3</width></LineStyle></Style><LineString><coordinates>-71.2656916,-34.65526,0 -71.2654016,-34.6551083,0</coordinates></LineString></Placemark><Placemark><name>Trabajado - Cuartel 1 - Hilera 14</name><Style><LineStyle><color>ff00ff00</color><width>3</width></LineStyle></Style><LineString><coordinates>-71.2654016,-34.6551083,0 -71.2654949,-34.6550616,0</coordinates></LineString></Placemark><Placemark><name>Trabajado - Cuartel 1 - Hilera 15</name><Style><LineStyle><color>ff00ff00</color><width>3</width></LineStyle></Style><LineString><coordinates>-71.2654949,-34.6550616,0 -71.265685,-34.6550133,0</coordinates></LineString></Placemark><Placemark><name>Trabajado - Cuartel 1 - Hilera 16</name><Style><LineStyle><color>ff00ff00</color><width>3</width></LineStyle></Style><LineString><coordinates>-71.265685,-34.6550133,0 -71.265595,-34.6549599,0</coordinates></LineString></Placemark><Placemark><name>Trabajado - Cuartel 1 - Hilera 17</name><Style><LineStyle><color>ff00ff00</color><width>3</width></LineStyle></Style><LineString><coordinates>-71.2655976505806,-34.65496051855161,0 -71.2654883,-34.654935,0</coordinates></LineString></Placemark><Placemark><name>Trabajado - Cuartel 1 - Hilera 18</name><Style><LineStyle><color>ff00ff00</color><width>3</width></LineStyle></Style><LineString><coordinates>-71.2655916,-34.6549783,0 -71.2660516,-34.6547616,0</coordinates></LineString></Placemark><Placemark><name>Trabajado - Cuartel 1 - Hilera 19</name><Style><LineStyle><color>ff00ff00</color><width>3</width></LineStyle></Style><LineString><coordinates>-71.2660516,-34.6547616,0 -71.265585,-34.6548166,0</coordinates></LineString></Placemark><Placemark><name>Trabajado - Cuartel 1 - Hilera 21</name><Style><LineStyle><color>ff00ff00</color><width>3</width></LineStyle></Style><LineString><coordinates>-71.2655333,-34.6548983,0 -71.265515,-34.6553,0</coordinates></LineString></Placemark><Placemark><name>Descartado (grupo chico) - Hilera 20</name><Style><LineStyle><color>ff00ffff</color><width>3</width></LineStyle></Style><LineString><coordinates>-71.265585,-34.6548166,0 -71.2655333,-34.6548983,0</coordinates></LineString></Placemark></Folder></Document></kml>