<?xml version="1.0" encoding="UTF-8"?><kml xmlns="http://www.opengis.net/kml/2.2"><Document><Folder><name>Barredora 21 Weiss s/cab</name><Placemark><name>Trabajado - Cuartel 1 - Hilera 1</name><Style><LineStyle><color>ff00ff00</color><width>3</width></LineStyle></Style><LineString><coordinates>-71.26573435921469,-34.65459371065708,0 -71.265865,-34.6547,0</coordinates></LineString></Placemark><Placemark><name>Trabajado - Cuartel 1 - Hilera 2</name><Style><LineStyle><color>ff00ff00</color><width>3</width></LineStyle></Style><LineString><coordinates>-71.265865,-34.6547,0 -71.2657383,-34.6546483,0</coordinates></LineString></Placemark><Placemark><name>Trabajado - Cuartel 1 - Hilera 3</name><Style><LineStyle><color>ff00ff00</color><width>3</width></LineStyle></Style><LineString><coordinates>-71.2657383,-34.6546483,0 -71.2658316,-34.654305,0</coordinates></LineString></Placemark><Placemark><name>Trabajado - Cuartel 1 - Hilera 4</name><Style><LineStyle><color>ff00ff00</color><width>3</width></LineStyle></Style><LineString><coordinates>-71.2658316,-34.654305,0 -71.2656266,-34.6538816,0</coordinates></LineString></Placemark><Placemark><name>Trabajado - Cuartel 1 - Hilera 5</name><Style><LineStyle><color>ff00ff00</color><width>3</width></LineStyle></Style><LineString><coordinates>-71.2656966,-34.6538866,0 -71.2661,-34.6541916,0</coordinates></LineString></Placemark><Placemark><name>Trabajado - Cuartel 1 - Hilera 6</name><Style><LineStyle><color>ff00ff00</color><width>3</width></LineStyle></Style><LineString><coordinates>-71.2660512537207,-34.654031504632016,0 -71.26619243506379,-34.65449518061722,0</coordinates></LineString></Placemark><Placemark><name>Trabajado - Cuartel 1 - Hilera 7</name><Style><LineStyle><color>ff00ff00</color><width>3</width></LineStyle></Style><LineString><coordinates>-71.2662016,-34.6544733,0 -71.2660716,-34.6540333,0</coordinates></LineString></Placemark><Placemark><name>Trabajado - Cuartel 1 - Hilera 8</name><Style><LineStyle><color>ff00ff00</color><width>3</width></LineStyle></Style><LineString><coordinates>-71.2662183,-34.6544416,0 -71.26616,-34.6543633,0</coordinates></LineString></Placemark><Placemark><name>Trabajado - Cuartel 1 - Hilera 9</name><Style><LineStyle><color>ff00ff00</color><width>3</width></LineStyle></Style><LineString><coordinates>-71.2662133,-34.6543766,0 -71.2661249,-34.65408,0</coordinates></LineString></Placemark><Placemark><name>Trabajado - Cuartel 1 - Hilera 10</name><Style><LineStyle><color>ff00ff00</color><width>3</width></LineStyle></Style><LineString><coordinates>-71.2661249,-34.65408,0 -71.2661866,-34.654595,0</coordinates></LineString></Placemark><Placemark><name>Trabajado - Cuartel 1 - Hilera 11</name><Style><LineStyle><color>ff00ff00</color><width>3</width></LineStyle></Style><LineString><coordinates>-71.2661866,-34.654595,0 -71.2660466,-34.6547666,0</coordinates></LineString></Placemark><Placemark><name>Trabajado - Cuartel 1 - Hilera 12</name><Style><LineStyle><color>ff00ff00</color><width>3</width></LineStyle></Style><LineString><coordinates>-71.2660466,-34.6547666,0 -71.2659583,-34.6548016,0</coordinates></LineString></Placemark><Placemark><name>Trabajado - Cuartel 1 - Hilera 13</name><Style><LineStyle><color>ff00ff00</color><width>3</width></LineStyle></Style><LineString><coordinates>-71.2659583,-34.6548016,0 -71.2656899,-34.6546449,0</coordinates></LineString></Placemark><Placemark><name>Trabajado - Cuartel 1 - Hilera 14</name><Style><LineStyle><color>ff00ff00</color><width>3</width></LineStyle></Style><LineString><coordinates>-71.2656049,-34.6546333,0 -71.2659166,-34.6547,0</coordinates></LineString></Placemark><Placemark><name>Trabajado - Cuartel 1 - Hilera 15</name><Style><LineStyle><color>ff00ff00</color><width>3</width></LineStyle></Style><LineString><coordinates>-71.2659166,-34.6547,0 -71.2658166,-34.6545733,0</coordinates></LineString></Placemark><Placemark><name>Trabajado - Cuartel 1 - Hilera 16</name><Style><LineStyle><color>ff00ff00</color><width>3</width></LineStyle></Style><LineString><coordinates>-71.2658166,-34.6545733,0 -71.26619999215396,-34.6546886646074,0</coordinates></LineString></Placemark><Placemark><name>Trabajado - Cuartel 1 - Hilera 17</name><Style><LineStyle><color>ff00ff00</color><width>3</width></LineStyle></Style><LineString><coordinates>-71.265905,-34.6545999,0 -71.2657316,-34.6538983,0</coordinates></LineString></Placemark><Placemark><name>Trabajado - Cuartel 1 - Hilera 18</name><Style><LineStyle><color>ff00ff00</color><width>3</width></LineStyle></Style><LineString><coordinates>-71.2657316,-34.6538983,0 -71.2661,-34.6540466,0</coordinates></LineString></Placemark><Placemark><name>Trabajado - Cuartel 1 - Hilera 19</name><Style><LineStyle><color>ff00ff00</color><width>3</width></LineStyle></Style><LineString><coordinates>-71.26608197215427,-34.65396061509809,0 -71.2661933,-34.6544916,0</coordinates></LineString></Placemark><Placemark><name>Trabajado - Cuartel 1 - Hilera 20</name><Style><LineStyle><color>ff00ff00</color><width>3</width></LineStyle></Style><LineString><coordinates>-71.2660633,-34.6539633,0 -71.26563,-34.6538983,0</coordinates></LineString></Placemark><Placemark><name>Trabajado - Cuartel 1 - Hilera 21</name><Style><LineStyle><color>ff00ff00</color><width>3</width></LineStyle></Style><LineString><coordinates>-71.26563,-34.6538983,0 -71.2658216,-34.654385,0</coordinates></LineString></Placemark><Placemark><name>Trabajado - Cuartel 1 - Hilera 22</name><Style><LineStyle><color>ff00ff00</color><width>3</width></LineStyle></Style><LineString><coordinates>-71.2658216,-34.654385,0 -71.265725,-34.6546016,0</coordinates></LineString></Placemark><Placemark><name>Trabajado - Cuartel 1 - Hilera 23</name><Style><LineStyle><color>ff00ff00</color><width>3</width></LineStyle></Style><LineString><coordinates>-71.26578468419268,-34.65457878857544,0 -71.2658533,-34.654835,0</coordinates></LineString></Placemark><Placemark><name>Trabajado - Cuartel 1 - Hilera 24</name><Style><LineStyle><color>ff00ff00</color><width>3</width></LineStyle></Style><LineString><coordinates>-71.2658533,-34.654835,0 -71.26564999563726,-34.654653695979015,0</coordinates></LineString></Placemark><Placemark><name>Trabajado - Cuartel 1 - Hilera 25</name><Style><LineStyle><color>ff00ff00</color><width>3</width></LineStyle></Style><LineString><coordinates>-71.2657766,-34.6547666,0 -71.2658833,-34.6545933,0</coordinates></LineString></Placemark><Placemark><name>Trabajado - Cuartel 1 - Hilera 26</name><Style><LineStyle><color>ff00ff00</color><width>3</width></LineStyle></Style><LineString><coordinates>-71.26608729476119,-34.65468283934922,0 -71.2656516,-34.6544916,0</coordinates></LineString></Placemark><Placemark><name>Trabajado - Cuartel 1 - Hilera 27</name><Style><LineStyle><color>ff00ff00</color><width>3</width></LineStyle></Style><LineString><coordinates>-71.2656516,-34.6544916,0 -71.2658083,-34.654795,0</coordinates></LineString></Placemark><Placemark><name>Trabajado - Cuartel 1 - Hilera 28</name><Style><LineStyle><color>ff00ff00</color><width>3</width></LineStyle></Style><LineString><coordinates>-71.2658083,-34.654795,0 -71.2660383,-34.6545616,0</coordinates></LineString></Placemark><Placemark><name>Trabajado - Cuartel 1 - Hilera 29</name><Style><LineStyle><color>ff00ff00</color><width>3</width></LineStyle></Style><LineString><coordinates>-71.26596575605333,-34.65461699326575,0 -71.2657783,-34.6547499,0</coordinates></LineString></Placemark><Placemark><name>Trabajado - Cuartel 1 - Hilera 30</name><Style><LineStyle><color>ff00ff00</color><width>3</width></LineStyle></Style><LineString><coordinates>-71.26588909831018,-34.65457003041666,0 -71.2658766,-34.654795,0</coordinates></LineString></Placemark><Placemark><name>Trabajado - Cuartel 1 - Hilera 31</name><Style><LineStyle><color>ff00ff00</color><width>3</width></LineStyle></Style><LineString><coordinates>-71.2659516,-34.6546033,0 -71.26577,-34.6547016,0</coordinates></LineString></Placemark><Placemark><name>Trabajado - Cuartel 1 - Hilera 32</name><Style><LineStyle><color>ff00ff00</color><width>3</width></LineStyle></Style><LineString><coordinates>-71.2657266,-34.6546916,0 -71.265875,-34.654615,0</coordinates></LineString></Placemark><Placemark><name>Trabajado - Cuartel 1 - Hilera 33</name><Style><LineStyle><color>ff00ff00</color><width>3</width></LineStyle></Style><LineString><coordinates>-71.2656483,-34.65471,0 -71.2658366,-34.6546599,0</coordinates></LineString></Placemark><Placemark><name>Trabajado - Cuartel 1 - Hilera 34</name><Style><LineStyle><color>ff00ff00</color><width>3</width></LineStyle></Style><LineString><coordinates>-71.2658366,-34.6546599,0 -71.2661399,-34.6546216,0</coordinates></LineString></Placemark><Placemark><name>Trabajado - Cuartel 1 - Hilera 35</name><Style><LineStyle><color>ff00ff00</color><width>3</width></LineStyle></Style><LineString><coordinates>-71.2661399,-34.6546216,0 -71.2657283,-34.6544716,0</coordinates></LineString></Placemark><Placemark><name>Trabajado - Cuartel 1 - Hilera 36</name><Style><LineStyle><color>ff00ff00</color><width>3</width></LineStyle></Style><LineString><coordinates>-71.2657283,-34.6544716,0 -71.2658716,-34.654595,0</coordinates></LineString></Placemark><Placemark><name>Trabajado - Cuartel 1 - Hilera 37</name><Style><LineStyle><color>ff00ff00</color><width>3</width></LineStyle></Style><LineString><coordinates>-71.2658716,-34.654595,0 -71.2657983,-34.654685,0</coordinates></LineString></Placemark><Placemark><name>Trabajado - Cuartel 1 - Hilera 38</name><Style><LineStyle><color>ff00ff00</color><width>3</width></LineStyle></Style><LineString><coordinates>-71.2657966,-34.6545766,0 -71.265705,-34.65477,0</coordinates></LineString></Placemark><Placemark><name>Trabajado - Cuartel 1 - Hilera 39</name><Style><LineStyle><color>ff00ff00</color><width>3</width></LineStyle></Style><LineString><coordinates>-71.265705,-34.65477,0 -71.2656383,-34.6545433,0</coordinates></LineString></Placemark><Placemark><name>Trabajado - Cuartel 1 - Hilera 40</name><Style><LineStyle><color>ff00ff00</color><width>3</width></LineStyle></Style><LineString><coordinates>-71.2656483,-34.654655,0 -71.26582707600704,-34.65472498467066,0</coordinates></LineString></Placemark><Placemark><name>Trabajado - Cuartel 1 - Hilera 41</name><Style><LineStyle><color>ff00ff00</color><width>3</width></LineStyle></Style><LineString><coordinates>-71.2657316,-34.6547349,0 -71.2658866,-34.6546633,0</coordinates></LineString></Placemark></Folder></Document></kml>