<?xml version="1.0" encoding="UTF-8"?><kml xmlns="http://www.opengis.net/kml/2.2"><Document><Folder><name>Recogedora 3</name><Placemark><name>Descartado (grupo chico) - Hilera 1</name><Style><LineStyle><color>ff00ffff</color><width>3</width></LineStyle></Style><LineString><coordinates>-71.2665466,-34.6550633,0 -71.2662583,-34.6550399,0</coordinates></LineString></Placemark><Placemark><name>Descartado (grupo chico) - Hilera 2</name><Style><LineStyle><color>ff00ffff</color><width>3</width></LineStyle></Style><LineString><coordinates>-71.26635513661886,-34.654989665355274,0 -71.266165,-34.6550883,0</coordinates></LineString></Placemark><Placemark><name>Descartado (grupo chico) - Hilera 3</name><Style><LineStyle><color>ff00ffff</color><width>3</width></LineStyle></Style><LineString><coordinates>-71.266165,-34.6550883,0 -71.26615748052814,-34.65488819226369,0</coordinates></LineString></Placemark><Placemark><name>Descartado (grupo chico) - Hilera 4</name><Style><LineStyle><color>ff00ffff</color><width>3</width></LineStyle></Style><LineString><coordinates>-71.2661583,-34.65491,0 -71.2660783,-34.6549716,0</coordinates></LineString></Placemark><Placemark><name>Descartado (grupo chico) - Hilera 5</name><Style><LineStyle><color>ff00ffff</color><width>3</width></LineStyle></Style><LineString><coordinates>-71.26609,-34.6549399,0 -71.2661249,-34.6550183,0</coordinates></LineString></Placemark><Placemark><name>Descartado (grupo chico) - Hilera 6</name><Style><LineStyle><color>ff00ffff</color><width>3</width></LineStyle></Style><LineString><coordinates>-71.2661249,-34.6550183,0 -71.2661333,-34.6549066,0</coordinates></LineString></Placemark><Placemark><name>Descartado (grupo chico) - Hilera 7</name><Style><LineStyle><color>ff00ffff</color><width>3</width></LineStyle></Style><LineString><coordinates>-71.2661333,-34.6549066,0 -71.266035,-34.654865,0</coordinates></LineString></Placemark><Placemark><name>Descartado (grupo chico) - Hilera 8</name><Style><LineStyle><color>ff00ffff</color><width>3</width></LineStyle></Style><LineString><coordinates>-71.2661233,-34.6549216,0 -71.2663166,-34.65488,0</coordinates></LineString></Placemark><Placemark><name>Descartado (grupo chico) - Hilera 9</name><Style><LineStyle><color>ff00ffff</color><width>3</width></LineStyle></Style><LineString><coordinates>-71.2663166,-34.65488,0 -71.2662433,-34.6549483,0</coordinates></LineString></Placemark><Placemark><name>Descartado (grupo chico) - Hilera 10</name><Style><LineStyle><color>ff00ffff</color><width>3</width></LineStyle></Style><LineString><coordinates>-71.2662433,-34.6549483,0 -71.2661366,-34.6549733,0</coordinates></LineString></Placemark><Placemark><name>Descartado (grupo chico) - Hilera 11</name><Style><LineStyle><color>ff00ffff</color><width>3</width></LineStyle></Style><LineString><coordinates>-71.2663566,-34.6549916,0 -71.2663283,-34.6550783,0</coordinates></LineString></Placemark><Placemark><name>Descartado (grupo chico) - Hilera 12</name><Style><LineStyle><color>ff00ffff</color><width>3</width></LineStyle></Style><LineString><coordinates>-71.2663283,-34.6550783,0 -71.2662249,-34.6551183,0</coordinates></LineString></Placemark><Placemark><name>Descartado (grupo chico) - Hilera 13</name><Style><LineStyle><color>ff00ffff</color><width>3</width></LineStyle></Style><LineString><coordinates>-71.266315,-34.655065,0 -71.26624,-34.6549983,0</coordinates></LineString></Placemark><Placemark><name>Descartado (grupo chico) - Hilera 14</name><Style><LineStyle><color>ff00ffff</color><width>3</width></LineStyle></Style><LineString><coordinates>-71.26624,-34.6549983,0 -71.2661533,-34.6550533,0</coordinates></LineString></Placemark><Placemark><name>Descartado (grupo chico) - Hilera 15</name><Style><LineStyle><color>ff00ffff</color><width>3</width></LineStyle></Style><LineString><coordinates>-71.2661533,-34.6550533,0 -71.2660433,-34.6550466,0</coordinates></LineString></Placemark><Placemark><name>Descartado (grupo chico) - Hilera 16</name><Style><LineStyle><color>ff00ffff</color><width>3</width></LineStyle></Style><LineString><coordinates>-71.2660433,-34.6550466,0 -71.26616747556571,-34.654896333833584,0</coordinates></LineString></Placemark><Placemark><name>Descartado (grupo chico) - Hilera 17</name><Style><LineStyle><color>ff00ffff</color><width>3</width></LineStyle></Style><LineString><coordinates>-71.2661699,-34.6549816,0 -71.2660583,-34.65485,0</coordinates></LineString></Placemark><Placemark><name>Descartado</name><Style><LineStyle><color>ff00ffff</color><width>3</width></LineStyle></Style><LineString><coordinates>-71.2660783,-34.6549716,0 -71.26609,-34.6549399,0</coordinates></LineString></Placemark></Folder></Document></kml>