<?xml version="1.0" encoding="UTF-8"?><kml xmlns="http://www.opengis.net/kml/2.2"><Document><Folder><name>Recogedora 6</name><Placemark><name>Descartado (grupo chico) - Hilera 1</name><Style><LineStyle><color>ff00ffff</color><width>3</width></LineStyle></Style><LineString><coordinates>-71.10078384691603,-33.656619516305945,0 -71.10077420779537,-33.65649289331198,0</coordinates></LineString></Placemark><Placemark><name>Descartado (grupo chico) - Hilera 2</name><Style><LineStyle><color>ff00ffff</color><width>3</width></LineStyle></Style><LineString><coordinates>-71.10080933861664,-33.656543694810054,0 -71.1007183,-33.6564366,0</coordinates></LineString></Placemark><Placemark><name>Descartado (grupo chico) - Hilera 3</name><Style><LineStyle><color>ff00ffff</color><width>3</width></LineStyle></Style><LineString><coordinates>-71.10081,-33.6565433,0 -71.1008066,-33.6566183,0</coordinates></LineString></Placemark><Placemark><name>Descartado (grupo chico) - Hilera 5</name><Style><LineStyle><color>ff00ffff</color><width>3</width></LineStyle></Style><LineString><coordinates>-71.100875,-33.6564233,0 -71.1007033,-33.6562516,0</coordinates></LineString></Placemark><Placemark><name>Descartado (grupo chico) - Hilera 6</name><Style><LineStyle><color>ff00ffff</color><width>3</width></LineStyle></Style><LineString><coordinates>-71.1007033,-33.6562516,0 -71.10067,-33.6561566,0</coordinates></LineString></Placemark><Placemark><name>Descartado (grupo chico) - Hilera 7</name><Style><LineStyle><color>ff00ffff</color><width>3</width></LineStyle></Style><LineString><coordinates>-71.1006033,-33.6561916,0 -71.1006833,-33.6563349,0</coordinates></LineString></Placemark><Placemark><name>Descartado (grupo chico) - Hilera 9</name><Style><LineStyle><color>ff00ffff</color><width>3</width></LineStyle></Style><LineString><coordinates>-71.1007766,-33.6563383,0 -71.1008416,-33.6564283,0</coordinates></LineString></Placemark><Placemark><name>Descartado (grupo chico) - Hilera 11</name><Style><LineStyle><color>ff00ffff</color><width>3</width></LineStyle></Style><LineString><coordinates>-71.1009216,-33.65642,0 -71.100905,-33.6563416,0</coordinates></LineString></Placemark><Placemark><name>Descartado (grupo chico) - Hilera 4</name><Style><LineStyle><color>ff00ffff</color><width>3</width></LineStyle></Style><LineString><coordinates>-71.1004760053635,-33.65668095336305,0 -71.100875,-33.6564233,0</coordinates></LineString></Placemark><Placemark><name>Descartado (grupo chico) - Hilera 10</name><Style><LineStyle><color>ff00ffff</color><width>3</width></LineStyle></Style><LineString><coordinates>-71.1007149,-33.6564916,0 -71.1009216,-33.65642,0</coordinates></LineString></Placemark><Placemark><name>Descartado (grupo chico) - Hilera 8</name><Style><LineStyle><color>ff00ffff</color><width>3</width></LineStyle></Style><LineString><coordinates>-71.1006833,-33.6563349,0 -71.1007766,-33.6563383,0</coordinates></LineString></Placemark><Placemark><name>Descartado (grupo chico) - Hilera 12</name><Style><LineStyle><color>ff00ffff</color><width>3</width></LineStyle></Style><LineString><coordinates>-71.1007683,-33.656465,0 -71.1032883,-33.670995,0</coordinates></LineString></Placemark><Placemark><name>Descartado (grupo chico) - Hilera 13</name><Style><LineStyle><color>ff00ffff</color><width>3</width></LineStyle></Style><LineString><coordinates>-71.0837216,-33.6783333,0 -71.0836766,-33.678225,0</coordinates></LineString></Placemark><Placemark><name>Descartado (grupo chico) - Hilera 14</name><Style><LineStyle><color>ff00ffff</color><width>3</width></LineStyle></Style><LineString><coordinates>-71.0784716,-33.6837266,0 -71.0784099,-33.683795,0</coordinates></LineString></Placemark><Placemark><name>Descartado (grupo chico) - Hilera 15</name><Style><LineStyle><color>ff00ffff</color><width>3</width></LineStyle></Style><LineString><coordinates>-71.0530816,-33.6895433,0 -71.05363,-33.690095,0</coordinates></LineString></Placemark><Placemark><name>Descartado (grupo chico) - Hilera 16</name><Style><LineStyle><color>ff00ffff</color><width>3</width></LineStyle></Style><LineString><coordinates>-71.31997,-34.6329266,0 -71.3200166,-34.6330116,0</coordinates></LineString></Placemark><Placemark><name>Trabajado - Cuartel 17 - Hilera 17</name><Style><LineStyle><color>ff00ff00</color><width>3</width></LineStyle></Style><LineString><coordinates>-71.2654383,-34.6535416,0 -71.2658266,-34.6544083,0</coordinates></LineString></Placemark><Placemark><name>Trabajado - Cuartel 17 - Hilera 18</name><Style><LineStyle><color>ff00ff00</color><width>3</width></LineStyle></Style><LineString><coordinates>-71.2658266,-34.6544083,0 -71.2657216,-34.6540333,0</coordinates></LineString></Placemark><Placemark><name>Trabajado - Cuartel 17 - Hilera 25</name><Style><LineStyle><color>ff00ff00</color><width>3</width></LineStyle></Style><LineString><coordinates>-71.266145,-34.6540483,0 -71.2662766,-34.654465,0</coordinates></LineString></Placemark><Placemark><name>Trabajado - Cuartel 17 - Hilera 26</name><Style><LineStyle><color>ff00ff00</color><width>3</width></LineStyle></Style><LineString><coordinates>-71.2662766,-34.654465,0 -71.2660533,-34.6548749,0</coordinates></LineString></Placemark><Placemark><name>Trabajado - Cuartel 17 - Hilera 27</name><Style><LineStyle><color>ff00ff00</color><width>3</width></LineStyle></Style><LineString><coordinates>-71.2660533,-34.6548749,0 -71.2659549,-34.65492,0</coordinates></LineString></Placemark><Placemark><name>Trabajado - Cuartel 17 - Hilera 28</name><Style><LineStyle><color>ff00ff00</color><width>3</width></LineStyle></Style><LineString><coordinates>-71.2659549,-34.65492,0 -71.2656666,-34.6549066,0</coordinates></LineString></Placemark><Placemark><name>Trabajado - Cuartel 17 - Hilera 29</name><Style><LineStyle><color>ff00ff00</color><width>3</width></LineStyle></Style><LineString><coordinates>-71.2656633,-34.6549399,0 -71.2656183,-34.6550399,0</coordinates></LineString></Placemark><Placemark><name>Trabajado - Cuartel 17 - Hilera 30</name><Style><LineStyle><color>ff00ff00</color><width>3</width></LineStyle></Style><LineString><coordinates>-71.2658583,-34.6549083,0 -71.26620554034803,-34.6548836438806,0</coordinates></LineString></Placemark><Placemark><name>Trabajado - Cuartel 17 - Hilera 31</name><Style><LineStyle><color>ff00ff00</color><width>3</width></LineStyle></Style><LineString><coordinates>-71.2659766,-34.6548999,0 -71.2661366,-34.6547499,0</coordinates></LineString></Placemark><Placemark><name>Trabajado - Cuartel 17 - Hilera 32</name><Style><LineStyle><color>ff00ff00</color><width>3</width></LineStyle></Style><LineString><coordinates>-71.2661366,-34.6547499,0 -71.26622941981391,-34.65491566386467,0</coordinates></LineString></Placemark><Placemark><name>Trabajado - Cuartel 17 - Hilera 33</name><Style><LineStyle><color>ff00ff00</color><width>3</width></LineStyle></Style><LineString><coordinates>-71.2661833,-34.6548333,0 -71.2661883,-34.654925,0</coordinates></LineString></Placemark><Placemark><name>Trabajado - Cuartel 17 - Hilera 34</name><Style><LineStyle><color>ff00ff00</color><width>3</width></LineStyle></Style><LineString><coordinates>-71.2661883,-34.654925,0 -71.2661266,-34.6547433,0</coordinates></LineString></Placemark><Placemark><name>Trabajado - Cuartel 17 - Hilera 35</name><Style><LineStyle><color>ff00ff00</color><width>3</width></LineStyle></Style><LineString><coordinates>-71.26621,-34.6549233,0 -71.2662016,-34.6548266,0</coordinates></LineString></Placemark><Placemark><name>Trabajado - Cuartel 17 - Hilera 36</name><Style><LineStyle><color>ff00ff00</color><width>3</width></LineStyle></Style><LineString><coordinates>-71.2662016,-34.6548266,0 -71.2661016,-34.654865,0</coordinates></LineString></Placemark><Placemark><name>Trabajado - Cuartel 17 - Hilera 37</name><Style><LineStyle><color>ff00ff00</color><width>3</width></LineStyle></Style><LineString><coordinates>-71.26610424929858,-34.65487087964436,0 -71.2660633,-34.65478,0</coordinates></LineString></Placemark><Placemark><name>Trabajado - Cuartel 17 - Hilera 38</name><Style><LineStyle><color>ff00ff00</color><width>3</width></LineStyle></Style><LineString><coordinates>-71.2660329997268,-34.65472166508454,0 -71.26628,-34.6549466,0</coordinates></LineString></Placemark><Placemark><name>Trabajado - Cuartel 17 - Hilera 39</name><Style><LineStyle><color>ff00ff00</color><width>3</width></LineStyle></Style><LineString><coordinates>-71.2661799,-34.6548933,0 -71.2662733,-34.6549466,0</coordinates></LineString></Placemark><Placemark><name>Trabajado - Cuartel 17 - Hilera 40</name><Style><LineStyle><color>ff00ff00</color><width>3</width></LineStyle></Style><LineString><coordinates>-71.2662733,-34.6549466,0 -71.2663216,-34.6550266,0</coordinates></LineString></Placemark><Placemark><name>Trabajado - Cuartel 17 - Hilera 41</name><Style><LineStyle><color>ff00ff00</color><width>3</width></LineStyle></Style><LineString><coordinates>-71.2662666,-34.654965,0 -71.2661816,-34.65495,0</coordinates></LineString></Placemark><Placemark><name>Trabajado - Cuartel 17 - Hilera 42</name><Style><LineStyle><color>ff00ff00</color><width>3</width></LineStyle></Style><LineString><coordinates>-71.26621,-34.65491,0 -71.2662549,-34.6548283,0</coordinates></LineString></Placemark><Placemark><name>Trabajado - Cuartel 17 - Hilera 43</name><Style><LineStyle><color>ff00ff00</color><width>3</width></LineStyle></Style><LineString><coordinates>-71.2662549,-34.6548283,0 -71.26616,-34.6548716,0</coordinates></LineString></Placemark><Placemark><name>Trabajado - Cuartel 17 - Hilera 44</name><Style><LineStyle><color>ff00ff00</color><width>3</width></LineStyle></Style><LineString><coordinates>-71.26619,-34.6548433,0 -71.2661433,-34.6549116,0</coordinates></LineString></Placemark><Placemark><name>Trabajado - Cuartel 17 - Hilera 45</name><Style><LineStyle><color>ff00ff00</color><width>3</width></LineStyle></Style><LineString><coordinates>-71.2661433,-34.6549116,0 -71.26573259708678,-34.65480214767363,0</coordinates></LineString></Placemark><Placemark><name>Trabajado - Cuartel 17 - Hilera 46</name><Style><LineStyle><color>ff00ff00</color><width>3</width></LineStyle></Style><LineString><coordinates>-71.2659433,-34.6548583,0 -71.2657083,-34.65484,0</coordinates></LineString></Placemark><Placemark><name>Trabajado - Cuartel 17 - Hilera 47</name><Style><LineStyle><color>ff00ff00</color><width>3</width></LineStyle></Style><LineString><coordinates>-71.2657083,-34.65484,0 -71.2656883,-34.6547266,0</coordinates></LineString></Placemark><Placemark><name>Trabajado - Cuartel 17 - Hilera 48</name><Style><LineStyle><color>ff00ff00</color><width>3</width></LineStyle></Style><LineString><coordinates>-71.2656883,-34.6547266,0 -71.2654616,-34.6548016,0</coordinates></LineString></Placemark><Placemark><name>Trabajado - Cuartel 17 - Hilera 49</name><Style><LineStyle><color>ff00ff00</color><width>3</width></LineStyle></Style><LineString><coordinates>-71.2654616,-34.6548016,0 -71.2655316,-34.654895,0</coordinates></LineString></Placemark><Placemark><name>Trabajado - Cuartel 17 - Hilera 50</name><Style><LineStyle><color>ff00ff00</color><width>3</width></LineStyle></Style><LineString><coordinates>-71.2655316,-34.654895,0 -71.265535,-34.6550233,0</coordinates></LineString></Placemark><Placemark><name>Trabajado - Cuartel 17 - Hilera 51</name><Style><LineStyle><color>ff00ff00</color><width>3</width></LineStyle></Style><LineString><coordinates>-71.2656083,-34.6550583,0 -71.2654133,-34.6549433,0</coordinates></LineString></Placemark><Placemark><name>Trabajado - Cuartel 17 - Hilera 52</name><Style><LineStyle><color>ff00ff00</color><width>3</width></LineStyle></Style><LineString><coordinates>-71.2654133,-34.6549433,0 -71.2657849,-34.6548766,0</coordinates></LineString></Placemark><Placemark><name>Trabajado - Cuartel 17 - Hilera 53</name><Style><LineStyle><color>ff00ff00</color><width>3</width></LineStyle></Style><LineString><coordinates>-71.2658983,-34.6548149,0 -71.2660066,-34.6544966,0</coordinates></LineString></Placemark><Placemark><name>Trabajado - Cuartel 17 - Hilera 54</name><Style><LineStyle><color>ff00ff00</color><width>3</width></LineStyle></Style><LineString><coordinates>-71.2660066,-34.6544966,0 -71.26601,-34.6548783,0</coordinates></LineString></Placemark><Placemark><name>Trabajado - Cuartel 17 - Hilera 55</name><Style><LineStyle><color>ff00ff00</color><width>3</width></LineStyle></Style><LineString><coordinates>-71.2657366,-34.6547916,0 -71.26565,-34.6548833,0</coordinates></LineString></Placemark><Placemark><name>Trabajado - Cuartel 17 - Hilera 56</name><Style><LineStyle><color>ff00ff00</color><width>3</width></LineStyle></Style><LineString><coordinates>-71.26565,-34.6548833,0 -71.2655533,-34.6548616,0</coordinates></LineString></Placemark><Placemark><name>Trabajado - Cuartel 17 - Hilera 57</name><Style><LineStyle><color>ff00ff00</color><width>3</width></LineStyle></Style><LineString><coordinates>-71.2655533,-34.6548616,0 -71.2656333,-34.6548183,0</coordinates></LineString></Placemark><Placemark><name>Trabajado - Cuartel 17 - Hilera 58</name><Style><LineStyle><color>ff00ff00</color><width>3</width></LineStyle></Style><LineString><coordinates>-71.2656349,-34.654895,0 -71.2655716,-34.6547916,0</coordinates></LineString></Placemark><Placemark><name>Trabajado - Cuartel 17 - Hilera 59</name><Style><LineStyle><color>ff00ff00</color><width>3</width></LineStyle></Style><LineString><coordinates>-71.2655716,-34.6547916,0 -71.2653966,-34.654795,0</coordinates></LineString></Placemark><Placemark><name>Trabajado - Cuartel 17 - Hilera 60</name><Style><LineStyle><color>ff00ff00</color><width>3</width></LineStyle></Style><LineString><coordinates>-71.2653966,-34.654795,0 -71.2652866,-34.6545666,0</coordinates></LineString></Placemark><Placemark><name>Trabajado - Cuartel 17 - Hilera 61</name><Style><LineStyle><color>ff00ff00</color><width>3</width></LineStyle></Style><LineString><coordinates>-71.265295,-34.65457,0 -71.2655133,-34.6546783,0</coordinates></LineString></Placemark><Placemark><name>Trabajado - Cuartel 17 - Hilera 62</name><Style><LineStyle><color>ff00ff00</color><width>3</width></LineStyle></Style><LineString><coordinates>-71.2655133,-34.6546783,0 -71.2654966,-34.654595,0</coordinates></LineString></Placemark><Placemark><name>Trabajado - Cuartel 17 - Hilera 63</name><Style><LineStyle><color>ff00ff00</color><width>3</width></LineStyle></Style><LineString><coordinates>-71.2654966,-34.654595,0 -71.265555,-34.6545083,0</coordinates></LineString></Placemark><Placemark><name>Trabajado - Cuartel 17 - Hilera 64</name><Style><LineStyle><color>ff00ff00</color><width>3</width></LineStyle></Style><LineString><coordinates>-71.265555,-34.6545083,0 -71.2655616,-34.6546283,0</coordinates></LineString></Placemark><Placemark><name>Trabajado - Cuartel 17 - Hilera 65</name><Style><LineStyle><color>ff00ff00</color><width>3</width></LineStyle></Style><LineString><coordinates>-71.2655616,-34.6546283,0 -71.2654533,-34.6546566,0</coordinates></LineString></Placemark><Placemark><name>Trabajado - Cuartel 17 - Hilera 66</name><Style><LineStyle><color>ff00ff00</color><width>3</width></LineStyle></Style><LineString><coordinates>-71.2654533,-34.6546566,0 -71.2655733,-34.6546733,0</coordinates></LineString></Placemark><Placemark><name>Trabajado - Cuartel 17 - Hilera 67</name><Style><LineStyle><color>ff00ff00</color><width>3</width></LineStyle></Style><LineString><coordinates>-71.2655733,-34.6546733,0 -71.265615,-34.6547466,0</coordinates></LineString></Placemark><Placemark><name>Trabajado - Cuartel 17 - Hilera 68</name><Style><LineStyle><color>ff00ff00</color><width>3</width></LineStyle></Style><LineString><coordinates>-71.265615,-34.6547466,0 -71.265575,-34.6546033,0</coordinates></LineString></Placemark><Placemark><name>Descartado (grupo chico) - Hilera 19</name><Style><LineStyle><color>ff00ffff</color><width>3</width></LineStyle></Style><LineString><coordinates>-71.2657199,-34.6540333,0 -71.2659233,-34.6540616,0</coordinates></LineString></Placemark><Placemark><name>Descartado (grupo chico) - Hilera 21</name><Style><LineStyle><color>ff00ffff</color><width>3</width></LineStyle></Style><LineString><coordinates>-71.2660516,-34.6540016,0 -71.2657166,-34.6539633,0</coordinates></LineString></Placemark><Placemark><name>Descartado (grupo chico) - Hilera 22</name><Style><LineStyle><color>ff00ffff</color><width>3</width></LineStyle></Style><LineString><coordinates>-71.2657166,-34.6539633,0 -71.265815,-34.6540283,0</coordinates></LineString></Placemark><Placemark><name>Descartado (grupo chico) - Hilera 24</name><Style><LineStyle><color>ff00ffff</color><width>3</width></LineStyle></Style><LineString><coordinates>-71.265985,-34.6539883,0 -71.266145,-34.6540483,0</coordinates></LineString></Placemark><Placemark><name>Descartado (grupo chico) - Hilera 20</name><Style><LineStyle><color>ff00ffff</color><width>3</width></LineStyle></Style><LineString><coordinates>-71.2659233,-34.6540616,0 -71.2659916,-34.6539899,0</coordinates></LineString></Placemark><Placemark><name>Descartado (grupo chico) - Hilera 23</name><Style><LineStyle><color>ff00ffff</color><width>3</width></LineStyle></Style><LineString><coordinates>-71.265815,-34.6540283,0 -71.265985,-34.6539883,0</coordinates></LineString></Placemark></Folder></Document></kml>