<?xml version="1.0" encoding="UTF-8"?><kml xmlns="http://www.opengis.net/kml/2.2"><Document><Folder><name>Shacker SBS 12</name><Placemark><name>Descartado (grupo chico) - Hilera 1</name><Style><LineStyle><color>ff00ffff</color><width>3</width></LineStyle></Style><LineString><coordinates>-71.2662333,-34.6550833,0 -71.2662466,-34.6549616,0</coordinates></LineString></Placemark><Placemark><name>Descartado (grupo chico) - Hilera 3</name><Style><LineStyle><color>ff00ffff</color><width>3</width></LineStyle></Style><LineString><coordinates>-71.2661533,-34.6549666,0 -71.2661416,-34.6550633,0</coordinates></LineString></Placemark><Placemark><name>Descartado (grupo chico) - Hilera 2</name><Style><LineStyle><color>ff00ffff</color><width>3</width></LineStyle></Style><LineString><coordinates>-71.2662466,-34.6549616,0 -71.2661533,-34.6549666,0</coordinates></LineString></Placemark><Placemark><name>Descartado (grupo chico) - Hilera 10</name><Style><LineStyle><color>ff00ffff</color><width>3</width></LineStyle></Style><LineString><coordinates>-71.2655633,-34.6549066,0 -71.26581980898936,-34.65489337992131,0</coordinates></LineString></Placemark><Placemark><name>Descartado (grupo chico) - Hilera 4</name><Style><LineStyle><color>ff00ffff</color><width>3</width></LineStyle></Style><LineString><coordinates>-71.2655333,-34.65493,0 -71.2654633,-34.655,0</coordinates></LineString></Placemark><Placemark><name>Descartado (grupo chico) - Hilera 5</name><Style><LineStyle><color>ff00ffff</color><width>3</width></LineStyle></Style><LineString><coordinates>-71.2654633,-34.655,0 -71.2653666,-34.6550433,0</coordinates></LineString></Placemark><Placemark><name>Descartado (grupo chico) - Hilera 11</name><Style><LineStyle><color>ff00ffff</color><width>3</width></LineStyle></Style><LineString><coordinates>-71.2658966,-34.654845,0 -71.266005,-34.6548033,0</coordinates></LineString></Placemark><Placemark><name>Descartado (grupo chico) - Hilera 6</name><Style><LineStyle><color>ff00ffff</color><width>3</width></LineStyle></Style><LineString><coordinates>-71.2653666,-34.6550433,0 -71.2652766,-34.6548366,0</coordinates></LineString></Placemark><Placemark><name>Descartado (grupo chico) - Hilera 7</name><Style><LineStyle><color>ff00ffff</color><width>3</width></LineStyle></Style><LineString><coordinates>-71.2652766,-34.6548366,0 -71.2654016,-34.6549883,0</coordinates></LineString></Placemark><Placemark><name>Descartado (grupo chico) - Hilera 8</name><Style><LineStyle><color>ff00ffff</color><width>3</width></LineStyle></Style><LineString><coordinates>-71.2654016,-34.6549883,0 -71.2654216,-34.6548966,0</coordinates></LineString></Placemark><Placemark><name>Descartado (grupo chico) - Hilera 9</name><Style><LineStyle><color>ff00ffff</color><width>3</width></LineStyle></Style><LineString><coordinates>-71.265415,-34.65506,0 -71.2653983,-34.6549716,0</coordinates></LineString></Placemark></Folder></Document></kml>