<?xml version="1.0" encoding="UTF-8"?><kml xmlns="http://www.opengis.net/kml/2.2"><Document><Folder><name>Shacker de Suelo 10 Orchard Rite</name><Placemark><name>Descartado (grupo chico) - Hilera 1</name><Style><LineStyle><color>ff00ffff</color><width>3</width></LineStyle></Style><LineString><coordinates>-71.2659083,-34.65458,0 -71.26578163069603,-34.65459701020197,0</coordinates></LineString></Placemark><Placemark><name>Descartado (grupo chico) - Hilera 2</name><Style><LineStyle><color>ff00ffff</color><width>3</width></LineStyle></Style><LineString><coordinates>-71.2657966,-34.654595,0 -71.265845,-34.6545133,0</coordinates></LineString></Placemark><Placemark><name>Descartado (grupo chico) - Hilera 3</name><Style><LineStyle><color>ff00ffff</color><width>3</width></LineStyle></Style><LineString><coordinates>-71.265845,-34.6545133,0 -71.26595890382309,-34.65466960027181,0</coordinates></LineString></Placemark><Placemark><name>Descartado (grupo chico) - Hilera 4</name><Style><LineStyle><color>ff00ffff</color><width>3</width></LineStyle></Style><LineString><coordinates>-71.2659483,-34.6546749,0 -71.2658666,-34.6546233,0</coordinates></LineString></Placemark><Placemark><name>Descartado (grupo chico) - Hilera 5</name><Style><LineStyle><color>ff00ffff</color><width>3</width></LineStyle></Style><LineString><coordinates>-71.2658616,-34.6545616,0 -71.2659633,-34.6545966,0</coordinates></LineString></Placemark><Placemark><name>Descartado (grupo chico) - Hilera 6</name><Style><LineStyle><color>ff00ffff</color><width>3</width></LineStyle></Style><LineString><coordinates>-71.2659266,-34.6545766,0 -71.2657833,-34.6545616,0</coordinates></LineString></Placemark><Placemark><name>Descartado (grupo chico) - Hilera 7</name><Style><LineStyle><color>ff00ffff</color><width>3</width></LineStyle></Style><LineString><coordinates>-71.2657783,-34.65458,0 -71.26599,-34.6545283,0</coordinates></LineString></Placemark><Placemark><name>Descartado (grupo chico) - Hilera 8</name><Style><LineStyle><color>ff00ffff</color><width>3</width></LineStyle></Style><LineString><coordinates>-71.2659183,-34.6544883,0 -71.2658083,-34.654475,0</coordinates></LineString></Placemark><Placemark><name>Descartado (grupo chico) - Hilera 9</name><Style><LineStyle><color>ff00ffff</color><width>3</width></LineStyle></Style><LineString><coordinates>-71.2658083,-34.654475,0 -71.26588845724666,-34.65479012462643,0</coordinates></LineString></Placemark><Placemark><name>Descartado (grupo chico) - Hilera 10</name><Style><LineStyle><color>ff00ffff</color><width>3</width></LineStyle></Style><LineString><coordinates>-71.2658316,-34.6545666,0 -71.2658866,-34.6546466,0</coordinates></LineString></Placemark><Placemark><name>Descartado (grupo chico) - Hilera 11</name><Style><LineStyle><color>ff00ffff</color><width>3</width></LineStyle></Style><LineString><coordinates>-71.2658866,-34.6546466,0 -71.265895,-34.6547366,0</coordinates></LineString></Placemark><Placemark><name>Descartado (grupo chico) - Hilera 12</name><Style><LineStyle><color>ff00ffff</color><width>3</width></LineStyle></Style><LineString><coordinates>-71.265895,-34.6547366,0 -71.26567887037604,-34.65475334805204,0</coordinates></LineString></Placemark><Placemark><name>Descartado (grupo chico) - Hilera 13</name><Style><LineStyle><color>ff00ffff</color><width>3</width></LineStyle></Style><LineString><coordinates>-71.2657866,-34.654745,0 -71.26588,-34.6547916,0</coordinates></LineString></Placemark><Placemark><name>Descartado (grupo chico) - Hilera 14</name><Style><LineStyle><color>ff00ffff</color><width>3</width></LineStyle></Style><LineString><coordinates>-71.26587130547789,-34.654700380292894,0 -71.265795,-34.6547666,0</coordinates></LineString></Placemark><Placemark><name>Descartado (grupo chico) - Hilera 15</name><Style><LineStyle><color>ff00ffff</color><width>3</width></LineStyle></Style><LineString><coordinates>-71.2657866,-34.6547333,0 -71.26582,-34.6546466,0</coordinates></LineString></Placemark><Placemark><name>Descartado (grupo chico) - Hilera 16</name><Style><LineStyle><color>ff00ffff</color><width>3</width></LineStyle></Style><LineString><coordinates>-71.2658249,-34.6546499,0 -71.265835,-34.6547399,0</coordinates></LineString></Placemark><Placemark><name>Descartado (grupo chico) - Hilera 17</name><Style><LineStyle><color>ff00ffff</color><width>3</width></LineStyle></Style><LineString><coordinates>-71.265835,-34.6547399,0 -71.2657666,-34.6546666,0</coordinates></LineString></Placemark><Placemark><name>Descartado (grupo chico) - Hilera 18</name><Style><LineStyle><color>ff00ffff</color><width>3</width></LineStyle></Style><LineString><coordinates>-71.2657666,-34.6546666,0 -71.2657299,-34.6547533,0</coordinates></LineString></Placemark><Placemark><name>Descartado (grupo chico) - Hilera 19</name><Style><LineStyle><color>ff00ffff</color><width>3</width></LineStyle></Style><LineString><coordinates>-71.2657299,-34.6547533,0 -71.26582,-34.6547,0</coordinates></LineString></Placemark><Placemark><name>Descartado (grupo chico) - Hilera 20</name><Style><LineStyle><color>ff00ffff</color><width>3</width></LineStyle></Style><LineString><coordinates>-71.26582,-34.6547,0 -71.2658866,-34.6547716,0</coordinates></LineString></Placemark><Placemark><name>Descartado (grupo chico) - Hilera 21</name><Style><LineStyle><color>ff00ffff</color><width>3</width></LineStyle></Style><LineString><coordinates>-71.2658866,-34.6547716,0 -71.2658283,-34.65485,0</coordinates></LineString></Placemark><Placemark><name>Descartado</name><Style><LineStyle><color>ff00ffff</color><width>3</width></LineStyle></Style><LineString><coordinates>-71.2658666,-34.6546233,0 -71.2658616,-34.6545616,0</coordinates></LineString></Placemark><Placemark><name>Descartado</name><Style><LineStyle><color>ff00ffff</color><width>3</width></LineStyle></Style><LineString><coordinates>-71.2659633,-34.6545966,0 -71.2659266,-34.6545766,0</coordinates></LineString></Placemark><Placemark><name>Descartado</name><Style><LineStyle><color>ff00ffff</color><width>3</width></LineStyle></Style><LineString><coordinates>-71.26599,-34.6545283,0 -71.2659183,-34.6544883,0</coordinates></LineString></Placemark></Folder></Document></kml>