<?xml version="1.0" encoding="UTF-8"?><kml xmlns="http://www.opengis.net/kml/2.2"><Document><Folder><name>Shacker de Suelo 8</name><Placemark><name>Trabajado - Cuartel 1 - Hilera 1</name><Style><LineStyle><color>ff00ff00</color><width>3</width></LineStyle></Style><LineString><coordinates>-71.2664088866764,-34.65509562896786,0 -71.26609918089513,-34.655007436559664,0</coordinates></LineString></Placemark><Placemark><name>Trabajado - Cuartel 1 - Hilera 2</name><Style><LineStyle><color>ff00ff00</color><width>3</width></LineStyle></Style><LineString><coordinates>-71.26615135323611,-34.65496253743546,0 -71.26610100334806,-34.65532180092273,0</coordinates></LineString></Placemark><Placemark><name>Trabajado - Cuartel 1 - Hilera 3</name><Style><LineStyle><color>ff00ff00</color><width>3</width></LineStyle></Style><LineString><coordinates>-71.2661134021399,-34.654966296265066,0 -71.26619957427816,-34.655316941417716,0</coordinates></LineString></Placemark><Placemark><name>Trabajado - Cuartel 1 - Hilera 4</name><Style><LineStyle><color>ff00ff00</color><width>3</width></LineStyle></Style><LineString><coordinates>-71.2660708663348,-34.65533832067852,0 -71.26626393706114,-34.654991752728776,0</coordinates></LineString></Placemark><Placemark><name>Trabajado - Cuartel 1 - Hilera 5</name><Style><LineStyle><color>ff00ff00</color><width>3</width></LineStyle></Style><LineString><coordinates>-71.26628370954207,-34.65534129350233,0 -71.26599439564174,-34.65507743922529,0</coordinates></LineString></Placemark><Placemark><name>Trabajado - Cuartel 1 - Hilera 6</name><Style><LineStyle><color>ff00ff00</color><width>3</width></LineStyle></Style><LineString><coordinates>-71.26599194702942,-34.65510777810783,0 -71.2663496404043,-34.65522724769504,0</coordinates></LineString></Placemark><Placemark><name>Trabajado - Cuartel 1 - Hilera 7</name><Style><LineStyle><color>ff00ff00</color><width>3</width></LineStyle></Style><LineString><coordinates>-71.26608262297292,-34.65528960694123,0 -71.26635372893293,-34.655077187447844,0</coordinates></LineString></Placemark><Placemark><name>Trabajado - Cuartel 1 - Hilera 8</name><Style><LineStyle><color>ff00ff00</color><width>3</width></LineStyle></Style><LineString><coordinates>-71.26630576702959,-34.65533931720696,0 -71.266103564424,-34.65497864318026,0</coordinates></LineString></Placemark><Placemark><name>Trabajado - Cuartel 1 - Hilera 9</name><Style><LineStyle><color>ff00ff00</color><width>3</width></LineStyle></Style><LineString><coordinates>-71.26600433168925,-34.655194305034534,0 -71.26632607506235,-34.65501290773474,0</coordinates></LineString></Placemark><Placemark><name>Trabajado - Cuartel 1 - Hilera 10</name><Style><LineStyle><color>ff00ff00</color><width>3</width></LineStyle></Style><LineString><coordinates>-71.26611486050754,-34.655349229534835,0 -71.2663335031053,-34.65497939309106,0</coordinates></LineString></Placemark><Placemark><name>Trabajado - Cuartel 1 - Hilera 11</name><Style><LineStyle><color>ff00ff00</color><width>3</width></LineStyle></Style><LineString><coordinates>-71.26620876166837,-34.65533761149046,0 -71.26598873777696,-34.65508505112321,0</coordinates></LineString></Placemark><Placemark><name>Trabajado - Cuartel 1 - Hilera 12</name><Style><LineStyle><color>ff00ff00</color><width>3</width></LineStyle></Style><LineString><coordinates>-71.26597591169892,-34.65516733621321,0 -71.26638016308965,-34.65515538254304,0</coordinates></LineString></Placemark><Placemark><name>Trabajado - Cuartel 1 - Hilera 13</name><Style><LineStyle><color>ff00ff00</color><width>3</width></LineStyle></Style><LineString><coordinates>-71.26619370366117,-34.65534317271478,0 -71.26601102722827,-34.65494586339727,0</coordinates></LineString></Placemark><Placemark><name>Trabajado - Cuartel 1 - Hilera 14</name><Style><LineStyle><color>ff00ff00</color><width>3</width></LineStyle></Style><LineString><coordinates>-71.26601205238744,-34.65528490198024,0 -71.26629043396902,-34.654964303372005,0</coordinates></LineString></Placemark><Placemark><name>Trabajado - Cuartel 1 - Hilera 15</name><Style><LineStyle><color>ff00ff00</color><width>3</width></LineStyle></Style><LineString><coordinates>-71.2660319271383,-34.655008173642855,0 -71.26637398080848,-34.65520102178625,0</coordinates></LineString></Placemark><Placemark><name>Trabajado - Cuartel 1 - Hilera 16</name><Style><LineStyle><color>ff00ff00</color><width>3</width></LineStyle></Style><LineString><coordinates>-71.26640102159327,-34.655098759628665,0 -71.26599008073543,-34.65524018470266,0</coordinates></LineString></Placemark><Placemark><name>Trabajado - Cuartel 1 - Hilera 17</name><Style><LineStyle><color>ff00ff00</color><width>3</width></LineStyle></Style><LineString><coordinates>-71.26624101784685,-34.65499670171342,0 -71.26622942559172,-34.655342010404006,0</coordinates></LineString></Placemark><Placemark><name>Trabajado - Cuartel 1 - Hilera 18</name><Style><LineStyle><color>ff00ff00</color><width>3</width></LineStyle></Style><LineString><coordinates>-71.26613854744195,-34.65530680049081,0 -71.26642002540363,-34.65506855182349,0</coordinates></LineString></Placemark><Placemark><name>Trabajado - Cuartel 1 - Hilera 19</name><Style><LineStyle><color>ff00ff00</color><width>3</width></LineStyle></Style><LineString><coordinates>-71.26628811082857,-34.65488041671641,0 -71.26634038774982,-34.655329170090056,0</coordinates></LineString></Placemark><Placemark><name>Trabajado - Cuartel 1 - Hilera 20</name><Style><LineStyle><color>ff00ff00</color><width>3</width></LineStyle></Style><LineString><coordinates>-71.26631793533343,-34.6549785709764,0 -71.26627234212143,-34.655351963660664,0</coordinates></LineString></Placemark><Placemark><name>Trabajado - Cuartel 1 - Hilera 21</name><Style><LineStyle><color>ff00ff00</color><width>3</width></LineStyle></Style><LineString><coordinates>-71.26632109184806,-34.65532449390144,0 -71.26615293274236,-34.65496949134499,0</coordinates></LineString></Placemark><Placemark><name>Trabajado - Cuartel 1 - Hilera 22</name><Style><LineStyle><color>ff00ff00</color><width>3</width></LineStyle></Style><LineString><coordinates>-71.26607615188423,-34.655261535959916,0 -71.26637993645622,-34.65504620338436,0</coordinates></LineString></Placemark><Placemark><name>Trabajado - Cuartel 1 - Hilera 23</name><Style><LineStyle><color>ff00ff00</color><width>3</width></LineStyle></Style><LineString><coordinates>-71.26635406974658,-34.655133431835054,0 -71.26596648753254,-34.655067050350866,0</coordinates></LineString></Placemark><Placemark><name>Trabajado - Cuartel 1 - Hilera 24</name><Style><LineStyle><color>ff00ff00</color><width>3</width></LineStyle></Style><LineString><coordinates>-71.26599348289854,-34.655297316624164,0 -71.26635114622522,-34.6550123781739,0</coordinates></LineString></Placemark><Placemark><name>Trabajado - Cuartel 1 - Hilera 25</name><Style><LineStyle><color>ff00ff00</color><width>3</width></LineStyle></Style><LineString><coordinates>-71.26635612131952,-34.65510775277194,0 -71.26601540302838,-34.655046139547636,0</coordinates></LineString></Placemark><Placemark><name>Trabajado - Cuartel 1 - Hilera 26</name><Style><LineStyle><color>ff00ff00</color><width>3</width></LineStyle></Style><LineString><coordinates>-71.2660316,-34.655085,0 -71.26610369661921,-34.65534152355156,0</coordinates></LineString></Placemark><Placemark><name>Trabajado - Cuartel 1 - Hilera 27</name><Style><LineStyle><color>ff00ff00</color><width>3</width></LineStyle></Style><LineString><coordinates>-71.26595095141984,-34.65522716147434,0 -71.26636609399144,-34.655056773233824,0</coordinates></LineString></Placemark><Placemark><name>Trabajado - Cuartel 1 - Hilera 28</name><Style><LineStyle><color>ff00ff00</color><width>3</width></LineStyle></Style><LineString><coordinates>-71.2662774740647,-34.65534954979682,0 -71.26626319878007,-34.65495330250088,0</coordinates></LineString></Placemark><Placemark><name>Trabajado - Cuartel 1 - Hilera 29</name><Style><LineStyle><color>ff00ff00</color><width>3</width></LineStyle></Style><LineString><coordinates>-71.26608610921956,-34.654948618497706,0 -71.26637768200649,-34.65503664571053,0</coordinates></LineString></Placemark><Placemark><name>Trabajado - Cuartel 1 - Hilera 30</name><Style><LineStyle><color>ff00ff00</color><width>3</width></LineStyle></Style><LineString><coordinates>-71.26629996398174,-34.65496078328204,0 -71.26610082863401,-34.655351378525154,0</coordinates></LineString></Placemark><Placemark><name>Trabajado - Cuartel 1 - Hilera 31</name><Style><LineStyle><color>ff00ff00</color><width>3</width></LineStyle></Style><LineString><coordinates>-71.26636626085795,-34.6553121883974,0 -71.26599251434148,-34.65504226035773,0</coordinates></LineString></Placemark><Placemark><name>Trabajado - Cuartel 1 - Hilera 32</name><Style><LineStyle><color>ff00ff00</color><width>3</width></LineStyle></Style><LineString><coordinates>-71.2660032389666,-34.6551515269925,0 -71.2663195763201,-34.65497016024313,0</coordinates></LineString></Placemark><Placemark><name>Trabajado - Cuartel 1 - Hilera 33</name><Style><LineStyle><color>ff00ff00</color><width>3</width></LineStyle></Style><LineString><coordinates>-71.26619828108774,-34.654880963496076,0 -71.26634232067703,-34.65522124230789,0</coordinates></LineString></Placemark><Placemark><name>Trabajado - Cuartel 1 - Hilera 34</name><Style><LineStyle><color>ff00ff00</color><width>3</width></LineStyle></Style><LineString><coordinates>-71.26644048401057,-34.65515455020792,0 -71.26600617398526,-34.65512809677911,0</coordinates></LineString></Placemark><Placemark><name>Trabajado - Cuartel 1 - Hilera 35</name><Style><LineStyle><color>ff00ff00</color><width>3</width></LineStyle></Style><LineString><coordinates>-71.26614198865879,-34.65534175109228,0 -71.2663969976777,-34.65509876392709,0</coordinates></LineString></Placemark><Placemark><name>Trabajado - Cuartel 1 - Hilera 36</name><Style><LineStyle><color>ff00ff00</color><width>3</width></LineStyle></Style><LineString><coordinates>-71.26600725210591,-34.65522301211817,0 -71.2663433,-34.6552649,0</coordinates></LineString></Placemark><Placemark><name>Trabajado - Cuartel 1 - Hilera 37</name><Style><LineStyle><color>ff00ff00</color><width>3</width></LineStyle></Style><LineString><coordinates>-71.26634737382841,-34.655271519015756,0 -71.26612945107401,-34.65491744564749,0</coordinates></LineString></Placemark><Placemark><name>Trabajado - Cuartel 1 - Hilera 38</name><Style><LineStyle><color>ff00ff00</color><width>3</width></LineStyle></Style><LineString><coordinates>-71.2662619979442,-34.655015711657796,0 -71.266185,-34.6553483,0</coordinates></LineString></Placemark><Placemark><name>Trabajado - Cuartel 1 - Hilera 39</name><Style><LineStyle><color>ff00ff00</color><width>3</width></LineStyle></Style><LineString><coordinates>-71.26599248555227,-34.655132706664865,0 -71.26634654633006,-34.65499650431768,0</coordinates></LineString></Placemark><Placemark><name>Trabajado - Cuartel 1 - Hilera 40</name><Style><LineStyle><color>ff00ff00</color><width>3</width></LineStyle></Style><LineString><coordinates>-71.26603863548365,-34.6551709713985,0 -71.26633991376265,-34.65528124485141,0</coordinates></LineString></Placemark><Placemark><name>Trabajado - Cuartel 1 - Hilera 41</name><Style><LineStyle><color>ff00ff00</color><width>3</width></LineStyle></Style><LineString><coordinates>-71.26627362709166,-34.65538084923805,0 -71.26614725259448,-34.65496212998467,0</coordinates></LineString></Placemark><Placemark><name>Trabajado - Cuartel 1 - Hilera 42</name><Style><LineStyle><color>ff00ff00</color><width>3</width></LineStyle></Style><LineString><coordinates>-71.26638168874139,-34.65511283969827,0 -71.26608614488642,-34.655014235521186,0</coordinates></LineString></Placemark><Placemark><name>Trabajado - Cuartel 1 - Hilera 43</name><Style><LineStyle><color>ff00ff00</color><width>3</width></LineStyle></Style><LineString><coordinates>-71.26609894370525,-34.65500314772786,0 -71.26635243021771,-34.655220333234276,0</coordinates></LineString></Placemark><Placemark><name>Trabajado - Cuartel 1 - Hilera 44</name><Style><LineStyle><color>ff00ff00</color><width>3</width></LineStyle></Style><LineString><coordinates>-71.26595125806422,-34.65519218504297,0 -71.26633089438629,-34.65520812521416,0</coordinates></LineString></Placemark><Placemark><name>Trabajado - Cuartel 1 - Hilera 45</name><Style><LineStyle><color>ff00ff00</color><width>3</width></LineStyle></Style><LineString><coordinates>-71.26607298473806,-34.65534287513393,0 -71.26623704896127,-34.6549646278517,0</coordinates></LineString></Placemark><Placemark><name>Trabajado - Cuartel 1 - Hilera 46</name><Style><LineStyle><color>ff00ff00</color><width>3</width></LineStyle></Style><LineString><coordinates>-71.26598640342507,-34.65505093671364,0 -71.26638371969004,-34.65520025613468,0</coordinates></LineString></Placemark><Placemark><name>Trabajado - Cuartel 1 - Hilera 47</name><Style><LineStyle><color>ff00ff00</color><width>3</width></LineStyle></Style><LineString><coordinates>-71.265963868027,-34.65514954618448,0 -71.26636977065785,-34.65511476446805,0</coordinates></LineString></Placemark><Placemark><name>Trabajado - Cuartel 1 - Hilera 48</name><Style><LineStyle><color>ff00ff00</color><width>3</width></LineStyle></Style><LineString><coordinates>-71.26632889791175,-34.65533841899393,0 -71.26598754027385,-34.65507399246581,0</coordinates></LineString></Placemark><Placemark><name>Trabajado - Cuartel 1 - Hilera 49</name><Style><LineStyle><color>ff00ff00</color><width>3</width></LineStyle></Style><LineString><coordinates>-71.26634908156304,-34.65521325050084,0 -71.26618308868602,-34.65494766189765,0</coordinates></LineString></Placemark><Placemark><name>Trabajado - Cuartel 1 - Hilera 50</name><Style><LineStyle><color>ff00ff00</color><width>3</width></LineStyle></Style><LineString><coordinates>-71.26621549007743,-34.655016516989974,0 -71.26618083092744,-34.65533434139534,0</coordinates></LineString></Placemark><Placemark><name>Trabajado - Cuartel 1 - Hilera 51</name><Style><LineStyle><color>ff00ff00</color><width>3</width></LineStyle></Style><LineString><coordinates>-71.26597862859154,-34.65489133143125,0 -71.26629530408873,-34.655342162184496,0</coordinates></LineString></Placemark><Placemark><name>Trabajado - Cuartel 1 - Hilera 52</name><Style><LineStyle><color>ff00ff00</color><width>3</width></LineStyle></Style><LineString><coordinates>-71.26625296148612,-34.655005991659195,0 -71.2663966,-34.6554183,0</coordinates></LineString></Placemark><Placemark><name>Trabajado - Cuartel 1 - Hilera 53</name><Style><LineStyle><color>ff00ff00</color><width>3</width></LineStyle></Style><LineString><coordinates>-71.26642731208,-34.65528832120968,0 -71.26602612032782,-34.65513039754722,0</coordinates></LineString></Placemark><Placemark><name>Trabajado - Cuartel 1 - Hilera 54</name><Style><LineStyle><color>ff00ff00</color><width>3</width></LineStyle></Style><LineString><coordinates>-71.26608466674932,-34.655329848622934,0 -71.26606450178195,-34.65504967778864,0</coordinates></LineString></Placemark><Placemark><name>Trabajado - Cuartel 1 - Hilera 55</name><Style><LineStyle><color>ff00ff00</color><width>3</width></LineStyle></Style><LineString><coordinates>-71.26602130921276,-34.65503704867718,0 -71.26632942772095,-34.655255691723376,0</coordinates></LineString></Placemark><Placemark><name>Trabajado - Cuartel 1 - Hilera 56</name><Style><LineStyle><color>ff00ff00</color><width>3</width></LineStyle></Style><LineString><coordinates>-71.26644061231737,-34.65516176373395,0 -71.26598248259212,-34.65527084223998,0</coordinates></LineString></Placemark><Placemark><name>Trabajado - Cuartel 1 - Hilera 57</name><Style><LineStyle><color>ff00ff00</color><width>3</width></LineStyle></Style><LineString><coordinates>-71.2661640765849,-34.65531987132392,0 -71.2661799144337,-34.65497010292768,0</coordinates></LineString></Placemark><Placemark><name>Trabajado - Cuartel 1 - Hilera 58</name><Style><LineStyle><color>ff00ff00</color><width>3</width></LineStyle></Style><LineString><coordinates>-71.26629714867795,-34.655340449706216,0 -71.26616521809936,-34.654871130522764,0</coordinates></LineString></Placemark><Placemark><name>Trabajado - Cuartel 1 - Hilera 59</name><Style><LineStyle><color>ff00ff00</color><width>3</width></LineStyle></Style><LineString><coordinates>-71.26635837257557,-34.65520009244829,0 -71.2661783,-34.6553233,0</coordinates></LineString></Placemark><Placemark><name>Trabajado - Cuartel 1 - Hilera 60</name><Style><LineStyle><color>ff00ff00</color><width>3</width></LineStyle></Style><LineString><coordinates>-71.2660216,-34.65529,0 -71.2660216,-34.6551,0</coordinates></LineString></Placemark><Placemark><name>Trabajado - Cuartel 1 - Hilera 61</name><Style><LineStyle><color>ff00ff00</color><width>3</width></LineStyle></Style><LineString><coordinates>-71.2659933,-34.6552466,0 -71.26631740368406,-34.65496989647975,0</coordinates></LineString></Placemark><Placemark><name>Trabajado - Cuartel 1 - Hilera 62</name><Style><LineStyle><color>ff00ff00</color><width>3</width></LineStyle></Style><LineString><coordinates>-71.2660224275111,-34.65523692858779,0 -71.26623995418274,-34.654957091531614,0</coordinates></LineString></Placemark><Placemark><name>Trabajado - Cuartel 1 - Hilera 63</name><Style><LineStyle><color>ff00ff00</color><width>3</width></LineStyle></Style><LineString><coordinates>-71.26616862121263,-34.65502348507308,0 -71.2660033,-34.6551966,0</coordinates></LineString></Placemark><Placemark><name>Trabajado - Cuartel 1 - Hilera 64</name><Style><LineStyle><color>ff00ff00</color><width>3</width></LineStyle></Style><LineString><coordinates>-71.2663852185679,-34.655148692083586,0 -71.26619726085019,-34.65491735950791,0</coordinates></LineString></Placemark><Placemark><name>Trabajado - Cuartel 1 - Hilera 65</name><Style><LineStyle><color>ff00ff00</color><width>3</width></LineStyle></Style><LineString><coordinates>-71.2660066,-34.6551233,0 -71.26626281887538,-34.65495100979891,0</coordinates></LineString></Placemark><Placemark><name>Trabajado - Cuartel 1 - Hilera 66</name><Style><LineStyle><color>ff00ff00</color><width>3</width></LineStyle></Style><LineString><coordinates>-71.26638449857897,-34.65509303968365,0 -71.26603925918933,-34.65531881907689,0</coordinates></LineString></Placemark><Placemark><name>Trabajado - Cuartel 1 - Hilera 67</name><Style><LineStyle><color>ff00ff00</color><width>3</width></LineStyle></Style><LineString><coordinates>-71.26600228526438,-34.65519664054955,0 -71.26609228193256,-34.65504670610037,0</coordinates></LineString></Placemark><Placemark><name>Trabajado - Cuartel 1 - Hilera 68</name><Style><LineStyle><color>ff00ff00</color><width>3</width></LineStyle></Style><LineString><coordinates>-71.26621362591905,-34.65534294727486,0 -71.26617436649045,-34.65491579528837,0</coordinates></LineString></Placemark><Placemark><name>Trabajado - Cuartel 1 - Hilera 69</name><Style><LineStyle><color>ff00ff00</color><width>3</width></LineStyle></Style><LineString><coordinates>-71.26629164347166,-34.65497115816919,0 -71.26622538254769,-34.655428009802755,0</coordinates></LineString></Placemark><Placemark><name>Trabajado - Cuartel 1 - Hilera 70</name><Style><LineStyle><color>ff00ff00</color><width>3</width></LineStyle></Style><LineString><coordinates>-71.26629508403742,-34.655271811682546,0 -71.26602698792233,-34.65526142982842,0</coordinates></LineString></Placemark><Placemark><name>Trabajado - Cuartel 1 - Hilera 71</name><Style><LineStyle><color>ff00ff00</color><width>3</width></LineStyle></Style><LineString><coordinates>-71.26604096353034,-34.655271670830274,0 -71.26629746856203,-34.65521426146777,0</coordinates></LineString></Placemark><Placemark><name>Trabajado - Cuartel 1 - Hilera 72</name><Style><LineStyle><color>ff00ff00</color><width>3</width></LineStyle></Style><LineString><coordinates>-71.26596249423795,-34.655142270238606,0 -71.2663584516922,-34.65506211390299,0</coordinates></LineString></Placemark><Placemark><name>Trabajado - Cuartel 1 - Hilera 73</name><Style><LineStyle><color>ff00ff00</color><width>3</width></LineStyle></Style><LineString><coordinates>-71.26640023013616,-34.655092895494775,0 -71.26607348801785,-34.655044135924804,0</coordinates></LineString></Placemark><Placemark><name>Trabajado - Cuartel 1 - Hilera 74</name><Style><LineStyle><color>ff00ff00</color><width>3</width></LineStyle></Style><LineString><coordinates>-71.26603631186818,-34.65500611369625,0 -71.2663551243116,-34.65524197374131,0</coordinates></LineString></Placemark><Placemark><name>Trabajado - Cuartel 1 - Hilera 75</name><Style><LineStyle><color>ff00ff00</color><width>3</width></LineStyle></Style><LineString><coordinates>-71.2659933,-34.6552216,0 -71.26608972119887,-34.654654000542415,0</coordinates></LineString></Placemark><Placemark><name>Trabajado - Cuartel 1 - Hilera 76</name><Style><LineStyle><color>ff00ff00</color><width>3</width></LineStyle></Style><LineString><coordinates>-71.2660128770388,-34.65497421097048,0 -71.266135,-34.6553466,0</coordinates></LineString></Placemark><Placemark><name>Trabajado - Cuartel 1 - Hilera 77</name><Style><LineStyle><color>ff00ff00</color><width>3</width></LineStyle></Style><LineString><coordinates>-71.26645222972009,-34.65504698337834,0 -71.26618214132743,-34.65533784780123,0</coordinates></LineString></Placemark><Placemark><name>Trabajado - Cuartel 1 - Hilera 78</name><Style><LineStyle><color>ff00ff00</color><width>3</width></LineStyle></Style><LineString><coordinates>-71.26597046522153,-34.65517445112465,0 -71.26622606936824,-34.65535049286374,0</coordinates></LineString></Placemark><Placemark><name>Trabajado - Cuartel 1 - Hilera 79</name><Style><LineStyle><color>ff00ff00</color><width>3</width></LineStyle></Style><LineString><coordinates>-71.2660283,-34.65515,0 -71.26615274583251,-34.655312401811415,0</coordinates></LineString></Placemark><Placemark><name>Trabajado - Cuartel 1 - Hilera 80</name><Style><LineStyle><color>ff00ff00</color><width>3</width></LineStyle></Style><LineString><coordinates>-71.26616079289546,-34.654952929047205,0 -71.266015,-34.6552333,0</coordinates></LineString></Placemark><Placemark><name>Trabajado - Cuartel 1 - Hilera 81</name><Style><LineStyle><color>ff00ff00</color><width>3</width></LineStyle></Style><LineString><coordinates>-71.26605884520794,-34.65505867169862,0 -71.2662801850485,-34.655346126037045,0</coordinates></LineString></Placemark><Placemark><name>Trabajado - Cuartel 1 - Hilera 82</name><Style><LineStyle><color>ff00ff00</color><width>3</width></LineStyle></Style><LineString><coordinates>-71.2660450475385,-34.65532317988198,0 -71.26634195850225,-34.65519752885358,0</coordinates></LineString></Placemark><Placemark><name>Trabajado - Cuartel 1 - Hilera 83</name><Style><LineStyle><color>ff00ff00</color><width>3</width></LineStyle></Style><LineString><coordinates>-71.2660419896905,-34.655319703184574,0 -71.26637578602231,-34.65522285705348,0</coordinates></LineString></Placemark><Placemark><name>Trabajado - Cuartel 1 - Hilera 84</name><Style><LineStyle><color>ff00ff00</color><width>3</width></LineStyle></Style><LineString><coordinates>-71.26602479786601,-34.65523834704523,0 -71.2659733,-34.6550866,0</coordinates></LineString></Placemark><Placemark><name>Trabajado - Cuartel 1 - Hilera 85</name><Style><LineStyle><color>ff00ff00</color><width>3</width></LineStyle></Style><LineString><coordinates>-71.26601490816026,-34.654936875369586,0 -71.2663408553551,-34.65516400599405,0</coordinates></LineString></Placemark><Placemark><name>Trabajado - Cuartel 1 - Hilera 86</name><Style><LineStyle><color>ff00ff00</color><width>3</width></LineStyle></Style><LineString><coordinates>-71.2663784870593,-34.65504060518146,0 -71.26593598253173,-34.65518358945693,0</coordinates></LineString></Placemark><Placemark><name>Trabajado - Cuartel 1 - Hilera 87</name><Style><LineStyle><color>ff00ff00</color><width>3</width></LineStyle></Style><LineString><coordinates>-71.26608099310823,-34.65527672322729,0 -71.2662933,-34.6553166,0</coordinates></LineString></Placemark><Placemark><name>Trabajado - Cuartel 1 - Hilera 88</name><Style><LineStyle><color>ff00ff00</color><width>3</width></LineStyle></Style><LineString><coordinates>-71.26614477121271,-34.654935128148026,0 -71.26644569975917,-34.65552541106606,0</coordinates></LineString></Placemark><Placemark><name>Trabajado - Cuartel 1 - Hilera 89</name><Style><LineStyle><color>ff00ff00</color><width>3</width></LineStyle></Style><LineString><coordinates>-71.26623125066797,-34.65533006548716,0 -71.26607609787196,-34.6547624568111,0</coordinates></LineString></Placemark><Placemark><name>Trabajado - Cuartel 1 - Hilera 90</name><Style><LineStyle><color>ff00ff00</color><width>3</width></LineStyle></Style><LineString><coordinates>-71.26614531354194,-34.65534050116001,0 -71.26610344240663,-34.654959008593416,0</coordinates></LineString></Placemark><Placemark><name>Trabajado - Cuartel 1 - Hilera 91</name><Style><LineStyle><color>ff00ff00</color><width>3</width></LineStyle></Style><LineString><coordinates>-71.2661703744181,-34.65503234702094,0 -71.26607861103234,-34.655298635073876,0</coordinates></LineString></Placemark><Placemark><name>Trabajado - Cuartel 1 - Hilera 92</name><Style><LineStyle><color>ff00ff00</color><width>3</width></LineStyle></Style><LineString><coordinates>-71.26598847932459,-34.65511836333058,0 -71.26612958305861,-34.65498688468072,0</coordinates></LineString></Placemark><Placemark><name>Trabajado - Cuartel 1 - Hilera 93</name><Style><LineStyle><color>ff00ff00</color><width>3</width></LineStyle></Style><LineString><coordinates>-71.26601042509603,-34.65525220547504,0 -71.26633846193347,-34.6551669158973,0</coordinates></LineString></Placemark><Placemark><name>Trabajado - Cuartel 1 - Hilera 94</name><Style><LineStyle><color>ff00ff00</color><width>3</width></LineStyle></Style><LineString><coordinates>-71.26635570764316,-34.655229216747514,0 -71.26604889597431,-34.65520884445269,0</coordinates></LineString></Placemark><Placemark><name>Trabajado - Cuartel 1 - Hilera 95</name><Style><LineStyle><color>ff00ff00</color><width>3</width></LineStyle></Style><LineString><coordinates>-71.26634817106589,-34.655268997260514,0 -71.2659966,-34.6553,0</coordinates></LineString></Placemark><Placemark><name>Trabajado - Cuartel 1 - Hilera 96</name><Style><LineStyle><color>ff00ff00</color><width>3</width></LineStyle></Style><LineString><coordinates>-71.26615330936748,-34.65533303977888,0 -71.26632976179557,-34.655054886587706,0</coordinates></LineString></Placemark><Placemark><name>Trabajado - Cuartel 1 - Hilera 97</name><Style><LineStyle><color>ff00ff00</color><width>3</width></LineStyle></Style><LineString><coordinates>-71.26601215313737,-34.655127302760064,0 -71.2664133,-34.655085,0</coordinates></LineString></Placemark><Placemark><name>Trabajado - Cuartel 1 - Hilera 98</name><Style><LineStyle><color>ff00ff00</color><width>3</width></LineStyle></Style><LineString><coordinates>-71.26610351163082,-34.65530623063258,0 -71.26636598049564,-34.65511076852501,0</coordinates></LineString></Placemark><Placemark><name>Trabajado - Cuartel 1 - Hilera 99</name><Style><LineStyle><color>ff00ff00</color><width>3</width></LineStyle></Style><LineString><coordinates>-71.26633,-34.6553216,0 -71.26625897072383,-34.654953873502045,0</coordinates></LineString></Placemark><Placemark><name>Trabajado - Cuartel 1 - Hilera 100</name><Style><LineStyle><color>ff00ff00</color><width>3</width></LineStyle></Style><LineString><coordinates>-71.2661881519813,-34.65533484625756,0 -71.2663788238166,-34.65497468834645,0</coordinates></LineString></Placemark><Placemark><name>Trabajado - Cuartel 1 - Hilera 101</name><Style><LineStyle><color>ff00ff00</color><width>3</width></LineStyle></Style><LineString><coordinates>-71.2660666086929,-34.65503174799104,0 -71.26636707249939,-34.65501964399885,0</coordinates></LineString></Placemark><Placemark><name>Trabajado - Cuartel 1 - Hilera 102</name><Style><LineStyle><color>ff00ff00</color><width>3</width></LineStyle></Style><LineString><coordinates>-71.26610144445102,-34.65534063297358,0 -71.266335106548,-34.65503314398976,0</coordinates></LineString></Placemark><Placemark><name>Trabajado - Cuartel 1 - Hilera 103</name><Style><LineStyle><color>ff00ff00</color><width>3</width></LineStyle></Style><LineString><coordinates>-71.26607111038761,-34.65528875610395,0 -71.26614788532936,-34.65496432005984,0</coordinates></LineString></Placemark><Placemark><name>Trabajado - Cuartel 1 - Hilera 104</name><Style><LineStyle><color>ff00ff00</color><width>3</width></LineStyle></Style><LineString><coordinates>-71.26600829172573,-34.655098233603034,0 -71.26636816466615,-34.655218300302245,0</coordinates></LineString></Placemark><Placemark><name>Trabajado - Cuartel 1 - Hilera 105</name><Style><LineStyle><color>ff00ff00</color><width>3</width></LineStyle></Style><LineString><coordinates>-71.2663766,-34.6550366,0 -71.26635021284609,-34.65527857020124,0</coordinates></LineString></Placemark><Placemark><name>Trabajado - Cuartel 1 - Hilera 106</name><Style><LineStyle><color>ff00ff00</color><width>3</width></LineStyle></Style><LineString><coordinates>-71.2663,-34.65497,0 -71.2661866,-34.6549666,0</coordinates></LineString></Placemark><Placemark><name>Trabajado - Cuartel 1 - Hilera 107</name><Style><LineStyle><color>ff00ff00</color><width>3</width></LineStyle></Style><LineString><coordinates>-71.2661866,-34.6549666,0 -71.26600246079414,-34.655135217893495,0</coordinates></LineString></Placemark><Placemark><name>Trabajado - Cuartel 1 - Hilera 108</name><Style><LineStyle><color>ff00ff00</color><width>3</width></LineStyle></Style><LineString><coordinates>-71.26629525837947,-34.65503517989579,0 -71.26599192602774,-34.6552771766617,0</coordinates></LineString></Placemark><Placemark><name>Trabajado - Cuartel 1 - Hilera 109</name><Style><LineStyle><color>ff00ff00</color><width>3</width></LineStyle></Style><LineString><coordinates>-71.26639101956468,-34.65513180215369,0 -71.26600788015449,-34.65524563082571,0</coordinates></LineString></Placemark><Placemark><name>Trabajado - Cuartel 1 - Hilera 110</name><Style><LineStyle><color>ff00ff00</color><width>3</width></LineStyle></Style><LineString><coordinates>-71.2660162439203,-34.65517473776989,0 -71.26633214181412,-34.65518421749487,0</coordinates></LineString></Placemark><Placemark><name>Trabajado - Cuartel 1 - Hilera 111</name><Style><LineStyle><color>ff00ff00</color><width>3</width></LineStyle></Style><LineString><coordinates>-71.26645058879744,-34.655281011001236,0 -71.2663466,-34.6549966,0</coordinates></LineString></Placemark><Placemark><name>Trabajado - Cuartel 1 - Hilera 112</name><Style><LineStyle><color>ff00ff00</color><width>3</width></LineStyle></Style><LineString><coordinates>-71.26613472801479,-34.655285615423836,0 -71.26621797281982,-34.655003839004465,0</coordinates></LineString></Placemark><Placemark><name>Trabajado - Cuartel 1 - Hilera 113</name><Style><LineStyle><color>ff00ff00</color><width>3</width></LineStyle></Style><LineString><coordinates>-71.26625270214232,-34.65502669102628,0 -71.2660009268225,-34.65509152378046,0</coordinates></LineString></Placemark><Placemark><name>Trabajado - Cuartel 1 - Hilera 114</name><Style><LineStyle><color>ff00ff00</color><width>3</width></LineStyle></Style><LineString><coordinates>-71.2662933,-34.65498,0 -71.2663983,-34.655005,0</coordinates></LineString></Placemark><Placemark><name>Trabajado - Cuartel 1 - Hilera 115</name><Style><LineStyle><color>ff00ff00</color><width>3</width></LineStyle></Style><LineString><coordinates>-71.2663983,-34.655005,0 -71.26638252537526,-34.6551600645612,0</coordinates></LineString></Placemark><Placemark><name>Trabajado - Cuartel 1 - Hilera 116</name><Style><LineStyle><color>ff00ff00</color><width>3</width></LineStyle></Style><LineString><coordinates>-71.26610010781235,-34.65528674906487,0 -71.26607935342707,-34.65498193839161,0</coordinates></LineString></Placemark><Placemark><name>Trabajado - Cuartel 1 - Hilera 117</name><Style><LineStyle><color>ff00ff00</color><width>3</width></LineStyle></Style><LineString><coordinates>-71.26598325697428,-34.655084331991105,0 -71.26634573650021,-34.655301740648994,0</coordinates></LineString></Placemark><Placemark><name>Trabajado - Cuartel 1 - Hilera 118</name><Style><LineStyle><color>ff00ff00</color><width>3</width></LineStyle></Style><LineString><coordinates>-71.26615596745349,-34.65499702534761,0 -71.26629326429776,-34.65531965500778,0</coordinates></LineString></Placemark><Placemark><name>Trabajado - Cuartel 1 - Hilera 119</name><Style><LineStyle><color>ff00ff00</color><width>3</width></LineStyle></Style><LineString><coordinates>-71.26603619412253,-34.6551279864164,0 -71.2662716,-34.6549766,0</coordinates></LineString></Placemark><Placemark><name>Trabajado - Cuartel 1 - Hilera 120</name><Style><LineStyle><color>ff00ff00</color><width>3</width></LineStyle></Style><LineString><coordinates>-71.26569109727099,-34.65518573024442,0 -71.2663633,-34.655315,0</coordinates></LineString></Placemark><Placemark><name>Trabajado - Cuartel 1 - Hilera 121</name><Style><LineStyle><color>ff00ff00</color><width>3</width></LineStyle></Style><LineString><coordinates>-71.26632198814491,-34.65525256219857,0 -71.26599540000169,-34.65514219169032,0</coordinates></LineString></Placemark><Placemark><name>Trabajado - Cuartel 1 - Hilera 122</name><Style><LineStyle><color>ff00ff00</color><width>3</width></LineStyle></Style><LineString><coordinates>-71.2659666,-34.6551783,0 -71.2660066,-34.6550816,0</coordinates></LineString></Placemark><Placemark><name>Trabajado - Cuartel 1 - Hilera 123</name><Style><LineStyle><color>ff00ff00</color><width>3</width></LineStyle></Style><LineString><coordinates>-71.26606632043982,-34.65497401815306,0 -71.2660483,-34.6553283,0</coordinates></LineString></Placemark><Placemark><name>Trabajado - Cuartel 1 - Hilera 124</name><Style><LineStyle><color>ff00ff00</color><width>3</width></LineStyle></Style><LineString><coordinates>-71.26605396158548,-34.65511641097558,0 -71.26636669192511,-34.65502705944996,0</coordinates></LineString></Placemark><Placemark><name>Trabajado - Cuartel 1 - Hilera 125</name><Style><LineStyle><color>ff00ff00</color><width>3</width></LineStyle></Style><LineString><coordinates>-71.26640568012611,-34.65518302060056,0 -71.26609395054011,-34.65488500711638,0</coordinates></LineString></Placemark><Placemark><name>Trabajado - Cuartel 1 - Hilera 126</name><Style><LineStyle><color>ff00ff00</color><width>3</width></LineStyle></Style><LineString><coordinates>-71.26636326380962,-34.65515596511437,0 -71.26610299257132,-34.654950025497044,0</coordinates></LineString></Placemark><Placemark><name>Trabajado - Cuartel 1 - Hilera 127</name><Style><LineStyle><color>ff00ff00</color><width>3</width></LineStyle></Style><LineString><coordinates>-71.26618697008007,-34.65536254681709,0 -71.26610208139864,-34.65497333221281,0</coordinates></LineString></Placemark><Placemark><name>Trabajado - Cuartel 1 - Hilera 128</name><Style><LineStyle><color>ff00ff00</color><width>3</width></LineStyle></Style><LineString><coordinates>-71.26625880745922,-34.65527891630706,0 -71.26598664845459,-34.65515903344947,0</coordinates></LineString></Placemark><Placemark><name>Trabajado - Cuartel 1 - Hilera 129</name><Style><LineStyle><color>ff00ff00</color><width>3</width></LineStyle></Style><LineString><coordinates>-71.26637217344135,-34.655037199370035,0 -71.26602843760348,-34.65527015952569,0</coordinates></LineString></Placemark><Placemark><name>Trabajado - Cuartel 1 - Hilera 130</name><Style><LineStyle><color>ff00ff00</color><width>3</width></LineStyle></Style><LineString><coordinates>-71.26604689140875,-34.65507268500076,0 -71.26622209876182,-34.655430383153416,0</coordinates></LineString></Placemark><Placemark><name>Trabajado - Cuartel 1 - Hilera 131</name><Style><LineStyle><color>ff00ff00</color><width>3</width></LineStyle></Style><LineString><coordinates>-71.2660383,-34.6551883,0 -71.26615357356572,-34.65533975720643,0</coordinates></LineString></Placemark><Placemark><name>Trabajado - Cuartel 1 - Hilera 132</name><Style><LineStyle><color>ff00ff00</color><width>3</width></LineStyle></Style><LineString><coordinates>-71.2660508895827,-34.65513876675829,0 -71.26625554763957,-34.65534839508224,0</coordinates></LineString></Placemark><Placemark><name>Trabajado - Cuartel 1 - Hilera 133</name><Style><LineStyle><color>ff00ff00</color><width>3</width></LineStyle></Style><LineString><coordinates>-71.26597978340234,-34.654892391701175,0 -71.26636034293429,-34.65508267146715,0</coordinates></LineString></Placemark><Placemark><name>Trabajado - Cuartel 1 - Hilera 134</name><Style><LineStyle><color>ff00ff00</color><width>3</width></LineStyle></Style><LineString><coordinates>-71.26626288338059,-34.65498355127285,0 -71.26616703531741,-34.655319289235294,0</coordinates></LineString></Placemark><Placemark><name>Trabajado - Cuartel 1 - Hilera 135</name><Style><LineStyle><color>ff00ff00</color><width>3</width></LineStyle></Style><LineString><coordinates>-71.2663033,-34.65499,0 -71.26596400340497,-34.65505767134306,0</coordinates></LineString></Placemark><Placemark><name>Trabajado - Cuartel 1 - Hilera 136</name><Style><LineStyle><color>ff00ff00</color><width>3</width></LineStyle></Style><LineString><coordinates>-71.26639365179022,-34.655166973052765,0 -71.26602611025284,-34.655100147318706,0</coordinates></LineString></Placemark><Placemark><name>Trabajado - Cuartel 1 - Hilera 137</name><Style><LineStyle><color>ff00ff00</color><width>3</width></LineStyle></Style><LineString><coordinates>-71.2663933,-34.6551683,0 -71.2663483,-34.65527,0</coordinates></LineString></Placemark><Placemark><name>Trabajado - Cuartel 1 - Hilera 138</name><Style><LineStyle><color>ff00ff00</color><width>3</width></LineStyle></Style><LineString><coordinates>-71.2660949,-34.6552333,0 -71.266214373227,-34.65529414405344,0</coordinates></LineString></Placemark><Placemark><name>Trabajado - Cuartel 1 - Hilera 139</name><Style><LineStyle><color>ff00ff00</color><width>3</width></LineStyle></Style><LineString><coordinates>-71.26624376511728,-34.654960175998276,0 -71.26606074896786,-34.65527496377526,0</coordinates></LineString></Placemark><Placemark><name>Trabajado - Cuartel 1 - Hilera 140</name><Style><LineStyle><color>ff00ff00</color><width>3</width></LineStyle></Style><LineString><coordinates>-71.26600445116799,-34.65507610262415,0 -71.26636826746268,-34.65520681710901,0</coordinates></LineString></Placemark><Placemark><name>Trabajado - Cuartel 1 - Hilera 141</name><Style><LineStyle><color>ff00ff00</color><width>3</width></LineStyle></Style><LineString><coordinates>-71.26637770521697,-34.65509866621949,0 -71.26619876447032,-34.654915164764176,0</coordinates></LineString></Placemark><Placemark><name>Trabajado - Cuartel 1 - Hilera 142</name><Style><LineStyle><color>ff00ff00</color><width>3</width></LineStyle></Style><LineString><coordinates>-71.26634755732634,-34.6552523783773,0 -71.26604704314309,-34.65509197058437,0</coordinates></LineString></Placemark><Placemark><name>Trabajado - Cuartel 1 - Hilera 143</name><Style><LineStyle><color>ff00ff00</color><width>3</width></LineStyle></Style><LineString><coordinates>-71.2663733,-34.6550466,0 -71.2662372632673,-34.655334984824265,0</coordinates></LineString></Placemark><Placemark><name>Trabajado - Cuartel 1 - Hilera 144</name><Style><LineStyle><color>ff00ff00</color><width>3</width></LineStyle></Style><LineString><coordinates>-71.26619039104565,-34.65499616833968,0 -71.2660383,-34.6552883,0</coordinates></LineString></Placemark><Placemark><name>Trabajado - Cuartel 1 - Hilera 145</name><Style><LineStyle><color>ff00ff00</color><width>3</width></LineStyle></Style><LineString><coordinates>-71.26606,-34.655195,0 -71.26647253868002,-34.65506377341036,0</coordinates></LineString></Placemark><Placemark><name>Trabajado - Cuartel 1 - Hilera 146</name><Style><LineStyle><color>ff00ff00</color><width>3</width></LineStyle></Style><LineString><coordinates>-71.26625082873197,-34.65501067773372,0 -71.26594977020632,-34.65508264069374,0</coordinates></LineString></Placemark><Placemark><name>Trabajado - Cuartel 1 - Hilera 147</name><Style><LineStyle><color>ff00ff00</color><width>3</width></LineStyle></Style><LineString><coordinates>-71.26602633099405,-34.65514627719669,0 -71.2661033,-34.6548783,0</coordinates></LineString></Placemark><Placemark><name>Trabajado - Cuartel 1 - Hilera 148</name><Style><LineStyle><color>ff00ff00</color><width>3</width></LineStyle></Style><LineString><coordinates>-71.26631868760315,-34.655239874605634,0 -71.26606340255994,-34.65504208337875,0</coordinates></LineString></Placemark><Placemark><name>Trabajado - Cuartel 1 - Hilera 149</name><Style><LineStyle><color>ff00ff00</color><width>3</width></LineStyle></Style><LineString><coordinates>-71.2661399,-34.6549966,0 -71.26631472002532,-34.65498899912934,0</coordinates></LineString></Placemark><Placemark><name>Trabajado - Cuartel 1 - Hilera 150</name><Style><LineStyle><color>ff00ff00</color><width>3</width></LineStyle></Style><LineString><coordinates>-71.2661816,-34.65531,0 -71.266075,-34.6553399,0</coordinates></LineString></Placemark><Placemark><name>Trabajado - Cuartel 1 - Hilera 151</name><Style><LineStyle><color>ff00ff00</color><width>3</width></LineStyle></Style><LineString><coordinates>-71.2660683,-34.6552883,0 -71.26630373079432,-34.65522103405877,0</coordinates></LineString></Placemark><Placemark><name>Trabajado - Cuartel 1 - Hilera 152</name><Style><LineStyle><color>ff00ff00</color><width>3</width></LineStyle></Style><LineString><coordinates>-71.2661333,-34.6553,0 -71.2662433,-34.6553266,0</coordinates></LineString></Placemark><Placemark><name>Trabajado - Cuartel 1 - Hilera 153</name><Style><LineStyle><color>ff00ff00</color><width>3</width></LineStyle></Style><LineString><coordinates>-71.26613032521718,-34.65529640172715,0 -71.26615916889168,-34.65499961134962,0</coordinates></LineString></Placemark><Placemark><name>Trabajado - Cuartel 1 - Hilera 154</name><Style><LineStyle><color>ff00ff00</color><width>3</width></LineStyle></Style><LineString><coordinates>-71.26626988716257,-34.65531487441595,0 -71.2663633,-34.6552283,0</coordinates></LineString></Placemark><Placemark><name>Trabajado - Cuartel 1 - Hilera 155</name><Style><LineStyle><color>ff00ff00</color><width>3</width></LineStyle></Style><LineString><coordinates>-71.2663116672712,-34.65521911033108,0 -71.26622547067363,-34.65499536859143,0</coordinates></LineString></Placemark><Placemark><name>Trabajado - Cuartel 1 - Hilera 156</name><Style><LineStyle><color>ff00ff00</color><width>3</width></LineStyle></Style><LineString><coordinates>-71.26610159194554,-34.655013539945976,0 -71.2659583,-34.6551083,0</coordinates></LineString></Placemark><Placemark><name>Trabajado - Cuartel 1 - Hilera 157</name><Style><LineStyle><color>ff00ff00</color><width>3</width></LineStyle></Style><LineString><coordinates>-71.2659583,-34.6551083,0 -71.26635170032814,-34.65507409127581,0</coordinates></LineString></Placemark><Placemark><name>Trabajado - Cuartel 1 - Hilera 158</name><Style><LineStyle><color>ff00ff00</color><width>3</width></LineStyle></Style><LineString><coordinates>-71.26639802578632,-34.65517980350175,0 -71.2661933,-34.6553616,0</coordinates></LineString></Placemark><Placemark><name>Trabajado - Cuartel 1 - Hilera 159</name><Style><LineStyle><color>ff00ff00</color><width>3</width></LineStyle></Style><LineString><coordinates>-71.26630432355911,-34.65531069450873,0 -71.26619115864474,-34.65486633361165,0</coordinates></LineString></Placemark><Placemark><name>Trabajado - Cuartel 1 - Hilera 160</name><Style><LineStyle><color>ff00ff00</color><width>3</width></LineStyle></Style><LineString><coordinates>-71.2663216,-34.655285,0 -71.2662166,-34.6553283,0</coordinates></LineString></Placemark><Placemark><name>Trabajado - Cuartel 1 - Hilera 161</name><Style><LineStyle><color>ff00ff00</color><width>3</width></LineStyle></Style><LineString><coordinates>-71.26628126342679,-34.6552923783678,0 -71.26607379422438,-34.654987577934556,0</coordinates></LineString></Placemark><Placemark><name>Trabajado - Cuartel 1 - Hilera 162</name><Style><LineStyle><color>ff00ff00</color><width>3</width></LineStyle></Style><LineString><coordinates>-71.26635341575758,-34.6550618661333,0 -71.2662216,-34.6553183,0</coordinates></LineString></Placemark><Placemark><name>Trabajado - Cuartel 1 - Hilera 163</name><Style><LineStyle><color>ff00ff00</color><width>3</width></LineStyle></Style><LineString><coordinates>-71.26634034117912,-34.655011444468975,0 -71.2663433,-34.6552116,0</coordinates></LineString></Placemark><Placemark><name>Trabajado - Cuartel 1 - Hilera 164</name><Style><LineStyle><color>ff00ff00</color><width>3</width></LineStyle></Style><LineString><coordinates>-71.2661116,-34.6549666,0 -71.26633395836824,-34.65526072482567,0</coordinates></LineString></Placemark><Placemark><name>Trabajado - Cuartel 1 - Hilera 165</name><Style><LineStyle><color>ff00ff00</color><width>3</width></LineStyle></Style><LineString><coordinates>-71.26626558087584,-34.65495836146907,0 -71.2663666,-34.6550399,0</coordinates></LineString></Placemark><Placemark><name>Trabajado - Cuartel 1 - Hilera 166</name><Style><LineStyle><color>ff00ff00</color><width>3</width></LineStyle></Style><LineString><coordinates>-71.2661166,-34.6553233,0 -71.2660366,-34.6552583,0</coordinates></LineString></Placemark><Placemark><name>Trabajado - Cuartel 1 - Hilera 167</name><Style><LineStyle><color>ff00ff00</color><width>3</width></LineStyle></Style><LineString><coordinates>-71.26611660854887,-34.655041192007886,0 -71.26629318623344,-34.6550437294725,0</coordinates></LineString></Placemark><Placemark><name>Trabajado - Cuartel 1 - Hilera 168</name><Style><LineStyle><color>ff00ff00</color><width>3</width></LineStyle></Style><LineString><coordinates>-71.2662483,-34.6550016,0 -71.2661433,-34.6549116,0</coordinates></LineString></Placemark><Placemark><name>Trabajado - Cuartel 1 - Hilera 169</name><Style><LineStyle><color>ff00ff00</color><width>3</width></LineStyle></Style><LineString><coordinates>-71.2660882253552,-34.655073653308534,0 -71.26674,-34.6558083,0</coordinates></LineString></Placemark><Placemark><name>Trabajado - Cuartel 1 - Hilera 170</name><Style><LineStyle><color>ff00ff00</color><width>3</width></LineStyle></Style><LineString><coordinates>-71.266195,-34.65558,0 -71.2659166,-34.6549016,0</coordinates></LineString></Placemark><Placemark><name>Trabajado - Cuartel 1 - Hilera 171</name><Style><LineStyle><color>ff00ff00</color><width>3</width></LineStyle></Style><LineString><coordinates>-71.2659166,-34.6549016,0 -71.26577,-34.6552616,0</coordinates></LineString></Placemark><Placemark><name>Trabajado - Cuartel 1 - Hilera 172</name><Style><LineStyle><color>ff00ff00</color><width>3</width></LineStyle></Style><LineString><coordinates>-71.26577,-34.6552616,0 -71.2663133,-34.6548516,0</coordinates></LineString></Placemark><Placemark><name>Trabajado - Cuartel 1 - Hilera 173</name><Style><LineStyle><color>ff00ff00</color><width>3</width></LineStyle></Style><LineString><coordinates>-71.2663133,-34.6548516,0 -71.2664566,-34.6555216,0</coordinates></LineString></Placemark><Placemark><name>Trabajado - Cuartel 1 - Hilera 174</name><Style><LineStyle><color>ff00ff00</color><width>3</width></LineStyle></Style><LineString><coordinates>-71.2665066,-34.6549933,0 -71.2665383,-34.6551033,0</coordinates></LineString></Placemark><Placemark><name>Trabajado - Cuartel 1 - Hilera 175</name><Style><LineStyle><color>ff00ff00</color><width>3</width></LineStyle></Style><LineString><coordinates>-71.2665283,-34.6550733,0 -71.2660949,-34.6550066,0</coordinates></LineString></Placemark><Placemark><name>Trabajado - Cuartel 1 - Hilera 176</name><Style><LineStyle><color>ff00ff00</color><width>3</width></LineStyle></Style><LineString><coordinates>-71.26633942432908,-34.65501872995272,0 -71.2662783,-34.6549316,0</coordinates></LineString></Placemark><Placemark><name>Trabajado - Cuartel 1 - Hilera 177</name><Style><LineStyle><color>ff00ff00</color><width>3</width></LineStyle></Style><LineString><coordinates>-71.26630777941656,-34.6552381099286,0 -71.26638978901794,-34.655023244773,0</coordinates></LineString></Placemark><Placemark><name>Trabajado - Cuartel 1 - Hilera 178</name><Style><LineStyle><color>ff00ff00</color><width>3</width></LineStyle></Style><LineString><coordinates>-71.2662366,-34.6550716,0 -71.26615,-34.65501,0</coordinates></LineString></Placemark><Placemark><name>Trabajado - Cuartel 1 - Hilera 179</name><Style><LineStyle><color>ff00ff00</color><width>3</width></LineStyle></Style><LineString><coordinates>-71.2674633,-34.6551283,0 -71.2663566,-34.6552366,0</coordinates></LineString></Placemark><Placemark><name>Trabajado - Cuartel 1 - Hilera 180</name><Style><LineStyle><color>ff00ff00</color><width>3</width></LineStyle></Style><LineString><coordinates>-71.2664216,-34.6551716,0 -71.266195,-34.6550116,0</coordinates></LineString></Placemark><Placemark><name>Trabajado - Cuartel 1 - Hilera 181</name><Style><LineStyle><color>ff00ff00</color><width>3</width></LineStyle></Style><LineString><coordinates>-71.2662016,-34.65488,0 -71.2663466,-34.6547316,0</coordinates></LineString></Placemark><Placemark><name>Trabajado - Cuartel 1 - Hilera 182</name><Style><LineStyle><color>ff00ff00</color><width>3</width></LineStyle></Style><LineString><coordinates>-71.2663466,-34.6547316,0 -71.2661116,-34.654925,0</coordinates></LineString></Placemark><Placemark><name>Trabajado - Cuartel 1 - Hilera 183</name><Style><LineStyle><color>ff00ff00</color><width>3</width></LineStyle></Style><LineString><coordinates>-71.2661116,-34.654925,0 -71.2663816,-34.6552366,0</coordinates></LineString></Placemark><Placemark><name>Trabajado - Cuartel 1 - Hilera 184</name><Style><LineStyle><color>ff00ff00</color><width>3</width></LineStyle></Style><LineString><coordinates>-71.2663166,-34.6550683,0 -71.2662683,-34.6549566,0</coordinates></LineString></Placemark><Placemark><name>Trabajado - Cuartel 1 - Hilera 185</name><Style><LineStyle><color>ff00ff00</color><width>3</width></LineStyle></Style><LineString><coordinates>-71.2661716,-34.6549983,0 -71.2662883,-34.6550216,0</coordinates></LineString></Placemark><Placemark><name>Trabajado - Cuartel 1 - Hilera 186</name><Style><LineStyle><color>ff00ff00</color><width>3</width></LineStyle></Style><LineString><coordinates>-71.2662733,-34.6548816,0 -71.2661916,-34.6547916,0</coordinates></LineString></Placemark><Placemark><name>Trabajado - Cuartel 1 - Hilera 187</name><Style><LineStyle><color>ff00ff00</color><width>3</width></LineStyle></Style><LineString><coordinates>-71.2661916,-34.6547916,0 -71.2660816,-34.6547349,0</coordinates></LineString></Placemark><Placemark><name>Trabajado - Cuartel 1 - Hilera 188</name><Style><LineStyle><color>ff00ff00</color><width>3</width></LineStyle></Style><LineString><coordinates>-71.2659216,-34.6552233,0 -71.2660566,-34.6553633,0</coordinates></LineString></Placemark><Placemark><name>Descartado</name><Style><LineStyle><color>ff00ffff</color><width>3</width></LineStyle></Style><LineString><coordinates>-71.2662083,-34.65509,0 -71.2656899,-34.65519,0</coordinates></LineString></Placemark></Folder></Document></kml>