<?xml version="1.0" encoding="UTF-8"?><kml xmlns="http://www.opengis.net/kml/2.2"><Document><Folder><name>Shacker de Suelo 9</name><Placemark><name>Descartado (grupo chico) - Hilera 1</name><Style><LineStyle><color>ff00ffff</color><width>3</width></LineStyle></Style><LineString><coordinates>-71.2662183,-34.6550016,0 -71.26615715175933,-34.654908993263625,0</coordinates></LineString></Placemark><Placemark><name>Descartado (grupo chico) - Hilera 2</name><Style><LineStyle><color>ff00ffff</color><width>3</width></LineStyle></Style><LineString><coordinates>-71.2662445587031,-34.654909576256784,0 -71.26615915979917,-34.65520885710014,0</coordinates></LineString></Placemark><Placemark><name>Descartado (grupo chico) - Hilera 3</name><Style><LineStyle><color>ff00ffff</color><width>3</width></LineStyle></Style><LineString><coordinates>-71.2661699,-34.6549283,0 -71.266315,-34.6549716,0</coordinates></LineString></Placemark><Placemark><name>Descartado (grupo chico) - Hilera 4</name><Style><LineStyle><color>ff00ffff</color><width>3</width></LineStyle></Style><LineString><coordinates>-71.266315,-34.6549716,0 -71.2662083,-34.65499,0</coordinates></LineString></Placemark><Placemark><name>Descartado (grupo chico) - Hilera 5</name><Style><LineStyle><color>ff00ffff</color><width>3</width></LineStyle></Style><LineString><coordinates>-71.26621,-34.6550916,0 -71.2661466,-34.6551649,0</coordinates></LineString></Placemark><Placemark><name>Descartado (grupo chico) - Hilera 6</name><Style><LineStyle><color>ff00ffff</color><width>3</width></LineStyle></Style><LineString><coordinates>-71.2661466,-34.6551649,0 -71.26613,-34.6550733,0</coordinates></LineString></Placemark><Placemark><name>Descartado (grupo chico) - Hilera 7</name><Style><LineStyle><color>ff00ffff</color><width>3</width></LineStyle></Style><LineString><coordinates>-71.26613,-34.6550733,0 -71.2660849,-34.6551566,0</coordinates></LineString></Placemark><Placemark><name>Descartado (grupo chico) - Hilera 8</name><Style><LineStyle><color>ff00ffff</color><width>3</width></LineStyle></Style><LineString><coordinates>-71.2660849,-34.6551566,0 -71.26604,-34.6550733,0</coordinates></LineString></Placemark><Placemark><name>Descartado (grupo chico) - Hilera 9</name><Style><LineStyle><color>ff00ffff</color><width>3</width></LineStyle></Style><LineString><coordinates>-71.26604,-34.6550733,0 -71.26599,-34.6551566,0</coordinates></LineString></Placemark><Placemark><name>Descartado (grupo chico) - Hilera 10</name><Style><LineStyle><color>ff00ffff</color><width>3</width></LineStyle></Style><LineString><coordinates>-71.26599,-34.6551566,0 -71.2660883,-34.6551116,0</coordinates></LineString></Placemark><Placemark><name>Descartado (grupo chico) - Hilera 11</name><Style><LineStyle><color>ff00ffff</color><width>3</width></LineStyle></Style><LineString><coordinates>-71.2660883,-34.6551116,0 -71.2661249,-34.6551966,0</coordinates></LineString></Placemark><Placemark><name>Descartado (grupo chico) - Hilera 12</name><Style><LineStyle><color>ff00ffff</color><width>3</width></LineStyle></Style><LineString><coordinates>-71.2661249,-34.6551966,0 -71.26623415725041,-34.65515289709983,0</coordinates></LineString></Placemark><Placemark><name>Descartado (grupo chico) - Hilera 13</name><Style><LineStyle><color>ff00ffff</color><width>3</width></LineStyle></Style><LineString><coordinates>-71.2662249,-34.6551566,0 -71.26626486550666,-34.6550474197831,0</coordinates></LineString></Placemark><Placemark><name>Descartado (grupo chico) - Hilera 14</name><Style><LineStyle><color>ff00ffff</color><width>3</width></LineStyle></Style><LineString><coordinates>-71.2662416,-34.65516,0 -71.26629585031841,-34.655018753675485,0</coordinates></LineString></Placemark><Placemark><name>Descartado (grupo chico) - Hilera 15</name><Style><LineStyle><color>ff00ffff</color><width>3</width></LineStyle></Style><LineString><coordinates>-71.2660841008468,-34.65499256652065,0 -71.2663233,-34.6551099,0</coordinates></LineString></Placemark><Placemark><name>Descartado (grupo chico) - Hilera 16</name><Style><LineStyle><color>ff00ffff</color><width>3</width></LineStyle></Style><LineString><coordinates>-71.2663233,-34.6551099,0 -71.2662133,-34.6550983,0</coordinates></LineString></Placemark><Placemark><name>Descartado (grupo chico) - Hilera 17</name><Style><LineStyle><color>ff00ffff</color><width>3</width></LineStyle></Style><LineString><coordinates>-71.2663233,-34.6551033,0 -71.2663666,-34.6551866,0</coordinates></LineString></Placemark><Placemark><name>Descartado (grupo chico) - Hilera 18</name><Style><LineStyle><color>ff00ffff</color><width>3</width></LineStyle></Style><LineString><coordinates>-71.2663666,-34.6551866,0 -71.2663566,-34.6550949,0</coordinates></LineString></Placemark><Placemark><name>Descartado (grupo chico) - Hilera 19</name><Style><LineStyle><color>ff00ffff</color><width>3</width></LineStyle></Style><LineString><coordinates>-71.2663566,-34.6550949,0 -71.2662616,-34.6550466,0</coordinates></LineString></Placemark><Placemark><name>Descartado (grupo chico) - Hilera 20</name><Style><LineStyle><color>ff00ffff</color><width>3</width></LineStyle></Style><LineString><coordinates>-71.26622,-34.65513,0 -71.2663316,-34.65513,0</coordinates></LineString></Placemark><Placemark><name>Descartado (grupo chico) - Hilera 21</name><Style><LineStyle><color>ff00ffff</color><width>3</width></LineStyle></Style><LineString><coordinates>-71.2662383,-34.65516,0 -71.266265,-34.6552483,0</coordinates></LineString></Placemark><Placemark><name>Descartado (grupo chico) - Hilera 22</name><Style><LineStyle><color>ff00ffff</color><width>3</width></LineStyle></Style><LineString><coordinates>-71.266265,-34.6552483,0 -71.266165,-34.65521,0</coordinates></LineString></Placemark><Placemark><name>Descartado (grupo chico) - Hilera 23</name><Style><LineStyle><color>ff00ffff</color><width>3</width></LineStyle></Style><LineString><coordinates>-71.266175,-34.65512,0 -71.2662766,-34.65508,0</coordinates></LineString></Placemark><Placemark><name>Descartado (grupo chico) - Hilera 24</name><Style><LineStyle><color>ff00ffff</color><width>3</width></LineStyle></Style><LineString><coordinates>-71.2661866,-34.65502,0 -71.266175,-34.6551116,0</coordinates></LineString></Placemark><Placemark><name>Descartado (grupo chico) - Hilera 25</name><Style><LineStyle><color>ff00ffff</color><width>3</width></LineStyle></Style><LineString><coordinates>-71.2661683,-34.65502,0 -71.2662816,-34.655015,0</coordinates></LineString></Placemark><Placemark><name>Descartado (grupo chico) - Hilera 26</name><Style><LineStyle><color>ff00ffff</color><width>3</width></LineStyle></Style><LineString><coordinates>-71.2662716,-34.6551183,0 -71.2661799,-34.6550233,0</coordinates></LineString></Placemark></Folder></Document></kml>