<?xml version="1.0" encoding="UTF-8"?><kml xmlns="http://www.opengis.net/kml/2.2"><Document><Folder><name>Cuarteles (geocercas)</name><Placemark><name>Aurora 1 (4.23 ha)</name><Style><LineStyle><color>ffff8000</color><width>2</width></LineStyle><PolyStyle><fill>0</fill></PolyStyle></Style><Polygon><outerBoundaryIs><LinearRing><coordinates>-71.6275399135,-35.1346683716,0 -71.62545404,-35.135335697,0 -71.6247508962,-35.1338072959,0 -71.6251561121,-35.133644692,0 -71.6265545042,-35.1325910093,0 -71.6275399135,-35.1346683716,0</coordinates></LinearRing></outerBoundaryIs></Polygon></Placemark><Placemark><name>Aurora 2 (7.12 ha)</name><Style><LineStyle><color>ffff8000</color><width>2</width></LineStyle><PolyStyle><fill>0</fill></PolyStyle></Style><Polygon><outerBoundaryIs><LinearRing><coordinates>-71.6275809397,-35.1346441201,0 -71.6258220921,-35.1310082368,0 -71.6258967092,-35.1309100065,0 -71.6263349524,-35.1309779825,0 -71.6264020067,-35.1309774945,0 -71.6265963921,-35.1310244705,0 -71.6268226708,-35.1310905924,0 -71.6271892402,-35.1312387613,0 -71.62755054,-35.1313737329,0 -71.6276689733,-35.1316324455,0 -71.6277688825,-35.1318839789,0 -71.6278917434,-35.1321584454,0 -71.6279821204,-35.132292118,0 -71.6281575165,-35.1324452115,0 -71.6283946084,-35.1326225415,0 -71.6284448344,-35.132654676,0 -71.6284313928,-35.1327571665,0 -71.6284659966,-35.1327673702,0 -71.6285375844,-35.1327431229,0 -71.6287304231,-35.1327978925,0 -71.6289264472,-35.1328570875,0 -71.6290021147,-35.1329027524,0 -71.6291802702,-35.1330776149,0 -71.6294663942,-35.1332214497,0 -71.6295661824,-35.1332650424,0 -71.6297415824,-35.1331835568,0 -71.6300599651,-35.1332442212,0 -71.6303649065,-35.1333308748,0 -71.6305901798,-35.1334014631,0 -71.630901221,-35.1335092788,0 -71.630817167,-35.1336234398,0 -71.6275809397,-35.1346441201,0</coordinates></LinearRing></outerBoundaryIs></Polygon></Placemark><Placemark><name>Aurora 3 (3.68 ha)</name><Style><LineStyle><color>ffff8000</color><width>2</width></LineStyle><PolyStyle><fill>0</fill></PolyStyle></Style><Polygon><outerBoundaryIs><LinearRing><coordinates>-71.6275469822,-35.1346972427,0 -71.625481357,-35.1353683593,0 -71.6261916498,-35.1368953842,0 -71.6282800473,-35.1362184819,0 -71.6275469822,-35.1346972427,0</coordinates></LinearRing></outerBoundaryIs></Polygon></Placemark><Placemark><name>Aurora 4 (7.18 ha)</name><Style><LineStyle><color>ffff8000</color><width>2</width></LineStyle><PolyStyle><fill>0</fill></PolyStyle></Style><Polygon><outerBoundaryIs><LinearRing><coordinates>-71.620358791,-35.1351468343,0 -71.6168976165,-35.1362775495,0 -71.6163530783,-35.1359327951,0 -71.6161205938,-35.1354598847,0 -71.616115343,-35.1353195328,0 -71.6171383366,-35.1345214566,0 -71.6178165168,-35.134016343,0 -71.618286828,-35.1336652611,0 -71.6186149686,-35.1334139453,0 -71.6188416454,-35.1332265083,0 -71.6190162876,-35.133043321,0 -71.6191986201,-35.1328356782,0 -71.6192207358,-35.1328214454,0 -71.619237106,-35.1328277468,0 -71.620358791,-35.1351468343,0</coordinates></LinearRing></outerBoundaryIs></Polygon></Placemark><Placemark><name>Aurora 5 (1.60 ha)</name><Style><LineStyle><color>ffff8000</color><width>2</width></LineStyle><PolyStyle><fill>0</fill></PolyStyle></Style><Polygon><outerBoundaryIs><LinearRing><coordinates>-71.6170864136,-35.1337561805,0 -71.6168558645,-35.1337299001,0 -71.6167320927,-35.1335760679,0 -71.6166072281,-35.1334412756,0 -71.6164868674,-35.1334183944,0 -71.6164005608,-35.1334261464,0 -71.6163097745,-35.1334174724,0 -71.6162222302,-35.1332486023,0 -71.616167693,-35.1332354344,0 -71.616021371,-35.1331137958,0 -71.6159086499,-35.1330007413,0 -71.6158555206,-35.1328694849,0 -71.6158621113,-35.1326150903,0 -71.6158981463,-35.1325221635,0 -71.6161317279,-35.1324450487,0 -71.6166544806,-35.1322832191,0 -71.6170582997,-35.1321561133,0 -71.6174554869,-35.1329503443,0 -71.6172483535,-35.1332378622,0 -71.6172038322,-35.1335210391,0 -71.6171784947,-35.1336603591,0 -71.6170864136,-35.1337561805,0</coordinates></LinearRing></outerBoundaryIs></Polygon></Placemark><Placemark><name>Aurora 6 (0.50 ha)</name><Style><LineStyle><color>ffff8000</color><width>2</width></LineStyle><PolyStyle><fill>0</fill></PolyStyle></Style><Polygon><outerBoundaryIs><LinearRing><coordinates>-71.616279296,-35.132357306,0 -71.6162110529,-35.1322175791,0 -71.6162742545,-35.1320565808,0 -71.6163461387,-35.1318039613,0 -71.6164746355,-35.1313772545,0 -71.6165212784,-35.1312688263,0 -71.6165499112,-35.131234961,0 -71.6166189985,-35.1312425405,0 -71.6170463615,-35.1321105585,0 -71.616279296,-35.132357306,0</coordinates></LinearRing></outerBoundaryIs></Polygon></Placemark><Placemark><name>Aurora 7 (2.45 ha)</name><Style><LineStyle><color>ffff8000</color><width>2</width></LineStyle><PolyStyle><fill>0</fill></PolyStyle></Style><Polygon><outerBoundaryIs><LinearRing><coordinates>-71.6175056239,-35.132924693,0 -71.6167036693,-35.1312904498,0 -71.6169314905,-35.1313673606,0 -71.6173998908,-35.13155779,0 -71.6176685713,-35.1316450174,0 -71.6179514786,-35.1316557758,0 -71.6183416744,-35.1316603928,0 -71.6187826225,-35.1316519581,0 -71.6188592983,-35.131627245,0 -71.6189846051,-35.1315554703,0 -71.6190784291,-35.1314895618,0 -71.6192501224,-35.1313827472,0 -71.6194561695,-35.1312553367,0 -71.619844413,-35.1309974721,0 -71.6200397822,-35.1308835828,0 -71.6200664688,-35.1308823314,0 -71.6200690355,-35.1309064885,0 -71.6200372855,-35.1309688776,0 -71.6199546397,-35.1311022141,0 -71.6198479692,-35.1312547234,0 -71.6196948412,-35.1314992785,0 -71.6194919618,-35.131795175,0 -71.6194502407,-35.1318801069,0 -71.6194147851,-35.131934881,0 -71.6191531502,-35.1320605006,0 -71.6187762174,-35.1323182661,0 -71.6186514366,-35.1324062518,0 -71.6183439821,-35.13256181,0 -71.6179728167,-35.1327214736,0 -71.6177971282,-35.1328231764,0 -71.6176073873,-35.1328979768,0 -71.6175056239,-35.132924693,0</coordinates></LinearRing></outerBoundaryIs></Polygon></Placemark><Placemark><name>Aurora 8 (2.80 ha)</name><Style><LineStyle><color>ffff8000</color><width>2</width></LineStyle><PolyStyle><fill>0</fill></PolyStyle></Style><Polygon><outerBoundaryIs><LinearRing><coordinates>-71.6165057755,-35.1310177417,0 -71.6164724326,-35.1309762334,0 -71.6164953194,-35.1308576045,0 -71.616486138,-35.1308068285,0 -71.6164670033,-35.1305575447,0 -71.61641058,-35.1304099466,0 -71.6164668769,-35.1303316095,0 -71.616882023,-35.130374176,0 -71.6170206559,-35.1303840878,0 -71.6173397577,-35.1304270761,0 -71.617731669,-35.1304712041,0 -71.6178853515,-35.1304799042,0 -71.6184555832,-35.1305497395,0 -71.6191201925,-35.1306267546,0 -71.6194783127,-35.1306784541,0 -71.6199377345,-35.1307264282,0 -71.6200984778,-35.1307407168,0 -71.6200603667,-35.1308211088,0 -71.6198810097,-35.1309253314,0 -71.619739275,-35.1309591901,0 -71.6196753308,-35.1309860845,0 -71.619072856,-35.1313371821,0 -71.6187555318,-35.1315258384,0 -71.6181796692,-35.1315300287,0 -71.6178591504,-35.1315307105,0 -71.617562644,-35.1314773343,0 -71.6172169182,-35.1313457765,0 -71.6165057755,-35.1310177417,0</coordinates></LinearRing></outerBoundaryIs></Polygon></Placemark><Placemark><name>Aurora 9 (6.11 ha)</name><Style><LineStyle><color>ffff8000</color><width>2</width></LineStyle><PolyStyle><fill>0</fill></PolyStyle></Style><Polygon><outerBoundaryIs><LinearRing><coordinates>-71.6202549857,-35.1306826025,0 -71.6201253933,-35.1306944492,0 -71.6193310485,-35.1306055021,0 -71.6185046586,-35.1305097344,0 -71.6178924999,-35.13043876,0 -71.6173851872,-35.130379946,0 -71.6173166767,-35.1303614079,0 -71.6172270349,-35.1303651592,0 -71.6164201378,-35.1302724373,0 -71.6163456466,-35.1301007893,0 -71.6161798913,-35.1297090336,0 -71.61603312,-35.1293986995,0 -71.6159782581,-35.129290956,0 -71.6159668016,-35.1292716214,0 -71.6160087738,-35.129221429,0 -71.6163673126,-35.1292342403,0 -71.6171024789,-35.1292492882,0 -71.61773788,-35.1292677742,0 -71.6177066687,-35.1293670012,0 -71.6177582114,-35.1293848647,0 -71.6178051301,-35.1292706732,0 -71.6185937263,-35.1293554664,0 -71.6189876422,-35.1294224213,0 -71.6192711722,-35.1294501559,0 -71.6197640118,-35.1292751896,0 -71.6203382806,-35.1290291243,0 -71.6210786083,-35.1286526618,0 -71.6215634559,-35.1284010156,0 -71.6217701112,-35.1283037033,0 -71.6217961608,-35.1283177398,0 -71.6210155018,-35.1294992824,0 -71.6202549857,-35.1306826025,0</coordinates></LinearRing></outerBoundaryIs></Polygon></Placemark><Placemark><name>Aurora 10 (2.33 ha)</name><Style><LineStyle><color>ffff8000</color><width>2</width></LineStyle><PolyStyle><fill>0</fill></PolyStyle></Style><Polygon><outerBoundaryIs><LinearRing><coordinates>-71.6229962655,-35.1474390321,0 -71.6228396054,-35.1475361047,0 -71.622592428,-35.147656183,0 -71.6220344587,-35.147877441,0 -71.6217624366,-35.1479699592,0 -71.6216758644,-35.1479341574,0 -71.6204911396,-35.1457064373,0 -71.6205369215,-35.1455684416,0 -71.6206092408,-35.1454807804,0 -71.620690013,-35.1455078549,0 -71.6226881438,-35.1471544881,0 -71.6229655664,-35.1473624951,0 -71.6229962655,-35.1474390321,0</coordinates></LinearRing></outerBoundaryIs></Polygon></Placemark></Folder><Folder><name>Tractor 10 Deutz Fahr 115</name><Placemark><name>Aurora 10 - Hilera 1</name><Style><LineStyle><color>ff00ff00</color><width>3</width></LineStyle></Style><LineString><coordinates>-71.621715,-35.1479366,0 -71.6205180839526,-35.14568106638363,0</coordinates></LineString></Placemark><Placemark><name>Aurora 10 - Hilera 2</name><Style><LineStyle><color>ff00ff00</color><width>3</width></LineStyle></Style><LineString><coordinates>-71.62054482521228,-35.145645770043096,0 -71.6217299,-35.1479133,0</coordinates></LineString></Placemark><Placemark><name>Aurora 10 - Hilera 3</name><Style><LineStyle><color>ff00ff00</color><width>3</width></LineStyle></Style><LineString><coordinates>-71.6205566,-35.1456416,0 -71.62173041310207,-35.1478057606217,0</coordinates></LineString></Placemark><Placemark><name>Aurora 10 - Hilera 4</name><Style><LineStyle><color>ff00ff00</color><width>3</width></LineStyle></Style><LineString><coordinates>-71.6217333,-35.147805,0 -71.6206,-35.1456183,0</coordinates></LineString></Placemark><Placemark><name>Aurora 10 - Hilera 5</name><Style><LineStyle><color>ff00ff00</color><width>3</width></LineStyle></Style><LineString><coordinates>-71.62055779277568,-35.145539887363924,0 -71.6217716,-35.1477949,0</coordinates></LineString></Placemark><Placemark><name>Aurora 10 - Hilera 6</name><Style><LineStyle><color>ff00ff00</color><width>3</width></LineStyle></Style><LineString><coordinates>-71.6205849,-35.14553,0 -71.6217566,-35.1476983,0</coordinates></LineString></Placemark><Placemark><name>Aurora 10 - Hilera 7</name><Style><LineStyle><color>ff00ff00</color><width>3</width></LineStyle></Style><LineString><coordinates>-71.62182273054489,-35.14777081315381,0 -71.6206299,-35.1455149,0</coordinates></LineString></Placemark><Placemark><name>Aurora 10 - Hilera 8</name><Style><LineStyle><color>ff00ff00</color><width>3</width></LineStyle></Style><LineString><coordinates>-71.62189339826023,-35.14784797108033,0 -71.6207083,-35.1455783,0</coordinates></LineString></Placemark><Placemark><name>Aurora 10 - Hilera 9</name><Style><LineStyle><color>ff00ff00</color><width>3</width></LineStyle></Style><LineString><coordinates>-71.6219066,-35.1478433,0 -71.6207933,-35.1456566,0</coordinates></LineString></Placemark><Placemark><name>Aurora 10 - Hilera 10</name><Style><LineStyle><color>ff00ff00</color><width>3</width></LineStyle></Style><LineString><coordinates>-71.6207933,-35.1456566,0 -71.6220533,-35.1478683,0</coordinates></LineString></Placemark><Placemark><name>Aurora 10 - Hilera 11</name><Style><LineStyle><color>ff00ff00</color><width>3</width></LineStyle></Style><LineString><coordinates>-71.6220533,-35.1478683,0 -71.62196,-35.1478183,0</coordinates></LineString></Placemark><Placemark><name>Aurora 10 - Hilera 12</name><Style><LineStyle><color>ff00ff00</color><width>3</width></LineStyle></Style><LineString><coordinates>-71.62196,-35.1478183,0 -71.6208966,-35.1457133,0</coordinates></LineString></Placemark><Placemark><name>Aurora 10 - Hilera 13</name><Style><LineStyle><color>ff00ff00</color><width>3</width></LineStyle></Style><LineString><coordinates>-71.6208966,-35.1457133,0 -71.62205,-35.1477949,0</coordinates></LineString></Placemark><Placemark><name>Aurora 10 - Hilera 14</name><Style><LineStyle><color>ff00ff00</color><width>3</width></LineStyle></Style><LineString><coordinates>-71.62205,-35.1477949,0 -71.6209666,-35.1457399,0</coordinates></LineString></Placemark><Placemark><name>Aurora 10 - Hilera 15</name><Style><LineStyle><color>ff00ff00</color><width>3</width></LineStyle></Style><LineString><coordinates>-71.6220733,-35.1477833,0 -71.6210783,-35.1458616,0</coordinates></LineString></Placemark><Placemark><name>Aurora 10 - Hilera 16</name><Style><LineStyle><color>ff00ff00</color><width>3</width></LineStyle></Style><LineString><coordinates>-71.621095,-35.1458566,0 -71.6221,-35.1477983,0</coordinates></LineString></Placemark><Placemark><name>Aurora 10 - Hilera 17</name><Style><LineStyle><color>ff00ff00</color><width>3</width></LineStyle></Style><LineString><coordinates>-71.6211566,-35.145895,0 -71.6221666,-35.147825,0</coordinates></LineString></Placemark><Placemark><name>Aurora 10 - Hilera 18</name><Style><LineStyle><color>ff00ff00</color><width>3</width></LineStyle></Style><LineString><coordinates>-71.6214416,-35.1464,0 -71.62124,-35.14598,0</coordinates></LineString></Placemark><Placemark><name>Aurora 10 - Hilera 19</name><Style><LineStyle><color>ff00ff00</color><width>3</width></LineStyle></Style><LineString><coordinates>-71.62124,-35.14598,0 -71.6221,-35.1476599,0</coordinates></LineString></Placemark><Placemark><name>Aurora 10 - Hilera 20</name><Style><LineStyle><color>ff00ff00</color><width>3</width></LineStyle></Style><LineString><coordinates>-71.6214033,-35.1462266,0 -71.6221483,-35.1476566,0</coordinates></LineString></Placemark><Placemark><name>Aurora 10 - Hilera 21</name><Style><LineStyle><color>ff00ff00</color><width>3</width></LineStyle></Style><LineString><coordinates>-71.6221733,-35.1476316,0 -71.6213616,-35.1461383,0</coordinates></LineString></Placemark><Placemark><name>Aurora 10 - Hilera 22</name><Style><LineStyle><color>ff00ff00</color><width>3</width></LineStyle></Style><LineString><coordinates>-71.621405,-35.1461416,0 -71.6222049,-35.1476433,0</coordinates></LineString></Placemark><Placemark><name>Aurora 10 - Hilera 23</name><Style><LineStyle><color>ff00ff00</color><width>3</width></LineStyle></Style><LineString><coordinates>-71.621425,-35.1461366,0 -71.6222383,-35.1477749,0</coordinates></LineString></Placemark><Placemark><name>Aurora 10 - Hilera 24</name><Style><LineStyle><color>ff00ff00</color><width>3</width></LineStyle></Style><LineString><coordinates>-71.6215116,-35.14625,0 -71.6223083,-35.1477483,0</coordinates></LineString></Placemark><Placemark><name>Aurora 10 - Hilera 25</name><Style><LineStyle><color>ff00ff00</color><width>3</width></LineStyle></Style><LineString><coordinates>-71.62233783984732,-35.147733960475364,0 -71.6215899,-35.14631,0</coordinates></LineString></Placemark><Placemark><name>Aurora 10 - Hilera 26</name><Style><LineStyle><color>ff00ff00</color><width>3</width></LineStyle></Style><LineString><coordinates>-71.6216816,-35.146415,0 -71.62233291470764,-35.147675544464974,0</coordinates></LineString></Placemark><Placemark><name>Aurora 10 - Hilera 27</name><Style><LineStyle><color>ff00ff00</color><width>3</width></LineStyle></Style><LineString><coordinates>-71.6223466,-35.147675,0 -71.6217516,-35.1464099,0</coordinates></LineString></Placemark><Placemark><name>Aurora 10 - Hilera 28</name><Style><LineStyle><color>ff00ff00</color><width>3</width></LineStyle></Style><LineString><coordinates>-71.6217516,-35.1464099,0 -71.6224116,-35.1476666,0</coordinates></LineString></Placemark><Placemark><name>Aurora 10 - Hilera 29</name><Style><LineStyle><color>ff00ff00</color><width>3</width></LineStyle></Style><LineString><coordinates>-71.62242,-35.1476633,0 -71.621855,-35.1464833,0</coordinates></LineString></Placemark><Placemark><name>Aurora 10 - Hilera 30</name><Style><LineStyle><color>ff00ff00</color><width>3</width></LineStyle></Style><LineString><coordinates>-71.621855,-35.1464833,0 -71.6214183,-35.1461083,0</coordinates></LineString></Placemark><Placemark><name>Descartado (fuera de geocerca o traslado)</name><Style><LineStyle><color>ff00ffff</color><width>3</width></LineStyle></Style><LineString><coordinates>-71.6205449,-35.1457316,0 -71.6205316,-35.14573,0</coordinates></LineString></Placemark><Placemark><name>Descartado (fuera de geocerca o traslado)</name><Style><LineStyle><color>ff00ffff</color><width>3</width></LineStyle></Style><LineString><coordinates>-71.6205166,-35.1456816,0 -71.6205566,-35.1456683,0</coordinates></LineString></Placemark><Placemark><name>Descartado (fuera de geocerca o traslado)</name><Style><LineStyle><color>ff00ffff</color><width>3</width></LineStyle></Style><LineString><coordinates>-71.6217099,-35.1478133,0 -71.6217333,-35.147805,0</coordinates></LineString></Placemark><Placemark><name>Descartado (fuera de geocerca o traslado)</name><Style><LineStyle><color>ff00ffff</color><width>3</width></LineStyle></Style><LineString><coordinates>-71.6217566,-35.1476983,0 -71.62178,-35.14769,0</coordinates></LineString></Placemark><Placemark><name>Descartado (fuera de geocerca o traslado)</name><Style><LineStyle><color>ff00ffff</color><width>3</width></LineStyle></Style><LineString><coordinates>-71.621825,-35.14777,0 -71.6218483,-35.1477616,0</coordinates></LineString></Placemark><Placemark><name>Descartado (fuera de geocerca o traslado)</name><Style><LineStyle><color>ff00ffff</color><width>3</width></LineStyle></Style><LineString><coordinates>-71.6220483,-35.1477933,0 -71.6220733,-35.1477833,0</coordinates></LineString></Placemark><Placemark><name>Descartado (fuera de geocerca o traslado)</name><Style><LineStyle><color>ff00ffff</color><width>3</width></LineStyle></Style><LineString><coordinates>-71.6210783,-35.1458616,0 -71.621095,-35.1458566,0</coordinates></LineString></Placemark><Placemark><name>Descartado (fuera de geocerca o traslado)</name><Style><LineStyle><color>ff00ffff</color><width>3</width></LineStyle></Style><LineString><coordinates>-71.6211533,-35.145955,0 -71.6211566,-35.145895,0</coordinates></LineString></Placemark><Placemark><name>Descartado (fuera de geocerca o traslado)</name><Style><LineStyle><color>ff00ffff</color><width>3</width></LineStyle></Style><LineString><coordinates>-71.6213883,-35.1462249,0 -71.6214033,-35.1462266,0</coordinates></LineString></Placemark><Placemark><name>Descartado (fuera de geocerca o traslado)</name><Style><LineStyle><color>ff00ffff</color><width>3</width></LineStyle></Style><LineString><coordinates>-71.6221483,-35.1476566,0 -71.6221733,-35.1476316,0</coordinates></LineString></Placemark><Placemark><name>Descartado (fuera de geocerca o traslado)</name><Style><LineStyle><color>ff00ffff</color><width>3</width></LineStyle></Style><LineString><coordinates>-71.6213616,-35.1461383,0 -71.621405,-35.1461416,0</coordinates></LineString></Placemark><Placemark><name>Descartado (fuera de geocerca o traslado)</name><Style><LineStyle><color>ff00ffff</color><width>3</width></LineStyle></Style><LineString><coordinates>-71.6223083,-35.1477483,0 -71.6223366,-35.1477316,0</coordinates></LineString></Placemark><Placemark><name>Descartado (fuera de geocerca o traslado)</name><Style><LineStyle><color>ff00ffff</color><width>3</width></LineStyle></Style><LineString><coordinates>-71.621645,-35.1464066,0 -71.6216816,-35.146415,0</coordinates></LineString></Placemark><Placemark><name>Descartado (fuera de geocerca o traslado)</name><Style><LineStyle><color>ff00ffff</color><width>3</width></LineStyle></Style><LineString><coordinates>-71.6223299,-35.1476766,0 -71.6223466,-35.147675,0</coordinates></LineString></Placemark><Placemark><name>Descartado (fuera de geocerca o traslado)</name><Style><LineStyle><color>ff00ffff</color><width>3</width></LineStyle></Style><LineString><coordinates>-71.6224116,-35.1476666,0 -71.62242,-35.1476633,0</coordinates></LineString></Placemark></Folder></Document></kml>